{"type":"FeatureCollection","features":[{"type":"Feature","geometry":{"type":"Polygon","coordinates":[[[9.19726,45.4707],[9.19538,45.47221],[9.19512,45.47209],[9.19385,45.47098],[9.19291,45.46999],[9.19216,45.4696],[9.19023,45.46775],[9.18995,45.46757],[9.18946,45.4679],[9.18818,45.46912],[9.18523,45.46891],[9.18522,45.4687],[9.1831,45.46851],[9.18282,45.46824],[9.18303,45.46794],[9.18252,45.46763],[9.18354,45.46598],[9.18345,45.46578],[9.18479,45.46588],[9.18547,45.46448],[9.18637,45.46404],[9.18763,45.4631],[9.18575,45.46161],[9.18646,45.46096],[9.18669,45.46068],[9.1875,45.46075],[9.18774,45.4602],[9.18806,45.46014],[9.18789,45.45949],[9.18806,45.45928],[9.18911,45.46002],[9.18989,45.45979],[9.19279,45.46179],[9.19324,45.46204],[9.19377,45.462],[9.19387,45.46233],[9.19476,45.4629],[9.19629,45.46294],[9.19733,45.46287],[9.19811,45.46236],[9.19969,45.464],[9.2005,45.46548],[9.20067,45.46678],[9.20055,45.46729],[9.19993,45.46819],[9.19925,45.46895],[9.19808,45.47009],[9.19726,45.4707]]]},"properties":{"zona":"B12","linkzona":"MI00003228","fascia":"B","fascia_label":"Centrale","descr":"CENTRO STORICO -DUOMO, SANBABILA, MONTENAPOLEONE, MISSORI, CAIROLI","semestre":"2025-S2","loc_min":25.0,"loc_max":35.0,"loc_mid":30.0,"sale_min":8700.0,"sale_max":10900.0,"sup":"L","tipologia":"Abitazioni civili","stato":"NORMALE","ott_min":35.1,"ott_max":50.0}},{"type":"Feature","geometry":{"type":"Polygon","coordinates":[[[9.18646,45.46096],[9.18623,45.46085],[9.18567,45.46155],[9.18466,45.46095],[9.18396,45.46074],[9.18194,45.46047],[9.18113,45.46001],[9.18077,45.46014],[9.17937,45.4596],[9.17772,45.45904],[9.1784,45.45857],[9.18081,45.45751],[9.18186,45.45737],[9.18473,45.45671],[9.18509,45.4565],[9.18733,45.45611],[9.18775,45.45611],[9.19073,45.45719],[9.19147,45.4574],[9.19312,45.45758],[9.19368,45.458],[9.19703,45.46155],[9.19724,45.46147],[9.19811,45.46236],[9.19733,45.46287],[9.19629,45.46294],[9.19476,45.4629],[9.19387,45.46233],[9.19377,45.462],[9.19324,45.46204],[9.19279,45.46179],[9.18989,45.45979],[9.18911,45.46002],[9.18806,45.45928],[9.18789,45.45949],[9.18806,45.46014],[9.18774,45.4602],[9.1875,45.46075],[9.18669,45.46068],[9.18646,45.46096]]]},"properties":{"zona":"B13","linkzona":"MI00003232","fascia":"B","fascia_label":"Centrale","descr":"CENTRO STORICO -UNIVERSITA STATALE, SAN LORENZO","semestre":"2025-S2","loc_min":19.0,"loc_max":26.0,"loc_mid":22.5,"sale_min":6700.0,"sale_max":8700.0,"sup":"L","tipologia":"Abitazioni civili","stato":"NORMALE","ott_min":26.1,"ott_max":35.0}},{"type":"Feature","geometry":{"type":"Polygon","coordinates":[[[9.19512,45.47209],[9.19465,45.47242],[9.1905,45.47313],[9.18844,45.4729],[9.18741,45.47262],[9.18732,45.47283],[9.18402,45.47209],[9.18313,45.47177],[9.18326,45.47144],[9.18261,45.47129],[9.18227,45.47157],[9.1816,45.47116],[9.18137,45.47134],[9.182,45.47177],[9.18115,45.4725],[9.18072,45.47301],[9.1804,45.47296],[9.17966,45.47239],[9.17922,45.47226],[9.17827,45.47144],[9.17704,45.47085],[9.17663,45.47048],[9.17532,45.46965],[9.17648,45.46874],[9.17602,45.46844],[9.17672,45.46874],[9.17785,45.46784],[9.18025,45.46704],[9.18116,45.46695],[9.18252,45.46763],[9.18303,45.46794],[9.18282,45.46824],[9.1831,45.46851],[9.18522,45.4687],[9.18523,45.46891],[9.18818,45.46912],[9.18946,45.4679],[9.18995,45.46757],[9.19023,45.46775],[9.19216,45.4696],[9.19291,45.46999],[9.19385,45.47098],[9.19512,45.47209]]]},"properties":{"zona":"B15","linkzona":"MI00003544","fascia":"B","fascia_label":"Centrale","descr":"CENTRO STORICO - BRERA","semestre":"2025-S2","loc_min":26.0,"loc_max":35.0,"loc_mid":30.5,"sale_min":9500.0,"sale_max":12000.0,"sup":"L","tipologia":"Abitazioni civili","stato":"NORMALE","ott_min":35.1,"ott_max":49.0}},{"type":"Feature","geometry":{"type":"Polygon","coordinates":[[[9.18646,45.46096],[9.18575,45.46161],[9.18763,45.4631],[9.18637,45.46404],[9.18547,45.46448],[9.18479,45.46588],[9.18345,45.46578],[9.18354,45.46598],[9.18252,45.46763],[9.18116,45.46695],[9.18025,45.46704],[9.17785,45.46784],[9.17672,45.46874],[9.17602,45.46844],[9.17536,45.46774],[9.17622,45.46777],[9.1766,45.46764],[9.17659,45.46714],[9.17581,45.46577],[9.1756,45.46568],[9.17382,45.46242],[9.17366,45.46204],[9.17357,45.46163],[9.17587,45.46002],[9.17691,45.4594],[9.17772,45.45904],[9.17937,45.4596],[9.18077,45.46014],[9.18113,45.46001],[9.18194,45.46047],[9.18396,45.46074],[9.18466,45.46095],[9.18567,45.46155],[9.18623,45.46085],[9.18646,45.46096]]]},"properties":{"zona":"B16","linkzona":"MI00003545","fascia":"B","fascia_label":"Centrale","descr":"CENTRO STORICO -SANT`AMBROGIO, CADORNA, VIA DANTE","semestre":"2025-S2","loc_min":22.0,"loc_max":28.5,"loc_mid":25.25,"sale_min":7000.0,"sale_max":9400.0,"sup":"L","tipologia":"Abitazioni civili","stato":"NORMALE","ott_min":28.6,"ott_max":38.0}},{"type":"Feature","geometry":{"type":"Polygon","coordinates":[[[9.18115,45.4725],[9.18211,45.47307],[9.18133,45.47754],[9.18126,45.47806],[9.18163,45.47838],[9.18162,45.47906],[9.18237,45.48118],[9.18185,45.48183],[9.18128,45.48207],[9.18107,45.48064],[9.17943,45.48053],[9.17494,45.47992],[9.17479,45.47981],[9.17327,45.47961],[9.1728,45.47947],[9.17113,45.48032],[9.16902,45.47901],[9.16891,45.4787],[9.16952,45.47817],[9.16891,45.47776],[9.16829,45.47821],[9.16732,45.47759],[9.16688,45.47791],[9.16609,45.47744],[9.16628,45.47722],[9.16504,45.4764],[9.16421,45.47455],[9.16709,45.47235],[9.16608,45.47168],[9.16634,45.47142],[9.16522,45.46775],[9.16461,45.46755],[9.16496,45.46686],[9.16573,45.46594],[9.16551,45.46493],[9.16896,45.46385],[9.17368,45.46242],[9.17366,45.46204],[9.17382,45.46242],[9.1756,45.46568],[9.17581,45.46577],[9.17659,45.46714],[9.1766,45.46764],[9.17622,45.46777],[9.17536,45.46774],[9.17602,45.46844],[9.17648,45.46874],[9.17532,45.46965],[9.17663,45.47048],[9.17704,45.47085],[9.17827,45.47144],[9.17922,45.47226],[9.17966,45.47239],[9.1804,45.47296],[9.18072,45.47301],[9.18115,45.4725]]]},"properties":{"zona":"B17","linkzona":"MI00004767","fascia":"B","fascia_label":"Centrale","descr":"PARCO SEMPIONE, ARCO DELLA PACE, CORSO MAGENTA","semestre":"2025-S2","loc_min":17.6,"loc_max":26.4,"loc_mid":22.0,"sale_min":6100.0,"sale_max":8200.0,"sup":"L","tipologia":"Abitazioni civili","stato":"NORMALE","ott_min":26.5,"ott_max":35.0}},{"type":"Feature","geometry":{"type":"Polygon","coordinates":[[[9.19726,45.4707],[9.19808,45.47009],[9.19925,45.46895],[9.20021,45.47],[9.2022,45.47184],[9.20453,45.47413],[9.20501,45.47391],[9.20539,45.47433],[9.20455,45.47468],[9.20325,45.47539],[9.20059,45.47658],[9.20039,45.47658],[9.19854,45.47728],[9.19803,45.47734],[9.19537,45.47856],[9.19576,45.47908],[9.19485,45.4795],[9.1944,45.47971],[9.19402,45.47988],[9.19371,45.47946],[9.19232,45.47957],[9.19204,45.4799],[9.19109,45.47999],[9.18776,45.48044],[9.18743,45.4804],[9.18353,45.48114],[9.18284,45.48102],[9.18237,45.48118],[9.18162,45.47906],[9.18163,45.47838],[9.18126,45.47806],[9.18133,45.47754],[9.18211,45.47307],[9.18115,45.4725],[9.182,45.47177],[9.18137,45.47134],[9.1816,45.47116],[9.18227,45.47157],[9.18261,45.47129],[9.18326,45.47144],[9.18313,45.47177],[9.18402,45.47209],[9.18732,45.47283],[9.18741,45.47262],[9.18844,45.4729],[9.1905,45.47313],[9.19465,45.47242],[9.19512,45.47209],[9.19538,45.47221],[9.19726,45.4707]]]},"properties":{"zona":"B18","linkzona":"MI00004768","fascia":"B","fascia_label":"Centrale","descr":"TURATI, MOSCOVA, CORSO VENEZIA","semestre":"2025-S2","loc_min":21.5,"loc_max":29.0,"loc_mid":25.25,"sale_min":6500.0,"sale_max":9000.0,"sup":"L","tipologia":"Abitazioni civili","stato":"NORMALE","ott_min":29.1,"ott_max":42.0}},{"type":"Feature","geometry":{"type":"Polygon","coordinates":[[[9.19312,45.45758],[9.19396,45.45716],[9.19492,45.45643],[9.19567,45.45602],[9.19613,45.45601],[9.19806,45.4548],[9.19795,45.45468],[9.20158,45.45245],[9.20265,45.45228],[9.20563,45.45776],[9.20591,45.45778],[9.20645,45.45858],[9.20623,45.45869],[9.20759,45.46037],[9.20767,45.46089],[9.20759,45.46177],[9.20783,45.4618],[9.20774,45.46279],[9.20749,45.46281],[9.20705,45.4674],[9.20651,45.46758],[9.20649,45.46787],[9.20699,45.468],[9.20657,45.47187],[9.20667,45.47198],[9.20651,45.47379],[9.20626,45.47418],[9.20562,45.47444],[9.20481,45.47494],[9.20455,45.47468],[9.20539,45.47433],[9.20501,45.47391],[9.20453,45.47413],[9.2022,45.47184],[9.20021,45.47],[9.19925,45.46895],[9.19993,45.46819],[9.20055,45.46729],[9.20067,45.46678],[9.2005,45.46548],[9.19969,45.464],[9.19811,45.46236],[9.19724,45.46147],[9.19703,45.46155],[9.19368,45.458],[9.19312,45.45758]]]},"properties":{"zona":"B19","linkzona":"MI00004769","fascia":"B","fascia_label":"Centrale","descr":"VENEZIA, PORTA VITTORIA, PORTA ROMANA","semestre":"2025-S2","loc_min":19.0,"loc_max":27.0,"loc_mid":23.0,"sale_min":6500.0,"sale_max":9000.0,"sup":"L","tipologia":"Abitazioni civili","stato":"NORMALE","ott_min":27.1,"ott_max":37.0}},{"type":"Feature","geometry":{"type":"Polygon","coordinates":[[[9.19312,45.45758],[9.19147,45.4574],[9.19073,45.45719],[9.18775,45.45611],[9.18733,45.45611],[9.18509,45.4565],[9.18473,45.45671],[9.18186,45.45737],[9.18081,45.45751],[9.18085,45.45731],[9.18018,45.45316],[9.18125,45.45295],[9.18112,45.45211],[9.18352,45.45201],[9.18688,45.45169],[9.19019,45.45084],[9.19057,45.45104],[9.19649,45.45103],[9.20143,45.45101],[9.20239,45.45125],[9.20266,45.45204],[9.20265,45.45228],[9.20158,45.45245],[9.19795,45.45468],[9.19806,45.4548],[9.19613,45.45601],[9.19567,45.45602],[9.19492,45.45643],[9.19396,45.45716],[9.19312,45.45758]]]},"properties":{"zona":"B20","linkzona":"MI00004770","fascia":"B","fascia_label":"Centrale","descr":"PORTA VIGENTINA, PORTA ROMANA","semestre":"2025-S2","loc_min":17.0,"loc_max":22.0,"loc_mid":19.5,"sale_min":5200.0,"sale_max":7200.0,"sup":"L","tipologia":"Abitazioni civili","stato":"NORMALE","ott_min":22.1,"ott_max":33.0}},{"type":"Feature","geometry":{"type":"Polygon","coordinates":[[[9.17366,45.46204],[9.17368,45.46242],[9.16896,45.46385],[9.16551,45.46493],[9.16573,45.46594],[9.16496,45.46686],[9.1635,45.46213],[9.16354,45.46169],[9.16424,45.46155],[9.1638,45.46087],[9.16396,45.46057],[9.1656,45.45952],[9.1686,45.45756],[9.16893,45.45755],[9.17173,45.4557],[9.17173,45.4555],[9.1763,45.45254],[9.1768,45.45232],[9.178,45.45217],[9.17886,45.45226],[9.17893,45.45194],[9.18094,45.45202],[9.18112,45.45211],[9.18125,45.45295],[9.18018,45.45316],[9.18085,45.45731],[9.18081,45.45751],[9.1784,45.45857],[9.17772,45.45904],[9.17691,45.4594],[9.17587,45.46002],[9.17357,45.46163],[9.17366,45.46204]]]},"properties":{"zona":"B21","linkzona":"MI00004771","fascia":"B","fascia_label":"Centrale","descr":"PORTA TICINESE, PORTA GENOVA, VIA SAN VITTORE","semestre":"2025-S2","loc_min":15.0,"loc_max":22.0,"loc_mid":18.5,"sale_min":5000.0,"sale_max":7300.0,"sup":"L","tipologia":"Abitazioni civili","stato":"NORMALE","ott_min":22.1,"ott_max":30.0}},{"type":"Feature","geometry":{"type":"Polygon","coordinates":[[[9.19495,45.48839],[9.19194,45.48931],[9.19176,45.48994],[9.19108,45.49014],[9.19084,45.48984],[9.18951,45.49027],[9.18917,45.49012],[9.18646,45.49083],[9.18609,45.49111],[9.18205,45.49194],[9.1818,45.49203],[9.18201,45.49315],[9.18086,45.49048],[9.18103,45.49032],[9.18214,45.4885],[9.18226,45.48813],[9.18149,45.48306],[9.18085,45.48283],[9.18128,45.48207],[9.18185,45.48183],[9.18237,45.48118],[9.18284,45.48102],[9.18353,45.48114],[9.18743,45.4804],[9.18776,45.48044],[9.19109,45.47999],[9.19204,45.4799],[9.19232,45.47957],[9.19371,45.47946],[9.19402,45.47988],[9.1944,45.47971],[9.19485,45.4795],[9.19576,45.47908],[9.19537,45.47856],[9.19803,45.47734],[9.19854,45.47728],[9.20039,45.47658],[9.20059,45.47658],[9.20325,45.47539],[9.20455,45.47468],[9.20481,45.47494],[9.20562,45.47444],[9.20626,45.47418],[9.20651,45.47379],[9.20667,45.47198],[9.20657,45.47187],[9.20699,45.468],[9.20649,45.46787],[9.20651,45.46758],[9.20705,45.4674],[9.20838,45.4677],[9.21005,45.46772],[9.21009,45.46723],[9.21138,45.46728],[9.21141,45.46753],[9.21587,45.46758],[9.21592,45.46733],[9.21703,45.46735],[9.21693,45.47292],[9.21669,45.47343],[9.21692,45.4737],[9.21681,45.48019],[9.2171,45.4802],[9.21699,45.4842],[9.21697,45.48555],[9.21681,45.48585],[9.21599,45.48622],[9.21622,45.48586],[9.2151,45.48473],[9.21478,45.48464],[9.21425,45.48388],[9.21073,45.48034],[9.20856,45.48152],[9.20816,45.48148],[9.20363,45.48392],[9.20293,45.48357],[9.20201,45.48447],[9.20203,45.48507],[9.20107,45.48554],[9.20085,45.48541],[9.19944,45.48617],[9.19932,45.48647],[9.19837,45.48698],[9.19779,45.48706],[9.19713,45.48741],[9.19699,45.48737],[9.19719,45.48621],[9.19534,45.48466],[9.19587,45.48417],[9.19445,45.48266],[9.19703,45.48148],[9.19761,45.48156],[9.1979,45.48138],[9.19738,45.48103],[9.19579,45.48035],[9.19234,45.48197],[9.19103,45.48274],[9.1904,45.48288],[9.18981,45.4828],[9.18955,45.48254],[9.18958,45.48161],[9.1874,45.48254],[9.18747,45.48346],[9.18726,45.48395],[9.18685,45.48414],[9.18794,45.48534],[9.18857,45.48531],[9.18945,45.48543],[9.18929,45.48637],[9.19154,45.48662],[9.19158,45.48672],[9.19371,45.48695],[9.19417,45.48619],[9.19566,45.48812],[9.19495,45.48839]]]},"properties":{"zona":"C12","linkzona":"MI00000307","fascia":"C","fascia_label":"Semicentrale","descr":"PISANI, BUENOS AIRES, REGINA GIOVANNA","semestre":"2025-S2","loc_min":16.0,"loc_max":23.5,"loc_mid":19.75,"sale_min":5500.0,"sale_max":7100.0,"sup":"L","tipologia":"Abitazioni civili","stato":"NORMALE","ott_min":23.6,"ott_max":33.0}},{"type":"Feature","geometry":{"type":"Polygon","coordinates":[[[9.16013,45.4753],[9.16036,45.47962],[9.15977,45.47964],[9.15904,45.48006],[9.15318,45.48022],[9.15275,45.47995],[9.15235,45.48024],[9.1519,45.48026],[9.15141,45.47992],[9.1512,45.47546],[9.15187,45.47537],[9.1594,45.47517],[9.16013,45.4753]]]},"properties":{"zona":"C13","linkzona":"MI00003667","fascia":"C","fascia_label":"Semicentrale","descr":"CITY LIFE","semestre":"2025-S2","loc_min":28.0,"loc_max":40.0,"loc_mid":34.0,"sup":"L","tipologia":"Abitazioni civili","stato":"OTTIMO","ott_min":28.0,"ott_max":40.0}},{"type":"Feature","geometry":{"type":"Polygon","coordinates":[[[9.19713,45.48741],[9.19566,45.48812],[9.19417,45.48619],[9.19371,45.48695],[9.19158,45.48672],[9.19154,45.48662],[9.18929,45.48637],[9.18945,45.48543],[9.18857,45.48531],[9.18794,45.48534],[9.18685,45.48414],[9.18726,45.48395],[9.18747,45.48346],[9.1874,45.48254],[9.18958,45.48161],[9.18955,45.48254],[9.18981,45.4828],[9.1904,45.48288],[9.19103,45.48274],[9.19234,45.48197],[9.19579,45.48035],[9.19738,45.48103],[9.1979,45.48138],[9.19761,45.48156],[9.19703,45.48148],[9.19445,45.48266],[9.19587,45.48417],[9.19534,45.48466],[9.19719,45.48621],[9.19699,45.48737],[9.19713,45.48741]]]},"properties":{"zona":"C14","linkzona":"MI00003668","fascia":"C","fascia_label":"Semicentrale","descr":"PORTA NUOVA","semestre":"2025-S2","loc_min":16.0,"loc_max":24.0,"loc_mid":20.0,"sale_min":4800.0,"sale_max":6600.0,"sup":"L","tipologia":"Abitazioni civili","stato":"NORMALE","ott_min":28.0,"ott_max":46.0}},{"type":"Feature","geometry":{"type":"Polygon","coordinates":[[[9.21599,45.48622],[9.21573,45.48594],[9.21505,45.48586],[9.21498,45.48641],[9.20968,45.48907],[9.20932,45.48934],[9.21162,45.4917],[9.20953,45.49272],[9.2092,45.49274],[9.20745,45.49092],[9.20711,45.49095],[9.20675,45.49053],[9.2052,45.4913],[9.20521,45.49146],[9.20152,45.49331],[9.20145,45.49397],[9.20093,45.4942],[9.20112,45.49469],[9.19915,45.49464],[9.19882,45.49433],[9.19794,45.49457],[9.19776,45.49475],[9.19481,45.49554],[9.19456,45.49542],[9.19387,45.49419],[9.19389,45.4935],[9.19306,45.49373],[9.19404,45.4955],[9.18711,45.49737],[9.1843,45.4972],[9.18416,45.49737],[9.18397,45.49754],[9.17252,45.49683],[9.17175,45.49667],[9.1714,45.49623],[9.17211,45.4952],[9.1727,45.49504],[9.17275,45.4948],[9.17749,45.49413],[9.18201,45.49315],[9.1818,45.49203],[9.18205,45.49194],[9.18609,45.49111],[9.18646,45.49083],[9.18917,45.49012],[9.18951,45.49027],[9.19084,45.48984],[9.19108,45.49014],[9.19176,45.48994],[9.19194,45.48931],[9.19495,45.48839],[9.19566,45.48812],[9.19713,45.48741],[9.19779,45.48706],[9.19837,45.48698],[9.19932,45.48647],[9.19944,45.48617],[9.20085,45.48541],[9.20107,45.48554],[9.20203,45.48507],[9.20201,45.48447],[9.20293,45.48357],[9.20363,45.48392],[9.20816,45.48148],[9.20856,45.48152],[9.21073,45.48034],[9.21425,45.48388],[9.21478,45.48464],[9.2151,45.48473],[9.21622,45.48586],[9.21599,45.48622]]]},"properties":{"zona":"C15","linkzona":"MI00003669","fascia":"C","fascia_label":"Semicentrale","descr":"STAZIONE CENTRALE VIALE STELVIO","semestre":"2025-S2","loc_min":13.5,"loc_max":19.0,"loc_mid":16.25,"sale_min":4100.0,"sale_max":5800.0,"sup":"L","tipologia":"Abitazioni civili","stato":"NORMALE","ott_min":19.1,"ott_max":25.0}},{"type":"Feature","geometry":{"type":"Polygon","coordinates":[[[9.16889,45.4787],[9.16891,45.4787],[9.16902,45.47901],[9.17113,45.48032],[9.1728,45.47947],[9.17327,45.47961],[9.17479,45.47981],[9.17494,45.47992],[9.17943,45.48053],[9.18107,45.48064],[9.18128,45.48207],[9.18085,45.48283],[9.18149,45.48306],[9.18226,45.48813],[9.18214,45.4885],[9.18103,45.49032],[9.18086,45.49048],[9.18201,45.49315],[9.17749,45.49413],[9.17275,45.4948],[9.1727,45.49504],[9.17211,45.4952],[9.1714,45.49623],[9.17076,45.49643],[9.16912,45.49713],[9.1689,45.49734],[9.16764,45.49788],[9.16557,45.49916],[9.16395,45.49836],[9.16323,45.49782],[9.16162,45.49677],[9.16184,45.49666],[9.16028,45.49565],[9.16043,45.49461],[9.16021,45.49459],[9.16003,45.49549],[9.15797,45.49414],[9.15688,45.49331],[9.15672,45.4934],[9.15342,45.49126],[9.1517,45.49009],[9.15195,45.4901],[9.15293,45.48966],[9.15293,45.4895],[9.15509,45.48852],[9.15549,45.48842],[9.15651,45.48888],[9.15723,45.48866],[9.15803,45.48769],[9.15732,45.48719],[9.15861,45.48621],[9.15926,45.48596],[9.16122,45.48447],[9.16123,45.48391],[9.16531,45.48081],[9.16581,45.48098],[9.16877,45.47875],[9.16889,45.4787]]]},"properties":{"zona":"C16","linkzona":"MI00004772","fascia":"C","fascia_label":"Semicentrale","descr":"CENISIO, FARINI, SARPI","semestre":"2025-S2","loc_min":13.5,"loc_max":18.0,"loc_mid":15.75,"sale_min":4200.0,"sale_max":6400.0,"sup":"L","tipologia":"Abitazioni civili","stato":"NORMALE","ott_min":18.1,"ott_max":30.0}},{"type":"Feature","geometry":{"type":"Polygon","coordinates":[[[9.16496,45.46686],[9.16461,45.46755],[9.16522,45.46775],[9.16634,45.47142],[9.16608,45.47168],[9.16709,45.47235],[9.16421,45.47455],[9.16504,45.4764],[9.16628,45.47722],[9.16609,45.47744],[9.16688,45.47791],[9.16732,45.47759],[9.16829,45.47821],[9.16891,45.47776],[9.16952,45.47817],[9.16891,45.4787],[9.16889,45.4787],[9.16877,45.47875],[9.16581,45.48098],[9.16531,45.48081],[9.16123,45.48391],[9.16122,45.48447],[9.15926,45.48596],[9.15861,45.48621],[9.15732,45.48719],[9.15803,45.48769],[9.15723,45.48866],[9.15651,45.48888],[9.15549,45.48842],[9.15509,45.48852],[9.15293,45.4895],[9.15293,45.48966],[9.15195,45.4901],[9.1517,45.49009],[9.15111,45.49005],[9.15085,45.48969],[9.14851,45.48816],[9.14827,45.4882],[9.14743,45.48764],[9.14774,45.48736],[9.1447,45.48537],[9.1441,45.48483],[9.14354,45.48374],[9.14422,45.48322],[9.14408,45.48279],[9.14337,45.48233],[9.14312,45.48234],[9.14302,45.48062],[9.14326,45.48035],[9.14375,45.48034],[9.14413,45.47998],[9.14414,45.47946],[9.14331,45.47949],[9.14315,45.4786],[9.14266,45.47863],[9.1426,45.47756],[9.14281,45.47649],[9.14244,45.47625],[9.14235,45.47579],[9.14272,45.47538],[9.14319,45.47527],[9.14428,45.47177],[9.14522,45.47188],[9.14544,45.47172],[9.14592,45.47017],[9.1457,45.46995],[9.1449,45.46981],[9.14609,45.46599],[9.14938,45.46032],[9.14993,45.46033],[9.15062,45.45916],[9.15032,45.45871],[9.15257,45.45484],[9.1529,45.45477],[9.15318,45.45523],[9.15504,45.45585],[9.15525,45.45613],[9.16541,45.45941],[9.1656,45.45952],[9.16396,45.46057],[9.1638,45.46087],[9.16424,45.46155],[9.16354,45.46169],[9.1635,45.46213],[9.16496,45.46686]],[[9.16013,45.4753],[9.1594,45.47517],[9.15187,45.47537],[9.1512,45.47546],[9.15141,45.47992],[9.1519,45.48026],[9.15235,45.48024],[9.15275,45.47995],[9.15318,45.48022],[9.15904,45.48006],[9.15977,45.47964],[9.16036,45.47962],[9.16013,45.4753]]]},"properties":{"zona":"C17","linkzona":"MI00004773","fascia":"C","fascia_label":"Semicentrale","descr":"SEMPIONE, PAGANO, WASHINGTON","semestre":"2025-S2","loc_min":16.0,"loc_max":18.5,"loc_mid":17.25,"sale_min":5500.0,"sale_max":6800.0,"sup":"L","tipologia":"Abitazioni civili","stato":"NORMALE","ott_min":18.6,"ott_max":30.0}},{"type":"Feature","geometry":{"type":"MultiPolygon","coordinates":[[[[9.17674,45.44687],[9.178,45.45217],[9.1768,45.45232],[9.1763,45.45254],[9.17173,45.4555],[9.17173,45.4557],[9.16893,45.45755],[9.1686,45.45756],[9.1656,45.45952],[9.16541,45.45941],[9.15525,45.45613],[9.15504,45.45585],[9.15318,45.45523],[9.1529,45.45477],[9.15541,45.45042],[9.15557,45.44999],[9.15676,45.44798],[9.15837,45.44719],[9.15928,45.44643],[9.16049,45.44575],[9.16136,45.44536],[9.16246,45.44507],[9.16264,45.4448],[9.16319,45.44483],[9.16505,45.44443],[9.16687,45.44419],[9.16765,45.44426],[9.16821,45.44415],[9.17206,45.44394],[9.1725,45.44345],[9.17323,45.44388],[9.1758,45.44376],[9.17596,45.44367],[9.17674,45.44687]]],[[[9.18255,45.44438],[9.18234,45.44431],[9.18254,45.44437],[9.18255,45.44438]]]]},"properties":{"zona":"C18","linkzona":"MI00004774","fascia":"C","fascia_label":"Semicentrale","descr":"SOLARI, P.TA GENOVA, ASCANIO SFORZA","semestre":"2025-S2","loc_min":15.0,"loc_max":19.9,"loc_mid":17.45,"sale_min":4600.0,"sale_max":6300.0,"sup":"L","tipologia":"Abitazioni civili","stato":"NORMALE","ott_min":20.0,"ott_max":27.0}},{"type":"Feature","geometry":{"type":"Polygon","coordinates":[[[9.18112,45.45211],[9.18094,45.45202],[9.17893,45.45194],[9.17886,45.45226],[9.178,45.45217],[9.17674,45.44687],[9.17596,45.44367],[9.17579,45.44274],[9.17605,45.44355],[9.17631,45.44374],[9.17983,45.44359],[9.18065,45.44369],[9.18214,45.44413],[9.18234,45.44431],[9.18255,45.44438],[9.18254,45.44437],[9.18273,45.44432],[9.18767,45.44582],[9.19028,45.44607],[9.19093,45.44624],[9.2014,45.44671],[9.20154,45.44647],[9.20957,45.44682],[9.20947,45.44708],[9.20942,45.44717],[9.20944,45.44743],[9.20965,45.44766],[9.20832,45.4484],[9.20363,45.4513],[9.20351,45.45156],[9.20266,45.45204],[9.20239,45.45125],[9.20143,45.45101],[9.19649,45.45103],[9.19057,45.45104],[9.19019,45.45084],[9.18688,45.45169],[9.18352,45.45201],[9.18112,45.45211]]]},"properties":{"zona":"C19","linkzona":"MI00004775","fascia":"C","fascia_label":"Semicentrale","descr":"TABACCHI, SARFATTI, CREMA","semestre":"2025-S2","loc_min":13.5,"loc_max":20.9,"loc_mid":17.2,"sale_min":4000.0,"sale_max":6100.0,"sup":"L","tipologia":"Abitazioni civili","stato":"NORMALE","ott_min":21.0,"ott_max":29.0}},{"type":"Feature","geometry":{"type":"Polygon","coordinates":[[[9.20705,45.4674],[9.20749,45.46281],[9.20774,45.46279],[9.20783,45.4618],[9.20759,45.46177],[9.20767,45.46089],[9.20759,45.46037],[9.20623,45.45869],[9.20645,45.45858],[9.20591,45.45778],[9.20563,45.45776],[9.20265,45.45228],[9.20266,45.45204],[9.20351,45.45156],[9.20363,45.4513],[9.20832,45.4484],[9.20965,45.44766],[9.2102,45.44784],[9.21108,45.44892],[9.21144,45.44897],[9.21262,45.45041],[9.21263,45.45082],[9.2154,45.45423],[9.21638,45.45582],[9.21685,45.45702],[9.21712,45.45826],[9.21669,45.45862],[9.21718,45.45924],[9.21703,45.46735],[9.21592,45.46733],[9.21587,45.46758],[9.21141,45.46753],[9.21138,45.46728],[9.21009,45.46723],[9.21005,45.46772],[9.20838,45.4677],[9.20705,45.4674]]]},"properties":{"zona":"C20","linkzona":"MI00004776","fascia":"C","fascia_label":"Semicentrale","descr":"LIBIA, ,XXII MARZO, INDIPENDENZA","semestre":"2025-S2","loc_min":11.5,"loc_max":18.4,"loc_mid":14.95,"sale_min":4500.0,"sale_max":6500.0,"sup":"L","tipologia":"Abitazioni civili","stato":"NORMALE","ott_min":18.5,"ott_max":29.0}},{"type":"Feature","geometry":{"type":"Polygon","coordinates":[[[9.25333,45.48696],[9.25357,45.48719],[9.25854,45.48751],[9.25827,45.48972],[9.26118,45.49045],[9.26104,45.49072],[9.2616,45.49494],[9.26207,45.49499],[9.2618,45.49569],[9.26106,45.49799],[9.26037,45.4991],[9.26013,45.50021],[9.2613,45.50244],[9.26132,45.50345],[9.26115,45.50438],[9.26646,45.50523],[9.2677,45.50535],[9.26796,45.5057],[9.2693,45.50576],[9.27225,45.50565],[9.27214,45.50502],[9.27137,45.50182],[9.27382,45.50183],[9.27385,45.50217],[9.27551,45.50231],[9.2757,45.50353],[9.27754,45.5034],[9.27799,45.50524],[9.27654,45.5055],[9.27561,45.50555],[9.27502,45.50598],[9.27491,45.50633],[9.27265,45.50647],[9.2716,45.50677],[9.27146,45.50719],[9.27141,45.50912],[9.27022,45.509],[9.26878,45.50872],[9.26878,45.51034],[9.26718,45.51049],[9.26734,45.51204],[9.26701,45.51245],[9.26649,45.51255],[9.2642,45.51265],[9.26365,45.51278],[9.26129,45.51281],[9.25969,45.51243],[9.25923,45.51218],[9.25681,45.51163],[9.25632,45.51126],[9.25606,45.51138],[9.25315,45.50915],[9.25309,45.50879],[9.2511,45.50726],[9.25022,45.50721],[9.25012,45.507],[9.24803,45.50542],[9.24738,45.50473],[9.24594,45.50363],[9.24557,45.50351],[9.24071,45.49979],[9.24011,45.49963],[9.23861,45.49848],[9.23907,45.49815],[9.23721,45.49671],[9.23692,45.4967],[9.23349,45.49407],[9.23343,45.49374],[9.23175,45.49266],[9.23035,45.49215],[9.23145,45.4909],[9.23206,45.49099],[9.23303,45.4899],[9.23319,45.48994],[9.23343,45.48978],[9.23359,45.48947],[9.23441,45.48864],[9.23602,45.48734],[9.23694,45.48645],[9.23825,45.48621],[9.23998,45.48632],[9.24494,45.48677],[9.24602,45.48702],[9.24735,45.48715],[9.24754,45.48666],[9.24897,45.4868],[9.24915,45.48704],[9.25017,45.48711],[9.25062,45.487],[9.25224,45.48713],[9.25245,45.4873],[9.25333,45.48696]]]},"properties":{"zona":"D10","linkzona":"MI00000317","fascia":"D","fascia_label":"Periferica","descr":"PARCO LAMBRO, FELTRE, UDINE","semestre":"2025-S2","loc_min":11.0,"loc_max":15.7,"loc_mid":13.35,"sale_min":2900.0,"sale_max":4000.0,"sup":"L","tipologia":"Abitazioni civili","stato":"NORMALE","ott_min":15.8,"ott_max":21.0}},{"type":"Feature","geometry":{"type":"Polygon","coordinates":[[[9.21703,45.46735],[9.21718,45.45924],[9.21669,45.45862],[9.22376,45.45868],[9.22386,45.45844],[9.22485,45.45869],[9.22548,45.459],[9.22674,45.45894],[9.2292,45.45893],[9.22937,45.45936],[9.23021,45.45925],[9.23276,45.45916],[9.2342,45.45929],[9.23516,45.45928],[9.23517,45.46008],[9.23632,45.46067],[9.23693,45.4616],[9.23717,45.46218],[9.23707,45.46304],[9.23656,45.46497],[9.2365,45.46576],[9.23684,45.46711],[9.23769,45.4683],[9.23775,45.46941],[9.23812,45.46982],[9.23949,45.46979],[9.24034,45.46967],[9.24181,45.47001],[9.24174,45.47023],[9.24467,45.47098],[9.24533,45.47123],[9.24276,45.4718],[9.24188,45.47213],[9.24044,45.47296],[9.23988,45.47339],[9.23855,45.47479],[9.23845,45.47345],[9.23786,45.47347],[9.238,45.47626],[9.23814,45.48035],[9.23805,45.48152],[9.23778,45.48201],[9.23798,45.48222],[9.23767,45.48341],[9.2372,45.48427],[9.2367,45.48492],[9.23613,45.48512],[9.23633,45.48545],[9.2358,45.48607],[9.23684,45.48614],[9.23694,45.48645],[9.23602,45.48734],[9.23441,45.48864],[9.23359,45.48947],[9.23343,45.48978],[9.23335,45.48982],[9.23327,45.48983],[9.23287,45.48946],[9.23006,45.48917],[9.22967,45.48895],[9.228,45.48877],[9.2278,45.48863],[9.2263,45.48857],[9.22609,45.48871],[9.2246,45.48868],[9.22422,45.48892],[9.22272,45.48887],[9.22086,45.48733],[9.21905,45.48656],[9.21798,45.48603],[9.21761,45.48612],[9.21713,45.48585],[9.21698,45.48553],[9.21699,45.4842],[9.2171,45.4802],[9.21681,45.48019],[9.21692,45.4737],[9.21669,45.47343],[9.21693,45.47292],[9.21703,45.46735]]]},"properties":{"zona":"D12","linkzona":"MI00000319","fascia":"D","fascia_label":"Periferica","descr":"PIOLA, ARGONNE, CORSICA","semestre":"2025-S2","loc_min":12.0,"loc_max":15.5,"loc_mid":13.75,"sale_min":3800.0,"sale_max":5600.0,"sup":"L","tipologia":"Abitazioni civili","stato":"NORMALE","ott_min":15.6,"ott_max":27.0}},{"type":"Feature","geometry":{"type":"Polygon","coordinates":[[[9.25333,45.48696],[9.25245,45.4873],[9.25224,45.48713],[9.25062,45.487],[9.25017,45.48711],[9.24915,45.48704],[9.24897,45.4868],[9.24754,45.48666],[9.24735,45.48715],[9.24602,45.48702],[9.24494,45.48677],[9.23998,45.48632],[9.23825,45.48621],[9.23694,45.48645],[9.23684,45.48614],[9.2358,45.48607],[9.23633,45.48545],[9.23613,45.48512],[9.2367,45.48492],[9.2372,45.48427],[9.23767,45.48341],[9.23798,45.48222],[9.23778,45.48201],[9.23805,45.48152],[9.23814,45.48035],[9.238,45.47626],[9.23786,45.47347],[9.23845,45.47345],[9.23855,45.47479],[9.23988,45.47339],[9.24044,45.47296],[9.24188,45.47213],[9.24276,45.4718],[9.24533,45.47123],[9.24536,45.47185],[9.24715,45.47185],[9.24873,45.47225],[9.24926,45.47246],[9.25192,45.47306],[9.25198,45.47294],[9.25339,45.47296],[9.25975,45.4739],[9.26038,45.47394],[9.26041,45.47656],[9.26182,45.4766],[9.2615,45.47913],[9.26222,45.47908],[9.26456,45.47929],[9.26474,45.48044],[9.26489,45.48419],[9.26195,45.48414],[9.25932,45.48422],[9.25899,45.48449],[9.25854,45.48751],[9.25357,45.48719],[9.25333,45.48696]]]},"properties":{"zona":"D13","linkzona":"MI00000320","fascia":"D","fascia_label":"Periferica","descr":"LAMBRATE, RUBATTINO, ROMBON","semestre":"2025-S2","loc_min":12.0,"loc_max":16.9,"loc_mid":14.45,"sale_min":3100.0,"sale_max":4100.0,"sup":"L","tipologia":"Abitazioni civili","stato":"NORMALE","ott_min":17.0,"ott_max":22.0}},{"type":"Feature","geometry":{"type":"Polygon","coordinates":[[[9.20965,45.44766],[9.20944,45.44743],[9.20942,45.44717],[9.20947,45.44708],[9.21035,45.44717],[9.21243,45.44587],[9.21454,45.44463],[9.21747,45.44319],[9.21747,45.44308],[9.21865,45.44262],[9.2189,45.44229],[9.22367,45.4441],[9.22351,45.44446],[9.22382,45.44478],[9.2238,45.44629],[9.22424,45.44647],[9.22663,45.44657],[9.22746,45.44644],[9.22914,45.44642],[9.23172,45.44607],[9.2318,45.44623],[9.23063,45.44646],[9.23069,45.44661],[9.23181,45.44664],[9.23209,45.44688],[9.23343,45.44726],[9.23468,45.448],[9.23521,45.44859],[9.23604,45.45007],[9.23655,45.45428],[9.23688,45.45615],[9.23662,45.45661],[9.23663,45.45747],[9.23638,45.45814],[9.23609,45.4585],[9.23525,45.45899],[9.23516,45.45928],[9.2342,45.45929],[9.23276,45.45916],[9.23021,45.45925],[9.22937,45.45936],[9.2292,45.45893],[9.22674,45.45894],[9.22548,45.459],[9.22485,45.45869],[9.22386,45.45844],[9.22376,45.45868],[9.21669,45.45862],[9.21712,45.45826],[9.21685,45.45702],[9.21638,45.45582],[9.2154,45.45423],[9.21263,45.45082],[9.21262,45.45041],[9.21144,45.44897],[9.21108,45.44892],[9.2102,45.44784],[9.20965,45.44766]]]},"properties":{"zona":"D16","linkzona":"MI00000323","fascia":"D","fascia_label":"Periferica","descr":"TITO LIVIO, TERTULLIANO, LONGANESI, ORTOMERCATO","semestre":"2025-S2","loc_min":11.0,"loc_max":15.0,"loc_mid":13.0,"sale_min":3300.0,"sale_max":4200.0,"sup":"L","tipologia":"Abitazioni civili","stato":"NORMALE","ott_min":15.1,"ott_max":22.0}},{"type":"Feature","geometry":{"type":"Polygon","coordinates":[[[9.23169,45.44597],[9.23172,45.44607],[9.22914,45.44642],[9.22746,45.44644],[9.22663,45.44657],[9.22424,45.44647],[9.2238,45.44629],[9.22382,45.44478],[9.22351,45.44446],[9.22367,45.4441],[9.22383,45.44398],[9.22388,45.44087],[9.22451,45.44087],[9.22452,45.44037],[9.22498,45.44011],[9.22468,45.43957],[9.22393,45.43989],[9.22376,45.4397],[9.22048,45.4382],[9.21969,45.43824],[9.21945,45.43796],[9.21778,45.4372],[9.2163,45.43692],[9.21163,45.43702],[9.2099,45.43702],[9.20928,45.43682],[9.20845,45.43797],[9.20792,45.43951],[9.20778,45.44015],[9.20308,45.43947],[9.20298,45.43924],[9.20009,45.4388],[9.20022,45.4377],[9.20048,45.43619],[9.20014,45.43615],[9.19931,45.43643],[9.19877,45.43683],[9.19838,45.4368],[9.19738,45.43708],[9.18553,45.43723],[9.18534,45.43805],[9.1848,45.43769],[9.1751,45.43782],[9.1748,45.43818],[9.17509,45.4397],[9.17426,45.43624],[9.17439,45.43612],[9.17374,45.4334],[9.17366,45.43321],[9.17019,45.42714],[9.17028,45.42702],[9.16967,45.42597],[9.16947,45.42599],[9.16864,45.42453],[9.17021,45.42361],[9.1706,45.42313],[9.17017,45.42167],[9.17046,45.42174],[9.17062,45.42221],[9.17127,45.42138],[9.17407,45.42157],[9.17355,45.42031],[9.17533,45.41997],[9.17604,45.41965],[9.17578,45.41687],[9.17545,45.4157],[9.1754,45.41508],[9.18177,45.41471],[9.18207,45.41524],[9.18175,45.41718],[9.18168,45.4181],[9.18221,45.41996],[9.18222,45.42021],[9.18044,45.42108],[9.18068,45.42148],[9.18072,45.42571],[9.18251,45.42688],[9.18259,45.42751],[9.1829,45.42815],[9.18322,45.42829],[9.18324,45.42877],[9.18379,45.42918],[9.18486,45.42818],[9.18809,45.42949],[9.18843,45.42905],[9.18914,45.42923],[9.18953,45.42883],[9.18972,45.42763],[9.19079,45.42771],[9.1908,45.42699],[9.19139,45.42699],[9.19129,45.42649],[9.19015,45.42572],[9.1908,45.42524],[9.19111,45.42541],[9.19129,45.42597],[9.19163,45.42615],[9.19223,45.42611],[9.19358,45.4269],[9.19382,45.42786],[9.19533,45.42776],[9.19609,45.42794],[9.19775,45.42406],[9.19806,45.42356],[9.19745,45.42343],[9.19785,45.42283],[9.19831,45.42281],[9.19933,45.4221],[9.20139,45.42112],[9.20126,45.42093],[9.20239,45.42041],[9.20257,45.41979],[9.20414,45.42086],[9.20437,45.42092],[9.20465,45.41976],[9.2057,45.41956],[9.20587,45.4201],[9.20529,45.422],[9.20532,45.42229],[9.20663,45.42332],[9.20687,45.42333],[9.20744,45.42416],[9.2077,45.4243],[9.20964,45.4247],[9.2119,45.42491],[9.21251,45.4253],[9.21359,45.42627],[9.21298,45.42664],[9.2122,45.42662],[9.21185,45.42744],[9.21086,45.42749],[9.20981,45.42738],[9.20923,45.42901],[9.20834,45.43018],[9.20812,45.43011],[9.20737,45.43112],[9.20644,45.43262],[9.20919,45.43358],[9.20946,45.43322],[9.20998,45.4331],[9.21133,45.43344],[9.21453,45.43457],[9.21513,45.43266],[9.21551,45.43224],[9.21762,45.43175],[9.21862,45.4323],[9.21945,45.43169],[9.21822,45.43104],[9.2187,45.4306],[9.21754,45.43026],[9.21631,45.43052],[9.21587,45.4304],[9.21465,45.4308],[9.2142,45.43022],[9.21444,45.43013],[9.21395,45.42939],[9.21372,45.42874],[9.21524,45.42877],[9.21532,45.42921],[9.21608,45.42914],[9.21623,45.42882],[9.21604,45.42823],[9.21713,45.42801],[9.21776,45.4282],[9.21845,45.42787],[9.21816,45.42759],[9.21797,45.42684],[9.21872,45.42631],[9.21826,45.4259],[9.21881,45.42552],[9.21742,45.42446],[9.21826,45.42378],[9.21872,45.42367],[9.21987,45.42292],[9.22129,45.42184],[9.22229,45.42099],[9.22399,45.42144],[9.22384,45.4219],[9.22605,45.42182],[9.22647,45.42188],[9.22695,45.42145],[9.22741,45.42145],[9.2296,45.42089],[9.23022,45.42133],[9.2298,45.42163],[9.2303,45.42191],[9.22729,45.42463],[9.22619,45.42412],[9.22572,45.42488],[9.225,45.42451],[9.22465,45.42514],[9.22418,45.4269],[9.22382,45.42747],[9.22402,45.42758],[9.22361,45.42842],[9.22453,45.4287],[9.2264,45.42952],[9.22702,45.42926],[9.22805,45.42828],[9.22863,45.42751],[9.23041,45.42601],[9.22917,45.42535],[9.22962,45.4247],[9.22992,45.42461],[9.23074,45.42505],[9.23102,45.42546],[9.23324,45.42385],[9.23426,45.42449],[9.23396,45.42473],[9.23356,45.42448],[9.23288,45.42485],[9.23348,45.42539],[9.23323,45.42583],[9.2324,45.42641],[9.23288,45.42675],[9.2324,45.42735],[9.23235,45.42763],[9.23037,45.42876],[9.2296,45.42846],[9.22932,45.42853],[9.22928,45.42912],[9.22959,45.43047],[9.23045,45.43036],[9.2306,45.43125],[9.23046,45.43138],[9.23059,45.43249],[9.22984,45.43269],[9.23052,45.43368],[9.23002,45.43397],[9.23087,45.43468],[9.23031,45.43497],[9.23077,45.43536],[9.23026,45.43564],[9.23074,45.43618],[9.23244,45.43537],[9.23266,45.43549],[9.23512,45.43387],[9.23645,45.43285],[9.23808,45.43137],[9.23905,45.43103],[9.23966,45.43096],[9.23966,45.43134],[9.23921,45.43251],[9.2391,45.43307],[9.23662,45.43415],[9.2368,45.43433],[9.23784,45.43387],[9.23815,45.43399],[9.23727,45.4362],[9.23707,45.43619],[9.23656,45.43762],[9.23566,45.43745],[9.23436,45.44075],[9.23485,45.44175],[9.235,45.44249],[9.23443,45.44385],[9.2339,45.4445],[9.23434,45.44462],[9.23366,45.44543],[9.23289,45.44584],[9.23186,45.44608],[9.23169,45.44597]]]},"properties":{"zona":"D18","linkzona":"MI00000325","fascia":"D","fascia_label":"Periferica","descr":"MAROCCHETTI, VIGENTINO, CHIESA ROSSA","semestre":"2025-S2","loc_min":10.8,"loc_max":15.0,"loc_mid":12.9,"sale_min":2850.0,"sale_max":3900.0,"sup":"L","tipologia":"Abitazioni civili","stato":"NORMALE","ott_min":15.1,"ott_max":22.0}},{"type":"Feature","geometry":{"type":"Polygon","coordinates":[[[9.17579,45.44274],[9.17509,45.4397],[9.1748,45.43818],[9.1751,45.43782],[9.1848,45.43769],[9.18534,45.43805],[9.18553,45.43723],[9.19738,45.43708],[9.19838,45.4368],[9.19877,45.43683],[9.19931,45.43643],[9.20014,45.43615],[9.20048,45.43619],[9.20022,45.4377],[9.20009,45.4388],[9.20298,45.43924],[9.20308,45.43947],[9.20778,45.44015],[9.20792,45.43951],[9.20845,45.43797],[9.20928,45.43682],[9.2099,45.43702],[9.21163,45.43702],[9.2163,45.43692],[9.21778,45.4372],[9.21945,45.43796],[9.21969,45.43824],[9.22048,45.4382],[9.22376,45.4397],[9.22393,45.43989],[9.22468,45.43957],[9.22498,45.44011],[9.22452,45.44037],[9.22451,45.44087],[9.22388,45.44087],[9.22383,45.44398],[9.22367,45.4441],[9.2189,45.44229],[9.21865,45.44262],[9.21747,45.44308],[9.21747,45.44319],[9.21454,45.44463],[9.21243,45.44587],[9.21035,45.44717],[9.20947,45.44708],[9.20957,45.44682],[9.20154,45.44647],[9.2014,45.44671],[9.19093,45.44624],[9.19028,45.44607],[9.18767,45.44582],[9.18273,45.44432],[9.18254,45.44437],[9.18234,45.44431],[9.18214,45.44413],[9.18065,45.44369],[9.17983,45.44359],[9.17631,45.44374],[9.17605,45.44355],[9.17579,45.44274]]]},"properties":{"zona":"D20","linkzona":"MI00000327","fascia":"D","fascia_label":"Periferica","descr":"ORTLES, SPADOLINI, BAZZI","semestre":"2025-S2","loc_min":10.5,"loc_max":14.9,"loc_mid":12.7,"sale_min":3300.0,"sale_max":4200.0,"sup":"L","tipologia":"Abitazioni civili","stato":"NORMALE","ott_min":15.0,"ott_max":22.5}},{"type":"Feature","geometry":{"type":"Polygon","coordinates":[[[9.15676,45.44798],[9.15571,45.44769],[9.15554,45.44787],[9.15419,45.44804],[9.15209,45.44782],[9.1512,45.44755],[9.14979,45.44724],[9.14964,45.44752],[9.14679,45.4468],[9.14669,45.44692],[9.14538,45.4466],[9.14508,45.44642],[9.14289,45.44588],[9.13829,45.44487],[9.13833,45.44462],[9.13857,45.44408],[9.13734,45.44384],[9.13638,45.44352],[9.13328,45.44232],[9.12804,45.44061],[9.12743,45.44025],[9.12608,45.4392],[9.12545,45.43887],[9.12367,45.43827],[9.12082,45.43747],[9.12209,45.43514],[9.12132,45.43481],[9.12154,45.4345],[9.12463,45.43185],[9.12632,45.43048],[9.12674,45.43],[9.1267,45.42837],[9.12746,45.42678],[9.12838,45.42576],[9.13141,45.4241],[9.13202,45.42356],[9.13222,45.42147],[9.13184,45.42115],[9.1319,45.42077],[9.13111,45.42082],[9.13097,45.42152],[9.13066,45.42159],[9.13088,45.42062],[9.13047,45.42054],[9.13065,45.4195],[9.13035,45.41796],[9.13044,45.41738],[9.13021,45.41727],[9.13148,45.41598],[9.13236,45.4153],[9.13286,45.41459],[9.13332,45.41419],[9.13609,45.41482],[9.1371,45.41539],[9.13787,45.41548],[9.13612,45.41749],[9.13836,45.41789],[9.13913,45.41787],[9.1393,45.41745],[9.13938,45.4165],[9.1401,45.41715],[9.1413,45.41744],[9.14142,45.41722],[9.14276,45.41761],[9.14466,45.4183],[9.14484,45.41842],[9.14613,45.41685],[9.14723,45.41592],[9.14733,45.41544],[9.14819,45.41389],[9.14899,45.41419],[9.15004,45.41427],[9.15068,45.41468],[9.14958,45.41527],[9.15196,45.41633],[9.15259,45.41522],[9.15403,45.41559],[9.15457,45.41611],[9.15511,45.41464],[9.15528,45.41447],[9.15559,45.41342],[9.15553,45.41261],[9.1576,45.41231],[9.15922,45.41228],[9.16126,45.41226],[9.16151,45.4122],[9.16348,45.41553],[9.16337,45.41565],[9.1644,45.41743],[9.16499,45.41834],[9.16687,45.42165],[9.16699,45.42163],[9.16847,45.42418],[9.16882,45.42425],[9.16999,45.42351],[9.17034,45.42315],[9.17003,45.42199],[9.17017,45.42167],[9.1706,45.42313],[9.17021,45.42361],[9.16864,45.42453],[9.16947,45.42599],[9.16967,45.42597],[9.17028,45.42702],[9.17019,45.42714],[9.17366,45.43321],[9.17374,45.4334],[9.17439,45.43612],[9.17426,45.43624],[9.17509,45.4397],[9.17579,45.44274],[9.17596,45.44367],[9.1758,45.44376],[9.17323,45.44388],[9.1725,45.44345],[9.17206,45.44394],[9.16821,45.44415],[9.16765,45.44426],[9.16687,45.44419],[9.16505,45.44443],[9.16319,45.44483],[9.16264,45.4448],[9.16246,45.44507],[9.16136,45.44536],[9.16049,45.44575],[9.15928,45.44643],[9.15837,45.44719],[9.15676,45.44798]]]},"properties":{"zona":"D21","linkzona":"MI00000328","fascia":"D","fascia_label":"Periferica","descr":"BARONA, FAMAGOSTA, FAENZA","semestre":"2025-S2","loc_min":10.5,"loc_max":15.0,"loc_mid":12.75,"sale_min":2700.0,"sale_max":4000.0,"sup":"L","tipologia":"Abitazioni civili","stato":"NORMALE","ott_min":15.1,"ott_max":22.0}},{"type":"Feature","geometry":{"type":"Polygon","coordinates":[[[9.1529,45.45477],[9.15257,45.45484],[9.15032,45.45871],[9.15062,45.45916],[9.14993,45.46033],[9.14938,45.46032],[9.14609,45.46599],[9.1449,45.46981],[9.1457,45.46995],[9.14592,45.47017],[9.14544,45.47172],[9.14522,45.47188],[9.14428,45.47177],[9.14319,45.47527],[9.14272,45.47538],[9.14235,45.47579],[9.14244,45.47625],[9.14281,45.47649],[9.1426,45.47756],[9.14266,45.47863],[9.14249,45.47874],[9.13845,45.4761],[9.1339,45.47616],[9.13337,45.47598],[9.13218,45.476],[9.13168,45.47618],[9.13006,45.47618],[9.12119,45.47628],[9.12115,45.47604],[9.11368,45.47613],[9.11337,45.47569],[9.11497,45.47512],[9.1187,45.47294],[9.11893,45.47276],[9.12166,45.47118],[9.12189,45.47123],[9.12265,45.47078],[9.12263,45.4705],[9.12378,45.46983],[9.1263,45.46905],[9.12645,45.46856],[9.12627,45.46835],[9.12773,45.46318],[9.12842,45.46191],[9.12863,45.46119],[9.12897,45.46108],[9.12979,45.45928],[9.13102,45.4573],[9.13081,45.45716],[9.13145,45.45613],[9.1318,45.45603],[9.1331,45.4539],[9.13292,45.45371],[9.13413,45.45176],[9.13558,45.45218],[9.13622,45.45205],[9.13621,45.45176],[9.13526,45.45144],[9.13523,45.45113],[9.13731,45.44777],[9.13759,45.44766],[9.13922,45.44819],[9.14002,45.44773],[9.13872,45.4473],[9.13795,45.44493],[9.13833,45.44462],[9.13829,45.44487],[9.14289,45.44588],[9.14508,45.44642],[9.14538,45.4466],[9.14669,45.44692],[9.14679,45.4468],[9.14964,45.44752],[9.14979,45.44724],[9.1512,45.44755],[9.15209,45.44782],[9.15419,45.44804],[9.15554,45.44787],[9.15571,45.44769],[9.15676,45.44798],[9.15557,45.44999],[9.15541,45.45042],[9.1529,45.45477]]]},"properties":{"zona":"D24","linkzona":"MI00000331","fascia":"D","fascia_label":"Periferica","descr":"SEGESTA, ARETUSA, VESPRI SICILIANI","semestre":"2025-S2","loc_min":12.5,"loc_max":16.0,"loc_mid":14.25,"sale_min":3600.0,"sale_max":4200.0,"sup":"L","tipologia":"Abitazioni civili","stato":"NORMALE","ott_min":16.1,"ott_max":21.0}},{"type":"Feature","geometry":{"type":"Polygon","coordinates":[[[9.13833,45.44462],[9.13795,45.44493],[9.13872,45.4473],[9.14002,45.44773],[9.13922,45.44819],[9.13759,45.44766],[9.13731,45.44777],[9.13523,45.45113],[9.13526,45.45144],[9.13621,45.45176],[9.13622,45.45205],[9.13558,45.45218],[9.13413,45.45176],[9.13292,45.45371],[9.1331,45.4539],[9.1318,45.45603],[9.13145,45.45613],[9.13081,45.45716],[9.13102,45.4573],[9.12979,45.45928],[9.12897,45.46108],[9.12863,45.46119],[9.12842,45.46191],[9.12773,45.46318],[9.12627,45.46835],[9.12645,45.46856],[9.1263,45.46905],[9.12378,45.46983],[9.12263,45.4705],[9.12265,45.47078],[9.12189,45.47123],[9.12166,45.47118],[9.11893,45.47276],[9.1187,45.47294],[9.11497,45.47512],[9.11337,45.47569],[9.11127,45.47637],[9.11003,45.47681],[9.11002,45.47693],[9.10689,45.47798],[9.10314,45.4794],[9.1023,45.47834],[9.10192,45.47809],[9.10017,45.47733],[9.10076,45.47644],[9.10111,45.4764],[9.10279,45.4742],[9.10211,45.47368],[9.10273,45.47273],[9.10126,45.47218],[9.1026,45.47087],[9.10248,45.47063],[9.10342,45.46926],[9.10355,45.46846],[9.10509,45.4687],[9.10591,45.4667],[9.10736,45.46685],[9.10912,45.46685],[9.1088,45.4659],[9.10925,45.46583],[9.1095,45.46543],[9.10931,45.46504],[9.10877,45.46496],[9.10883,45.46451],[9.10927,45.46336],[9.10811,45.46305],[9.10721,45.46295],[9.10587,45.46298],[9.10608,45.46212],[9.10401,45.46179],[9.10277,45.46169],[9.10195,45.46131],[9.10197,45.4603],[9.10249,45.45905],[9.10169,45.45893],[9.09843,45.4582],[9.08957,45.45556],[9.0898,45.45527],[9.08657,45.45407],[9.08804,45.45356],[9.08788,45.45342],[9.0888,45.45315],[9.09053,45.45288],[9.09296,45.45231],[9.09318,45.45239],[9.09367,45.45165],[9.09395,45.45153],[9.09529,45.45012],[9.0957,45.44911],[9.09609,45.44858],[9.0968,45.44887],[9.09768,45.44785],[9.09891,45.44686],[9.10122,45.44697],[9.10022,45.44843],[9.10088,45.44842],[9.10152,45.44752],[9.10224,45.4472],[9.10295,45.44723],[9.10297,45.44754],[9.10443,45.44801],[9.1046,45.44784],[9.10549,45.4481],[9.10511,45.44864],[9.10644,45.44905],[9.10695,45.44988],[9.10674,45.45029],[9.10701,45.45044],[9.10799,45.45049],[9.10937,45.45097],[9.10972,45.45062],[9.11042,45.4506],[9.11127,45.44797],[9.1115,45.448],[9.1123,45.44617],[9.11214,45.44577],[9.11352,45.44333],[9.11523,45.4437],[9.11676,45.44097],[9.11728,45.44066],[9.11811,45.43977],[9.11956,45.43844],[9.12032,45.4374],[9.12082,45.43747],[9.12367,45.43827],[9.12545,45.43887],[9.12608,45.4392],[9.12743,45.44025],[9.12804,45.44061],[9.13328,45.44232],[9.13638,45.44352],[9.13734,45.44384],[9.13857,45.44408],[9.13833,45.44462]]]},"properties":{"zona":"D25","linkzona":"MI00000332","fascia":"D","fascia_label":"Periferica","descr":"LORENTEGGIO, INGANNI, BISCEGLIE, SAN CARLO B.","semestre":"2025-S2","loc_min":10.3,"loc_max":13.7,"loc_mid":12.0,"sale_min":2900.0,"sale_max":3400.0,"sup":"L","tipologia":"Abitazioni civili","stato":"NORMALE","ott_min":13.8,"ott_max":20.0}},{"type":"Feature","geometry":{"type":"Polygon","coordinates":[[[9.1447,45.48537],[9.14395,45.48594],[9.14286,45.48651],[9.14293,45.48688],[9.13891,45.4899],[9.13805,45.4907],[9.13702,45.49196],[9.13608,45.49256],[9.13374,45.49353],[9.13055,45.49281],[9.12974,45.49224],[9.12999,45.48762],[9.12911,45.4878],[9.12798,45.48817],[9.12404,45.48969],[9.12388,45.48948],[9.12311,45.48969],[9.12222,45.48922],[9.12138,45.48891],[9.12049,45.48881],[9.11997,45.48901],[9.11852,45.48797],[9.1181,45.48783],[9.11749,45.48827],[9.11249,45.49094],[9.10978,45.49175],[9.10812,45.49198],[9.10799,45.49171],[9.10956,45.48429],[9.10911,45.48417],[9.10991,45.48232],[9.1111,45.47667],[9.11127,45.47637],[9.11337,45.47569],[9.11368,45.47613],[9.12115,45.47604],[9.12119,45.47628],[9.13006,45.47618],[9.13168,45.47618],[9.13218,45.476],[9.13337,45.47598],[9.1339,45.47616],[9.13845,45.4761],[9.14249,45.47874],[9.14266,45.47863],[9.14315,45.4786],[9.14331,45.47949],[9.14414,45.47946],[9.14413,45.47998],[9.14375,45.48034],[9.14326,45.48035],[9.14302,45.48062],[9.14312,45.48234],[9.14337,45.48233],[9.14408,45.48279],[9.14422,45.48322],[9.14354,45.48374],[9.1441,45.48483],[9.1447,45.48537]]]},"properties":{"zona":"D28","linkzona":"MI00000335","fascia":"D","fascia_label":"Periferica","descr":"IPPODROMO, CAPRILLI, MONTE STELLA","semestre":"2025-S2","loc_min":11.5,"loc_max":15.5,"loc_mid":13.5,"sale_min":3300.0,"sale_max":4300.0,"sup":"L","tipologia":"Abitazioni civili","stato":"NORMALE","ott_min":15.6,"ott_max":19.5}},{"type":"Feature","geometry":{"type":"Polygon","coordinates":[[[9.1714,45.49623],[9.17175,45.49667],[9.17252,45.49683],[9.18397,45.49754],[9.18416,45.49737],[9.18502,45.49739],[9.18513,45.4976],[9.18469,45.49829],[9.18169,45.50259],[9.18139,45.50267],[9.17877,45.5064],[9.17864,45.50635],[9.17421,45.50703],[9.17399,45.50712],[9.17019,45.50763],[9.1647,45.50846],[9.16116,45.50902],[9.15997,45.50914],[9.15968,45.50935],[9.1586,45.50942],[9.15527,45.50997],[9.15361,45.51007],[9.15174,45.5097],[9.15063,45.50929],[9.14894,45.50834],[9.14768,45.50743],[9.14628,45.5065],[9.14552,45.50616],[9.14376,45.50565],[9.14292,45.50551],[9.14264,45.50498],[9.14512,45.50434],[9.14731,45.50359],[9.14737,45.50345],[9.14859,45.50292],[9.15768,45.49863],[9.15978,45.49767],[9.16162,45.49677],[9.16323,45.49782],[9.16395,45.49836],[9.16557,45.49916],[9.16764,45.49788],[9.1689,45.49734],[9.16912,45.49713],[9.17076,45.49643],[9.1714,45.49623]]]},"properties":{"zona":"D31","linkzona":"MI00004778","fascia":"D","fascia_label":"Periferica","descr":"BOVISA, BAUSAN, IMBONATI","semestre":"2025-S2","loc_min":10.3,"loc_max":14.5,"loc_mid":12.4,"sale_min":2800.0,"sale_max":4300.0,"sup":"L","tipologia":"Abitazioni civili","stato":"NORMALE","ott_min":14.6,"ott_max":22.5}},{"type":"Feature","geometry":{"type":"Polygon","coordinates":[[[9.17866,45.51656],[9.17812,45.51818],[9.17774,45.51901],[9.17855,45.51919],[9.17865,45.52024],[9.17879,45.52045],[9.17962,45.52035],[9.18086,45.52055],[9.18073,45.52177],[9.18258,45.52212],[9.182,45.52338],[9.18165,45.52338],[9.18094,45.52465],[9.18075,45.52485],[9.18101,45.52543],[9.18071,45.52706],[9.1808,45.52831],[9.17981,45.52811],[9.17853,45.52881],[9.17895,45.53009],[9.17839,45.53139],[9.1783,45.5325],[9.178,45.53473],[9.17756,45.53549],[9.17577,45.53538],[9.17569,45.53594],[9.17404,45.53591],[9.1742,45.535],[9.17199,45.53492],[9.17191,45.53515],[9.17091,45.53509],[9.17081,45.53548],[9.16882,45.53531],[9.16871,45.5358],[9.16728,45.53564],[9.16719,45.53594],[9.16559,45.53579],[9.16568,45.53532],[9.16428,45.53515],[9.16429,45.53498],[9.1609,45.53462],[9.16117,45.53378],[9.15851,45.53345],[9.15854,45.53271],[9.15747,45.53239],[9.15779,45.53118],[9.15676,45.53103],[9.15698,45.53016],[9.15659,45.5301],[9.1569,45.529],[9.15567,45.52881],[9.1564,45.52642],[9.15497,45.52624],[9.15508,45.52572],[9.15366,45.52556],[9.15355,45.52584],[9.15256,45.5257],[9.15236,45.52539],[9.15258,45.52441],[9.15156,45.52426],[9.15185,45.52314],[9.15102,45.52302],[9.15154,45.52123],[9.15097,45.52118],[9.15158,45.52022],[9.1529,45.51937],[9.15352,45.51907],[9.15387,45.51859],[9.15152,45.51806],[9.15128,45.51862],[9.1498,45.51836],[9.14963,45.51881],[9.14832,45.5186],[9.14769,45.52016],[9.1483,45.52031],[9.14814,45.5208],[9.14885,45.52088],[9.14852,45.52187],[9.14557,45.52145],[9.14524,45.5228],[9.14394,45.52266],[9.14434,45.52059],[9.14415,45.52017],[9.14462,45.51952],[9.14517,45.5181],[9.14606,45.51823],[9.14679,45.51741],[9.14698,45.51742],[9.14967,45.51435],[9.15361,45.51007],[9.15527,45.50997],[9.1586,45.50942],[9.15968,45.50935],[9.15997,45.50914],[9.16116,45.50902],[9.1647,45.50846],[9.17019,45.50763],[9.17399,45.50712],[9.17421,45.50703],[9.17864,45.50635],[9.17877,45.5064],[9.17995,45.50612],[9.18485,45.5054],[9.18483,45.50573],[9.18393,45.50587],[9.18198,45.50768],[9.1813,45.50809],[9.18108,45.50839],[9.18098,45.50907],[9.17975,45.51294],[9.1788,45.51601],[9.17866,45.51656]]]},"properties":{"zona":"D32","linkzona":"MI00004779","fascia":"D","fascia_label":"Periferica","descr":"BOVISASCA, AFFORI, P. ROSSI , COMASINA","semestre":"2025-S2","loc_min":9.5,"loc_max":11.8,"loc_mid":10.65,"sale_min":2700.0,"sale_max":3300.0,"sup":"L","tipologia":"Abitazioni civili","stato":"NORMALE","ott_min":11.9,"ott_max":18.0}},{"type":"Feature","geometry":{"type":"Polygon","coordinates":[[[9.20869,45.51593],[9.20992,45.51809],[9.21647,45.52966],[9.21341,45.52949],[9.21333,45.53009],[9.2123,45.53],[9.21195,45.52982],[9.21196,45.52834],[9.21026,45.52822],[9.21034,45.5285],[9.20751,45.52829],[9.20737,45.52801],[9.20612,45.52792],[9.20573,45.52932],[9.20313,45.52898],[9.20302,45.52921],[9.20202,45.52909],[9.20211,45.52876],[9.20152,45.52867],[9.20117,45.52988],[9.20009,45.52972],[9.20048,45.52849],[9.19918,45.52828],[9.19892,45.52799],[9.19914,45.52753],[9.19779,45.52727],[9.1975,45.52802],[9.19713,45.52799],[9.19658,45.52949],[9.19549,45.52935],[9.19566,45.52846],[9.19606,45.52772],[9.19262,45.52724],[9.19262,45.528],[9.19048,45.52778],[9.19037,45.52722],[9.18903,45.52709],[9.18836,45.5277],[9.18662,45.52953],[9.18658,45.53077],[9.18494,45.53056],[9.18471,45.53136],[9.18465,45.53261],[9.18432,45.53336],[9.1833,45.5332],[9.183,45.53433],[9.18199,45.53418],[9.18188,45.53434],[9.18029,45.53414],[9.18007,45.53513],[9.17915,45.535],[9.17905,45.53529],[9.178,45.53473],[9.1783,45.5325],[9.17839,45.53139],[9.17895,45.53009],[9.17853,45.52881],[9.17981,45.52811],[9.1808,45.52831],[9.18071,45.52706],[9.18101,45.52543],[9.18075,45.52485],[9.18094,45.52465],[9.18165,45.52338],[9.182,45.52338],[9.18258,45.52212],[9.18073,45.52177],[9.18086,45.52055],[9.17962,45.52035],[9.17879,45.52045],[9.17865,45.52024],[9.17855,45.51919],[9.17774,45.51901],[9.17812,45.51818],[9.17866,45.51656],[9.1788,45.51601],[9.17975,45.51294],[9.18059,45.51311],[9.18019,45.51372],[9.18205,45.51424],[9.18388,45.51385],[9.18447,45.51386],[9.18473,45.51338],[9.18526,45.51348],[9.18584,45.51267],[9.18707,45.51301],[9.18733,45.5123],[9.18881,45.51193],[9.1903,45.51226],[9.19026,45.51258],[9.19148,45.51279],[9.19184,45.5125],[9.19344,45.51304],[9.19534,45.5129],[9.19834,45.5121],[9.19837,45.51186],[9.19916,45.51187],[9.20046,45.51151],[9.20068,45.51187],[9.20566,45.51049],[9.20592,45.5109],[9.20873,45.51589],[9.20869,45.51593]]]},"properties":{"zona":"D33","linkzona":"MI00004780","fascia":"D","fascia_label":"Periferica","descr":"NIGUARDA, BIGNAMI, PARCO NORD","semestre":"2025-S2","loc_min":11.0,"loc_max":14.6,"loc_mid":12.8,"sale_min":2900.0,"sale_max":3900.0,"sup":"L","tipologia":"Abitazioni civili","stato":"NORMALE","ott_min":14.5,"ott_max":19.0}},{"type":"Feature","geometry":{"type":"Polygon","coordinates":[[[9.20592,45.5109],[9.20746,45.51042],[9.20852,45.50827],[9.20917,45.50848],[9.21049,45.50716],[9.21045,45.50755],[9.21213,45.50975],[9.21233,45.51038],[9.21332,45.51235],[9.21389,45.51217],[9.21541,45.51429],[9.21645,45.51607],[9.21619,45.51615],[9.21678,45.51721],[9.21804,45.51881],[9.21939,45.52062],[9.22036,45.52156],[9.2219,45.52326],[9.22269,45.52352],[9.22222,45.52371],[9.22161,45.52347],[9.22011,45.52342],[9.21976,45.52503],[9.21942,45.52562],[9.21981,45.52625],[9.21965,45.52681],[9.21612,45.52678],[9.21675,45.52967],[9.21647,45.52966],[9.20992,45.51809],[9.20869,45.51593],[9.20873,45.51589],[9.20592,45.5109]]]},"properties":{"zona":"D34","linkzona":"MI00004781","fascia":"D","fascia_label":"Periferica","descr":"SARCA, BICOCCA","semestre":"2025-S2","loc_min":11.0,"loc_max":15.0,"loc_mid":13.0,"sale_min":3300.0,"sale_max":4200.0,"sup":"L","tipologia":"Abitazioni civili","stato":"NORMALE","ott_min":15.3,"ott_max":19.0}},{"type":"Feature","geometry":{"type":"Polygon","coordinates":[[[9.23006,45.49261],[9.23035,45.49215],[9.23175,45.49266],[9.23343,45.49374],[9.23349,45.49407],[9.23692,45.4967],[9.23721,45.49671],[9.23907,45.49815],[9.23861,45.49848],[9.24011,45.49963],[9.24071,45.49979],[9.24557,45.50351],[9.24594,45.50363],[9.24738,45.50473],[9.24803,45.50542],[9.25012,45.507],[9.25022,45.50721],[9.2511,45.50726],[9.25309,45.50879],[9.25315,45.50915],[9.25606,45.51138],[9.25632,45.51126],[9.25681,45.51163],[9.25923,45.51218],[9.25969,45.51243],[9.26129,45.51281],[9.26365,45.51278],[9.2642,45.51265],[9.26649,45.51255],[9.26701,45.51245],[9.26819,45.5124],[9.26845,45.5143],[9.26871,45.51518],[9.26847,45.51565],[9.26489,45.51596],[9.26397,45.51516],[9.26213,45.51543],[9.2619,45.51588],[9.2624,45.51724],[9.26161,45.51737],[9.26199,45.5185],[9.26106,45.51866],[9.26087,45.51894],[9.261,45.51978],[9.26055,45.51985],[9.26027,45.51947],[9.25969,45.51911],[9.25912,45.51908],[9.25929,45.51961],[9.25926,45.52012],[9.25872,45.52014],[9.2584,45.51926],[9.2588,45.51889],[9.25776,45.51836],[9.25691,45.51826],[9.25534,45.51895],[9.25539,45.52039],[9.25473,45.52035],[9.25161,45.51999],[9.24987,45.51969],[9.24968,45.52],[9.24888,45.51986],[9.2473,45.51936],[9.24491,45.51842],[9.24462,45.519],[9.24393,45.51894],[9.2409,45.51932],[9.2376,45.51869],[9.23791,45.5179],[9.23595,45.51748],[9.23584,45.51772],[9.2346,45.51745],[9.23398,45.51898],[9.23354,45.51899],[9.23339,45.5199],[9.23301,45.52126],[9.23128,45.52117],[9.2309,45.5232],[9.22927,45.52303],[9.22918,45.52323],[9.22606,45.52285],[9.22583,45.52361],[9.22399,45.52337],[9.2239,45.52362],[9.22321,45.52345],[9.22269,45.52352],[9.2219,45.52326],[9.22036,45.52156],[9.21939,45.52062],[9.21804,45.51881],[9.21678,45.51721],[9.21619,45.51615],[9.21645,45.51607],[9.21541,45.51429],[9.21389,45.51217],[9.21332,45.51235],[9.21233,45.51038],[9.21213,45.50975],[9.21045,45.50755],[9.21049,45.50716],[9.21095,45.50666],[9.21143,45.50684],[9.2119,45.50566],[9.21238,45.50492],[9.21343,45.50355],[9.21322,45.50308],[9.21424,45.50228],[9.21472,45.50164],[9.21513,45.50082],[9.21673,45.50033],[9.21754,45.49998],[9.22019,45.49837],[9.22059,45.49844],[9.22186,45.49787],[9.22353,45.4973],[9.22354,45.4967],[9.22519,45.49631],[9.22616,45.49594],[9.22818,45.49468],[9.22839,45.49427],[9.22975,45.49273],[9.23006,45.49261]]]},"properties":{"zona":"D35","linkzona":"MI00004782","fascia":"D","fascia_label":"Periferica","descr":"MONZA, CRESCENZAGO, GORLA, QUARTIERE ADRIANO","semestre":"2025-S2","loc_min":9.0,"loc_max":13.7,"loc_mid":11.35,"sale_min":2750.0,"sale_max":4100.0,"sup":"L","tipologia":"Abitazioni civili","stato":"NORMALE","ott_min":13.8,"ott_max":20.5}},{"type":"Feature","geometry":{"type":"Polygon","coordinates":[[[9.21599,45.48622],[9.21681,45.48585],[9.21697,45.48555],[9.21699,45.4842],[9.21698,45.48553],[9.21713,45.48585],[9.21761,45.48612],[9.21798,45.48603],[9.21905,45.48656],[9.22086,45.48733],[9.22272,45.48887],[9.22422,45.48892],[9.2246,45.48868],[9.22609,45.48871],[9.2263,45.48857],[9.2278,45.48863],[9.228,45.48877],[9.22967,45.48895],[9.23006,45.48917],[9.23287,45.48946],[9.23327,45.48983],[9.23335,45.48982],[9.23343,45.48978],[9.23319,45.48994],[9.23303,45.4899],[9.23206,45.49099],[9.23145,45.4909],[9.23035,45.49215],[9.23006,45.49261],[9.22975,45.49273],[9.22839,45.49427],[9.22818,45.49468],[9.22616,45.49594],[9.22519,45.49631],[9.22354,45.4967],[9.22353,45.4973],[9.22186,45.49787],[9.22059,45.49844],[9.22019,45.49837],[9.21754,45.49998],[9.21673,45.50033],[9.21513,45.50082],[9.21472,45.50164],[9.21424,45.50228],[9.21322,45.50308],[9.21343,45.50355],[9.21238,45.50492],[9.2119,45.50566],[9.21143,45.50684],[9.21095,45.50666],[9.21049,45.50716],[9.20917,45.50848],[9.20852,45.50827],[9.20746,45.51042],[9.20592,45.5109],[9.20566,45.51049],[9.20068,45.51187],[9.20046,45.51151],[9.19916,45.51187],[9.19837,45.51186],[9.19834,45.5121],[9.19534,45.5129],[9.19344,45.51304],[9.19184,45.5125],[9.19148,45.51279],[9.19026,45.51258],[9.1903,45.51226],[9.18881,45.51193],[9.18733,45.5123],[9.18707,45.51301],[9.18584,45.51267],[9.18526,45.51348],[9.18473,45.51338],[9.18447,45.51386],[9.18388,45.51385],[9.18205,45.51424],[9.18019,45.51372],[9.18059,45.51311],[9.17975,45.51294],[9.18098,45.50907],[9.18108,45.50839],[9.1813,45.50809],[9.18198,45.50768],[9.18393,45.50587],[9.18483,45.50573],[9.18485,45.5054],[9.17995,45.50612],[9.17877,45.5064],[9.18139,45.50267],[9.18169,45.50259],[9.18469,45.49829],[9.18513,45.4976],[9.18502,45.49739],[9.18416,45.49737],[9.1843,45.4972],[9.18711,45.49737],[9.19404,45.4955],[9.19306,45.49373],[9.19389,45.4935],[9.19387,45.49419],[9.19456,45.49542],[9.19481,45.49554],[9.19776,45.49475],[9.19794,45.49457],[9.19882,45.49433],[9.19915,45.49464],[9.20112,45.49469],[9.20093,45.4942],[9.20145,45.49397],[9.20152,45.49331],[9.20521,45.49146],[9.2052,45.4913],[9.20675,45.49053],[9.20711,45.49095],[9.20745,45.49092],[9.2092,45.49274],[9.20953,45.49272],[9.21162,45.4917],[9.20932,45.48934],[9.20968,45.48907],[9.21498,45.48641],[9.21505,45.48586],[9.21573,45.48594],[9.21599,45.48622]]]},"properties":{"zona":"D36","linkzona":"MI00004783","fascia":"D","fascia_label":"Periferica","descr":"MAGGIOLINA, PARCO TROTTER, LEONCAVALLO","semestre":"2025-S2","loc_min":9.2,"loc_max":14.0,"loc_mid":11.6,"sale_min":3600.0,"sale_max":4600.0,"sup":"L","tipologia":"Abitazioni civili","stato":"NORMALE","ott_min":14.1,"ott_max":23.0}},{"type":"Feature","geometry":{"type":"Polygon","coordinates":[[[9.24533,45.47123],[9.24467,45.47098],[9.24174,45.47023],[9.24181,45.47001],[9.24034,45.46967],[9.23949,45.46979],[9.23812,45.46982],[9.23775,45.46941],[9.23769,45.4683],[9.23684,45.46711],[9.2365,45.46576],[9.23656,45.46497],[9.23707,45.46304],[9.23717,45.46218],[9.23693,45.4616],[9.23632,45.46067],[9.23517,45.46008],[9.23516,45.45928],[9.23525,45.45899],[9.23609,45.4585],[9.23638,45.45814],[9.23663,45.45747],[9.23662,45.45661],[9.23688,45.45615],[9.23655,45.45428],[9.23604,45.45007],[9.23521,45.44859],[9.23468,45.448],[9.23343,45.44726],[9.23209,45.44688],[9.23181,45.44664],[9.23069,45.44661],[9.23063,45.44646],[9.2318,45.44623],[9.23172,45.44607],[9.23169,45.44597],[9.23186,45.44608],[9.23289,45.44584],[9.23366,45.44543],[9.23434,45.44462],[9.2339,45.4445],[9.23443,45.44385],[9.23546,45.44404],[9.23748,45.44394],[9.23819,45.44408],[9.23811,45.44463],[9.23953,45.4443],[9.24082,45.44416],[9.24102,45.44349],[9.24246,45.44225],[9.243,45.44152],[9.24374,45.44106],[9.24542,45.4423],[9.24564,45.44306],[9.24677,45.44354],[9.24807,45.44377],[9.2504,45.44372],[9.25037,45.44341],[9.25143,45.44338],[9.2517,45.44393],[9.25225,45.44428],[9.25343,45.44469],[9.25417,45.44484],[9.25524,45.44465],[9.25675,45.44399],[9.25691,45.44364],[9.25701,45.44267],[9.25701,45.44158],[9.25689,45.4404],[9.25752,45.44037],[9.25683,45.4379],[9.2568,45.437],[9.25695,45.43667],[9.25789,45.43561],[9.2585,45.43505],[9.25963,45.43429],[9.26052,45.43392],[9.26038,45.43375],[9.26215,45.43308],[9.26241,45.43321],[9.26385,45.43255],[9.26549,45.43458],[9.26656,45.43501],[9.26612,45.43616],[9.26606,45.43741],[9.2669,45.43759],[9.26683,45.43873],[9.26712,45.4394],[9.26701,45.43989],[9.26644,45.44071],[9.2663,45.44197],[9.26645,45.44248],[9.26644,45.44344],[9.26666,45.44474],[9.26661,45.44511],[9.26686,45.44582],[9.26648,45.44659],[9.26652,45.4475],[9.26704,45.4482],[9.26731,45.44881],[9.26746,45.44963],[9.26706,45.45032],[9.26611,45.45084],[9.26624,45.45112],[9.26511,45.4515],[9.26483,45.45188],[9.26525,45.45205],[9.26513,45.45247],[9.26464,45.45305],[9.26366,45.45525],[9.26405,45.45572],[9.26463,45.4557],[9.26448,45.45749],[9.26606,45.45785],[9.26832,45.45817],[9.26943,45.45823],[9.26925,45.45888],[9.26998,45.45891],[9.27039,45.45949],[9.27021,45.46046],[9.27003,45.46062],[9.27169,45.46078],[9.27277,45.46072],[9.27216,45.46164],[9.27156,45.46332],[9.27154,45.46482],[9.27167,45.46537],[9.27142,45.466],[9.27135,45.46686],[9.27166,45.46717],[9.27156,45.46806],[9.27277,45.46812],[9.27262,45.46942],[9.27258,45.47261],[9.27096,45.4723],[9.26949,45.47237],[9.26808,45.47267],[9.26657,45.47221],[9.26619,45.47197],[9.26154,45.47146],[9.26022,45.47141],[9.25997,45.47231],[9.26046,45.47317],[9.26038,45.47394],[9.25975,45.4739],[9.25339,45.47296],[9.25198,45.47294],[9.25192,45.47306],[9.24926,45.47246],[9.24873,45.47225],[9.24715,45.47185],[9.24536,45.47185],[9.24533,45.47123]]]},"properties":{"zona":"D37","linkzona":"MI00011747","fascia":"D","fascia_label":"Periferica","descr":"FORLANINI, MECENATE, PONTE LAMBRO","semestre":"2025-S2","loc_min":12.0,"loc_max":14.9,"loc_mid":13.45,"sale_min":2800.0,"sale_max":3500.0,"sup":"L","tipologia":"Abitazioni civili","stato":"NORMALE","ott_min":15.0,"ott_max":19.0}},{"type":"Feature","geometry":{"type":"Polygon","coordinates":[[[9.23966,45.43096],[9.23981,45.43065],[9.24014,45.4293],[9.24028,45.42743],[9.24093,45.42723],[9.24107,45.42684],[9.24185,45.42556],[9.24427,45.42246],[9.24425,45.42226],[9.24431,45.42216],[9.24614,45.42313],[9.24763,45.42357],[9.24856,45.42353],[9.25086,45.4225],[9.2517,45.42286],[9.25389,45.42351],[9.25411,45.42363],[9.2518,45.42561],[9.25352,45.42638],[9.25414,45.42698],[9.25733,45.42871],[9.25865,45.42948],[9.25953,45.43032],[9.26031,45.43046],[9.26078,45.43079],[9.26201,45.43138],[9.26382,45.43243],[9.26385,45.43255],[9.26241,45.43321],[9.26215,45.43308],[9.26038,45.43375],[9.26052,45.43392],[9.25963,45.43429],[9.2585,45.43505],[9.25789,45.43561],[9.25695,45.43667],[9.2568,45.437],[9.25683,45.4379],[9.25752,45.44037],[9.25689,45.4404],[9.25701,45.44158],[9.25701,45.44267],[9.25691,45.44364],[9.25675,45.44399],[9.25524,45.44465],[9.25417,45.44484],[9.25343,45.44469],[9.25225,45.44428],[9.2517,45.44393],[9.25143,45.44338],[9.25037,45.44341],[9.2504,45.44372],[9.24807,45.44377],[9.24677,45.44354],[9.24564,45.44306],[9.24542,45.4423],[9.24374,45.44106],[9.243,45.44152],[9.24246,45.44225],[9.24102,45.44349],[9.24082,45.44416],[9.23953,45.4443],[9.23811,45.44463],[9.23819,45.44408],[9.23748,45.44394],[9.23546,45.44404],[9.23443,45.44385],[9.235,45.44249],[9.23485,45.44175],[9.23436,45.44075],[9.23566,45.43745],[9.23656,45.43762],[9.23707,45.43619],[9.23727,45.4362],[9.23815,45.43399],[9.23784,45.43387],[9.2368,45.43433],[9.23662,45.43415],[9.2391,45.43307],[9.23921,45.43251],[9.23966,45.43134],[9.23966,45.43096]]]},"properties":{"zona":"D38","linkzona":"MI00011748","fascia":"D","fascia_label":"Periferica","descr":"SANTA GIULIA, ROGOREDO","semestre":"2025-S2","loc_min":11.0,"loc_max":14.0,"loc_mid":12.5,"sale_min":3200.0,"sale_max":4000.0,"sup":"L","tipologia":"Abitazioni civili","stato":"NORMALE","ott_min":14.1,"ott_max":18.5}},{"type":"Feature","geometry":{"type":"Polygon","coordinates":[[[9.11319,45.51369],[9.11313,45.51545],[9.11521,45.51554],[9.11691,45.51599],[9.11569,45.51741],[9.1154,45.51784],[9.11248,45.51942],[9.11165,45.52004],[9.10902,45.52147],[9.10894,45.52164],[9.10692,45.52278],[9.10653,45.52299],[9.10297,45.52103],[9.1031,45.52162],[9.10285,45.52261],[9.10256,45.5233],[9.10183,45.5247],[9.10132,45.52505],[9.10059,45.52619],[9.09958,45.52611],[9.09895,45.52589],[9.09795,45.52575],[9.09693,45.52665],[9.09702,45.52691],[9.09769,45.52682],[9.09844,45.52727],[9.09665,45.52908],[9.09755,45.52922],[9.09802,45.52908],[9.09854,45.5299],[9.10079,45.5291],[9.10106,45.52924],[9.1005,45.52996],[9.10159,45.53093],[9.10109,45.53175],[9.10074,45.53158],[9.09934,45.5312],[9.09899,45.53207],[9.09541,45.52925],[9.09326,45.52938],[9.09293,45.5287],[9.09413,45.52823],[9.093,45.52735],[9.09279,45.52643],[9.09369,45.5254],[9.09453,45.52509],[9.09643,45.52395],[9.09437,45.52282],[9.09536,45.52177],[9.09272,45.52043],[9.09338,45.51964],[9.09325,45.51932],[9.09449,45.5164],[9.09481,45.51602],[9.0951,45.51474],[9.09553,45.51354],[9.09649,45.51247],[9.09711,45.51058],[9.09803,45.50866],[9.09886,45.50646],[9.09887,45.50644],[9.10545,45.50485],[9.10956,45.50382],[9.10957,45.50396],[9.11057,45.50508],[9.11052,45.50526],[9.10831,45.50627],[9.1078,45.5067],[9.10742,45.50811],[9.1061,45.50872],[9.10607,45.50911],[9.10633,45.50965],[9.10799,45.51147],[9.10886,45.51148],[9.11053,45.51168],[9.11194,45.51179],[9.11217,45.51222],[9.11307,45.51328],[9.11319,45.51369]]]},"properties":{"zona":"D39","linkzona":"MI00011750","fascia":"D","fascia_label":"Periferica","descr":"CASCINA MERLATA, EXPO","semestre":"2025-S2","loc_min":14.0,"loc_max":21.0,"loc_mid":17.5,"sup":"L","tipologia":"Abitazioni civili","stato":"OTTIMO","ott_min":14.0,"ott_max":21.0}},{"type":"Feature","geometry":{"type":"Polygon","coordinates":[[[9.11696,45.51078],[9.11683,45.51062],[9.11447,45.51132],[9.11352,45.51186],[9.11194,45.51179],[9.11053,45.51168],[9.10886,45.51148],[9.10799,45.51147],[9.10633,45.50965],[9.10607,45.50911],[9.1061,45.50872],[9.10742,45.50811],[9.1078,45.5067],[9.10831,45.50627],[9.11052,45.50526],[9.11057,45.50508],[9.10957,45.50396],[9.10956,45.50382],[9.11166,45.50331],[9.11835,45.50172],[9.12023,45.50129],[9.12022,45.50111],[9.12099,45.49875],[9.12935,45.49536],[9.13019,45.49571],[9.1307,45.49536],[9.13074,45.49503],[9.13112,45.49463],[9.13374,45.49353],[9.13608,45.49256],[9.13702,45.49196],[9.13805,45.4907],[9.13891,45.4899],[9.14293,45.48688],[9.14286,45.48651],[9.14395,45.48594],[9.1447,45.48537],[9.14774,45.48736],[9.14743,45.48764],[9.14827,45.4882],[9.14851,45.48816],[9.15085,45.48969],[9.15111,45.49005],[9.1517,45.49009],[9.15342,45.49126],[9.15672,45.4934],[9.15688,45.49331],[9.15797,45.49414],[9.16003,45.49549],[9.16021,45.49459],[9.16043,45.49461],[9.16028,45.49565],[9.16184,45.49666],[9.16162,45.49677],[9.15978,45.49767],[9.15768,45.49863],[9.14859,45.50292],[9.14737,45.50345],[9.14731,45.50359],[9.14512,45.50434],[9.14264,45.50498],[9.14201,45.50513],[9.13881,45.50568],[9.13748,45.50602],[9.13528,45.50631],[9.13132,45.50719],[9.13006,45.50727],[9.12829,45.50749],[9.1257,45.50816],[9.1232,45.50876],[9.12171,45.50943],[9.12055,45.50945],[9.12054,45.50977],[9.11696,45.51078]]]},"properties":{"zona":"D40","linkzona":"MI00011751","fascia":"D","fascia_label":"Periferica","descr":"MUSOCCO, CERTOSA","semestre":"2025-S2","loc_min":10.0,"loc_max":14.5,"loc_mid":12.25,"sale_min":2750.0,"sale_max":3500.0,"sup":"L","tipologia":"Abitazioni civili","stato":"NORMALE","ott_min":14.6,"ott_max":21.5}},{"type":"Feature","geometry":{"type":"Polygon","coordinates":[[[9.10314,45.4794],[9.10191,45.47986],[9.09747,45.48121],[9.0933,45.48219],[9.08876,45.48334],[9.08651,45.48381],[9.07603,45.4878],[9.07508,45.48805],[9.07411,45.48849],[9.07394,45.48807],[9.07267,45.48823],[9.06891,45.48882],[9.0695,45.48917],[9.06675,45.48856],[9.06734,45.48675],[9.06679,45.48643],[9.06573,45.48621],[9.06614,45.48507],[9.06599,45.48445],[9.06598,45.48368],[9.06566,45.48336],[9.06607,45.48283],[9.06995,45.48066],[9.07073,45.48003],[9.072,45.47877],[9.07264,45.47836],[9.0732,45.47822],[9.0734,45.47794],[9.07425,45.47761],[9.07526,45.47747],[9.07492,45.47701],[9.07551,45.4766],[9.07538,45.4761],[9.07588,45.47541],[9.07555,45.47501],[9.07474,45.47432],[9.0778,45.47211],[9.07651,45.47197],[9.07579,45.47145],[9.07488,45.4706],[9.07426,45.47035],[9.07297,45.47034],[9.07354,45.46872],[9.07439,45.46701],[9.07412,45.46666],[9.07481,45.46469],[9.07551,45.46374],[9.07545,45.46332],[9.07441,45.46298],[9.07364,45.46288],[9.07326,45.46317],[9.07071,45.46455],[9.06988,45.46482],[9.06939,45.46463],[9.07001,45.46425],[9.06981,45.46391],[9.07007,45.46328],[9.07042,45.46286],[9.07166,45.46234],[9.07173,45.46179],[9.07216,45.46106],[9.07265,45.46064],[9.07317,45.46046],[9.07445,45.45941],[9.07467,45.45886],[9.07477,45.458],[9.0745,45.45737],[9.07253,45.45709],[9.0724,45.45818],[9.07156,45.45866],[9.07089,45.45859],[9.07012,45.45884],[9.06975,45.45937],[9.06985,45.46011],[9.06959,45.4611],[9.0684,45.46168],[9.06741,45.46191],[9.06721,45.46286],[9.06672,45.46302],[9.06646,45.46378],[9.0615,45.4628],[9.05801,45.46273],[9.05853,45.4622],[9.05774,45.46203],[9.05595,45.46146],[9.05482,45.46131],[9.0546,45.46153],[9.05363,45.46143],[9.05241,45.46203],[9.05158,45.4619],[9.04989,45.46405],[9.04818,45.46339],[9.04689,45.46277],[9.0459,45.46401],[9.04477,45.46609],[9.04302,45.4655],[9.04337,45.46386],[9.04287,45.46371],[9.04391,45.46175],[9.04477,45.45992],[9.04535,45.45891],[9.04646,45.45926],[9.04784,45.45712],[9.04952,45.45467],[9.04826,45.4548],[9.04984,45.45244],[9.04939,45.4522],[9.05007,45.45116],[9.04909,45.45098],[9.0467,45.45003],[9.04409,45.44893],[9.04387,45.44867],[9.04109,45.44776],[9.04061,45.44751],[9.04124,45.44657],[9.04189,45.44637],[9.04655,45.4458],[9.04753,45.44563],[9.04969,45.4454],[9.05409,45.44486],[9.05496,45.44249],[9.05423,45.43984],[9.05508,45.44001],[9.05622,45.43806],[9.05767,45.43837],[9.05891,45.43734],[9.06037,45.43561],[9.06087,45.43487],[9.06105,45.43438],[9.06324,45.4354],[9.06413,45.43445],[9.06374,45.43395],[9.06458,45.43324],[9.06514,45.43358],[9.06558,45.43406],[9.06621,45.4358],[9.06925,45.43363],[9.07049,45.43449],[9.07078,45.43452],[9.07293,45.43394],[9.07324,45.43429],[9.07436,45.43485],[9.07549,45.43569],[9.07614,45.43604],[9.077,45.4371],[9.07809,45.4377],[9.07894,45.43805],[9.07934,45.43843],[9.07713,45.44052],[9.07542,45.44244],[9.0756,45.44262],[9.07791,45.44364],[9.07855,45.44421],[9.07802,45.44463],[9.07845,45.44505],[9.07784,45.44509],[9.07805,45.44551],[9.07774,45.44601],[9.07777,45.44648],[9.07688,45.44694],[9.07649,45.44826],[9.07748,45.44928],[9.07792,45.44935],[9.07668,45.45126],[9.07791,45.45239],[9.07844,45.45222],[9.07896,45.45149],[9.07959,45.45101],[9.0804,45.45158],[9.0816,45.45087],[9.08272,45.45138],[9.08331,45.4514],[9.08435,45.45193],[9.08598,45.45267],[9.0863,45.45294],[9.08686,45.45297],[9.08755,45.45342],[9.08788,45.45342],[9.08804,45.45356],[9.08657,45.45407],[9.0898,45.45527],[9.08957,45.45556],[9.09843,45.4582],[9.10169,45.45893],[9.10249,45.45905],[9.10197,45.4603],[9.10195,45.46131],[9.10277,45.46169],[9.10401,45.46179],[9.10608,45.46212],[9.10587,45.46298],[9.10721,45.46295],[9.10811,45.46305],[9.10927,45.46336],[9.10883,45.46451],[9.10877,45.46496],[9.10931,45.46504],[9.1095,45.46543],[9.10925,45.46583],[9.1088,45.4659],[9.10912,45.46685],[9.10736,45.46685],[9.10591,45.4667],[9.10509,45.4687],[9.10355,45.46846],[9.10342,45.46926],[9.10248,45.47063],[9.1026,45.47087],[9.10126,45.47218],[9.10273,45.47273],[9.10211,45.47368],[9.10279,45.4742],[9.10111,45.4764],[9.10076,45.47644],[9.10017,45.47733],[9.10192,45.47809],[9.1023,45.47834],[9.10314,45.4794]]]},"properties":{"zona":"E5","linkzona":"MI00004784","fascia":"E","fascia_label":"Suburbana","descr":"BAGGIO, Q. ROMANO, MUGGIANO","semestre":"2025-S2","loc_min":9.0,"loc_max":11.8,"loc_mid":10.4,"sale_min":2150.0,"sale_max":3100.0,"sup":"L","tipologia":"Abitazioni civili","stato":"NORMALE","ott_min":12.0,"ott_max":16.0}},{"type":"Feature","geometry":{"type":"Polygon","coordinates":[[[9.10314,45.4794],[9.10689,45.47798],[9.11002,45.47693],[9.11003,45.47681],[9.11127,45.47637],[9.1111,45.47667],[9.10991,45.48232],[9.10911,45.48417],[9.10956,45.48429],[9.10799,45.49171],[9.10812,45.49198],[9.10978,45.49175],[9.11249,45.49094],[9.11749,45.48827],[9.1181,45.48783],[9.11852,45.48797],[9.11997,45.48901],[9.12049,45.48881],[9.12138,45.48891],[9.12222,45.48922],[9.12311,45.48969],[9.12388,45.48948],[9.12404,45.48969],[9.12798,45.48817],[9.12911,45.4878],[9.12999,45.48762],[9.12974,45.49224],[9.13055,45.49281],[9.13374,45.49353],[9.13112,45.49463],[9.13074,45.49503],[9.1307,45.49536],[9.13019,45.49571],[9.12935,45.49536],[9.12099,45.49875],[9.12022,45.50111],[9.12023,45.50129],[9.11835,45.50172],[9.11166,45.50331],[9.10956,45.50382],[9.10545,45.50485],[9.09887,45.50644],[9.09886,45.50646],[9.09883,45.50651],[9.09527,45.50737],[9.09416,45.50583],[9.09268,45.50628],[9.09164,45.50708],[9.09155,45.50675],[9.09125,45.50406],[9.08984,45.50046],[9.09045,45.49979],[9.08958,45.49957],[9.09013,45.49894],[9.08856,45.49817],[9.08787,45.49795],[9.08724,45.49805],[9.08686,45.49783],[9.08609,45.49874],[9.08586,45.49879],[9.08381,45.49806],[9.08356,45.49741],[9.0826,45.49774],[9.08161,45.49781],[9.08126,45.49816],[9.08082,45.49783],[9.07866,45.49704],[9.07747,45.49845],[9.07664,45.49799],[9.07511,45.49795],[9.07464,45.49809],[9.07516,45.49872],[9.07504,45.49935],[9.07313,45.50314],[9.07226,45.5048],[9.07209,45.50529],[9.07338,45.50552],[9.07304,45.50607],[9.07197,45.50597],[9.07146,45.50582],[9.07069,45.50585],[9.06919,45.50561],[9.06849,45.50521],[9.0673,45.50493],[9.06588,45.50519],[9.06485,45.50459],[9.06564,45.50367],[9.06195,45.50232],[9.06026,45.50459],[9.05982,45.50434],[9.05835,45.50449],[9.05737,45.50512],[9.05701,45.50506],[9.05667,45.50544],[9.05391,45.50486],[9.05442,45.504],[9.05367,45.50374],[9.05482,45.5018],[9.05585,45.49979],[9.05652,45.49772],[9.05815,45.49774],[9.05865,45.49626],[9.05863,45.49596],[9.05895,45.49523],[9.0594,45.49466],[9.06001,45.49426],[9.06144,45.49481],[9.06203,45.49441],[9.06279,45.49359],[9.06369,45.49279],[9.06392,45.49196],[9.06253,45.49188],[9.06213,45.49215],[9.06163,45.4918],[9.06096,45.49156],[9.06134,45.49097],[9.06149,45.49019],[9.06149,45.48904],[9.06419,45.48845],[9.06363,45.48905],[9.06305,45.48934],[9.06272,45.49042],[9.06395,45.49039],[9.06397,45.4902],[9.06505,45.49016],[9.06496,45.48848],[9.06675,45.48856],[9.0695,45.48917],[9.06891,45.48882],[9.07267,45.48823],[9.07394,45.48807],[9.07411,45.48849],[9.07508,45.48805],[9.07603,45.4878],[9.08651,45.48381],[9.08876,45.48334],[9.0933,45.48219],[9.09747,45.48121],[9.10191,45.47986],[9.10314,45.4794]]]},"properties":{"zona":"E6","linkzona":"MI00004785","fascia":"E","fascia_label":"Suburbana","descr":"GALLARATESE, LAMPUGNANO, P. TRENNO, BONOLA","semestre":"2025-S2","loc_min":10.0,"loc_max":14.0,"loc_mid":12.0,"sale_min":2600.0,"sale_max":3500.0,"sup":"L","tipologia":"Abitazioni civili","stato":"NORMALE","ott_min":14.1,"ott_max":18.0}},{"type":"Feature","geometry":{"type":"Polygon","coordinates":[[[9.17017,45.42167],[9.17003,45.42199],[9.17034,45.42315],[9.16999,45.42351],[9.16882,45.42425],[9.16847,45.42418],[9.16699,45.42163],[9.16687,45.42165],[9.16499,45.41834],[9.1644,45.41743],[9.16337,45.41565],[9.16348,45.41553],[9.16151,45.4122],[9.16126,45.41226],[9.15922,45.41228],[9.15757,45.41231],[9.15739,45.41221],[9.15849,45.40927],[9.15852,45.4082],[9.15914,45.40797],[9.15689,45.40408],[9.158,45.40302],[9.15591,45.40155],[9.15697,45.40115],[9.15871,45.40164],[9.15816,45.40256],[9.16004,45.40298],[9.1623,45.40318],[9.16298,45.40338],[9.16408,45.40306],[9.16439,45.40348],[9.16563,45.40306],[9.16601,45.40232],[9.16638,45.40219],[9.16529,45.40044],[9.16662,45.40045],[9.16652,45.40085],[9.16739,45.40125],[9.16806,45.40216],[9.17001,45.4028],[9.17075,45.40272],[9.17053,45.40076],[9.17353,45.40074],[9.17363,45.40158],[9.17381,45.40295],[9.17445,45.40278],[9.17497,45.40647],[9.17492,45.40667],[9.17621,45.40658],[9.17618,45.40612],[9.17844,45.40583],[9.17861,45.40666],[9.17819,45.40702],[9.1821,45.40726],[9.18201,45.40814],[9.1835,45.40835],[9.1828,45.41019],[9.18207,45.41337],[9.18174,45.4144],[9.18177,45.41471],[9.1754,45.41508],[9.17545,45.4157],[9.17578,45.41687],[9.17604,45.41965],[9.17533,45.41997],[9.17355,45.42031],[9.17407,45.42157],[9.17127,45.42138],[9.17062,45.42221],[9.17046,45.42174],[9.17017,45.42167]]]},"properties":{"zona":"E7","linkzona":"MI00004786","fascia":"E","fascia_label":"Suburbana","descr":"MISSAGLIA, GRATOSOGLIO","semestre":"2025-S2","loc_min":6.5,"loc_max":9.9,"loc_mid":8.2,"sale_min":2200.0,"sale_max":2650.0,"sup":"L","tipologia":"Abitazioni civili","stato":"NORMALE","ott_min":10.0,"ott_max":13.0}},{"type":"Feature","geometry":{"type":"Polygon","coordinates":[[[9.14264,45.50498],[9.14292,45.50551],[9.14376,45.50565],[9.14552,45.50616],[9.14628,45.5065],[9.14768,45.50743],[9.14894,45.50834],[9.15063,45.50929],[9.15174,45.5097],[9.15361,45.51007],[9.14967,45.51435],[9.14698,45.51742],[9.14679,45.51741],[9.14606,45.51823],[9.14517,45.5181],[9.14462,45.51952],[9.14415,45.52017],[9.14434,45.52059],[9.14413,45.52161],[9.14357,45.52189],[9.14296,45.52179],[9.14289,45.52207],[9.14137,45.52191],[9.14167,45.52057],[9.13702,45.51999],[9.13679,45.52111],[9.13483,45.52094],[9.13431,45.52277],[9.13537,45.52295],[9.13516,45.5236],[9.13591,45.52373],[9.13576,45.52429],[9.13238,45.52349],[9.13181,45.52324],[9.13007,45.52294],[9.12987,45.52396],[9.12952,45.5244],[9.1287,45.52492],[9.12833,45.52487],[9.12847,45.52409],[9.12886,45.52354],[9.12896,45.52292],[9.12394,45.52279],[9.12403,45.52205],[9.12356,45.52126],[9.12374,45.52065],[9.12256,45.5205],[9.12246,45.52088],[9.12041,45.52066],[9.12024,45.52154],[9.11982,45.52182],[9.11772,45.52164],[9.11791,45.52008],[9.11764,45.52003],[9.11844,45.51901],[9.11665,45.52009],[9.11613,45.52027],[9.11482,45.52042],[9.11288,45.52081],[9.11091,45.52231],[9.1105,45.52277],[9.10963,45.52311],[9.10899,45.52411],[9.10868,45.52404],[9.10899,45.52327],[9.10888,45.52278],[9.10732,45.52258],[9.10692,45.52278],[9.10894,45.52164],[9.10902,45.52147],[9.11165,45.52004],[9.11248,45.51942],[9.1154,45.51784],[9.11569,45.51741],[9.11691,45.51599],[9.11521,45.51554],[9.11313,45.51545],[9.11319,45.51369],[9.11307,45.51328],[9.11217,45.51222],[9.11194,45.51179],[9.11352,45.51186],[9.11447,45.51132],[9.11683,45.51062],[9.11696,45.51078],[9.12054,45.50977],[9.12055,45.50945],[9.12171,45.50943],[9.1232,45.50876],[9.1257,45.50816],[9.12829,45.50749],[9.13006,45.50727],[9.13132,45.50719],[9.13528,45.50631],[9.13748,45.50602],[9.13881,45.50568],[9.14201,45.50513],[9.14264,45.50498]]]},"properties":{"zona":"E8","linkzona":"MI00004787","fascia":"E","fascia_label":"Suburbana","descr":"QUARTO OGGIARO, SACCO","semestre":"2025-S2","loc_min":7.6,"loc_max":9.9,"loc_mid":8.75,"sale_min":1850.0,"sale_max":2700.0,"sup":"L","tipologia":"Abitazioni civili","stato":"NORMALE","ott_min":10.0,"ott_max":15.0}},{"type":"Feature","geometry":{"type":"Polygon","coordinates":[[[9.18177,45.41471],[9.18174,45.4144],[9.18207,45.41337],[9.1828,45.41019],[9.1835,45.40835],[9.18201,45.40814],[9.1821,45.40726],[9.17819,45.40702],[9.17861,45.40666],[9.17844,45.40583],[9.17618,45.40612],[9.17621,45.40658],[9.17492,45.40667],[9.17497,45.40647],[9.17445,45.40278],[9.17381,45.40295],[9.17363,45.40158],[9.1736,45.40071],[9.17303,45.39583],[9.17291,45.39456],[9.17754,45.39362],[9.17941,45.39326],[9.18088,45.39265],[9.18251,45.39183],[9.1821,45.39076],[9.18244,45.39055],[9.18411,45.39036],[9.18564,45.38987],[9.18609,45.39022],[9.18638,45.39141],[9.18729,45.39111],[9.18786,45.3913],[9.1895,45.39228],[9.19085,45.39265],[9.19109,45.39236],[9.191,45.39193],[9.19125,45.39148],[9.19141,45.39073],[9.19062,45.39011],[9.19081,45.38986],[9.19095,45.38903],[9.1908,45.3888],[9.19163,45.38846],[9.1924,45.38757],[9.19265,45.38673],[9.19438,45.38699],[9.19566,45.38729],[9.19696,45.38769],[9.19835,45.38881],[9.19875,45.38924],[9.19966,45.38943],[9.20068,45.39065],[9.20105,45.39128],[9.20166,45.39177],[9.20142,45.39245],[9.20066,45.39358],[9.19959,45.39459],[9.20053,45.3976],[9.20133,45.39764],[9.20341,45.39756],[9.20336,45.39655],[9.20521,45.39322],[9.2059,45.39336],[9.20686,45.39306],[9.20763,45.39268],[9.20919,45.39304],[9.20886,45.39424],[9.20881,45.39597],[9.2096,45.39688],[9.21045,45.39699],[9.21055,45.39675],[9.21501,45.39733],[9.21519,45.39679],[9.21651,45.39709],[9.21881,45.3975],[9.21831,45.39816],[9.21694,45.39957],[9.21684,45.40038],[9.21648,45.40167],[9.21653,45.40319],[9.21691,45.40417],[9.21679,45.40467],[9.2188,45.40567],[9.21858,45.40632],[9.21806,45.40719],[9.21969,45.408],[9.22047,45.40831],[9.22297,45.40954],[9.22407,45.40911],[9.22533,45.4082],[9.22615,45.40741],[9.22668,45.40744],[9.22783,45.40794],[9.23046,45.408],[9.23148,45.40786],[9.23375,45.4091],[9.23536,45.40933],[9.23592,45.40948],[9.2365,45.40943],[9.23736,45.40985],[9.23866,45.4093],[9.23938,45.40863],[9.24015,45.40843],[9.24269,45.40924],[9.24353,45.4101],[9.24261,45.41088],[9.24397,45.4129],[9.24571,45.41238],[9.24625,45.41254],[9.24687,45.41244],[9.25064,45.41454],[9.25002,45.41486],[9.24817,45.41557],[9.24668,45.4166],[9.24407,45.41797],[9.24333,45.41825],[9.24033,45.41953],[9.24247,45.42114],[9.2443,45.42216],[9.24425,45.42226],[9.24427,45.42246],[9.24185,45.42556],[9.24107,45.42684],[9.24093,45.42723],[9.24028,45.42743],[9.24014,45.4293],[9.23981,45.43065],[9.23966,45.43096],[9.23905,45.43103],[9.23808,45.43137],[9.23645,45.43285],[9.23512,45.43387],[9.23266,45.43549],[9.23244,45.43537],[9.23074,45.43618],[9.23026,45.43564],[9.23077,45.43536],[9.23031,45.43497],[9.23087,45.43468],[9.23002,45.43397],[9.23052,45.43368],[9.22984,45.43269],[9.23059,45.43249],[9.23046,45.43138],[9.2306,45.43125],[9.23045,45.43036],[9.22959,45.43047],[9.22928,45.42912],[9.22932,45.42853],[9.2296,45.42846],[9.23037,45.42876],[9.23235,45.42763],[9.2324,45.42735],[9.23288,45.42675],[9.2324,45.42641],[9.23323,45.42583],[9.23348,45.42539],[9.23288,45.42485],[9.23356,45.42448],[9.23396,45.42473],[9.23426,45.42449],[9.23324,45.42385],[9.23102,45.42546],[9.23074,45.42505],[9.22992,45.42461],[9.22962,45.4247],[9.22917,45.42535],[9.23041,45.42601],[9.22863,45.42751],[9.22805,45.42828],[9.22702,45.42926],[9.2264,45.42952],[9.22453,45.4287],[9.22361,45.42842],[9.22402,45.42758],[9.22382,45.42747],[9.22418,45.4269],[9.22465,45.42514],[9.225,45.42451],[9.22572,45.42488],[9.22619,45.42412],[9.22729,45.42463],[9.2303,45.42191],[9.2298,45.42163],[9.23022,45.42133],[9.2296,45.42089],[9.22741,45.42145],[9.22695,45.42145],[9.22647,45.42188],[9.22605,45.42182],[9.22384,45.4219],[9.22399,45.42144],[9.22229,45.42099],[9.22129,45.42184],[9.21987,45.42292],[9.21872,45.42367],[9.21826,45.42378],[9.21742,45.42446],[9.21881,45.42552],[9.21826,45.4259],[9.21872,45.42631],[9.21797,45.42684],[9.21816,45.42759],[9.21845,45.42787],[9.21776,45.4282],[9.21713,45.42801],[9.21604,45.42823],[9.21623,45.42882],[9.21608,45.42914],[9.21532,45.42921],[9.21524,45.42877],[9.21372,45.42874],[9.21395,45.42939],[9.21444,45.43013],[9.2142,45.43022],[9.21465,45.4308],[9.21587,45.4304],[9.21631,45.43052],[9.21754,45.43026],[9.2187,45.4306],[9.21822,45.43104],[9.21945,45.43169],[9.21862,45.4323],[9.21762,45.43175],[9.21551,45.43224],[9.21513,45.43266],[9.21453,45.43457],[9.21133,45.43344],[9.20998,45.4331],[9.20946,45.43322],[9.20919,45.43358],[9.20644,45.43262],[9.20737,45.43112],[9.20812,45.43011],[9.20834,45.43018],[9.20923,45.42901],[9.20981,45.42738],[9.21086,45.42749],[9.21185,45.42744],[9.2122,45.42662],[9.21298,45.42664],[9.21359,45.42627],[9.21251,45.4253],[9.2119,45.42491],[9.20964,45.4247],[9.2077,45.4243],[9.20744,45.42416],[9.20687,45.42333],[9.20663,45.42332],[9.20532,45.42229],[9.20529,45.422],[9.20587,45.4201],[9.2057,45.41956],[9.20465,45.41976],[9.20437,45.42092],[9.20414,45.42086],[9.20257,45.41979],[9.20239,45.42041],[9.20126,45.42093],[9.20139,45.42112],[9.19933,45.4221],[9.19831,45.42281],[9.19785,45.42283],[9.19745,45.42343],[9.19806,45.42356],[9.19775,45.42406],[9.19609,45.42794],[9.19533,45.42776],[9.19382,45.42786],[9.19358,45.4269],[9.19223,45.42611],[9.19163,45.42615],[9.19129,45.42597],[9.19111,45.42541],[9.1908,45.42524],[9.19015,45.42572],[9.19129,45.42649],[9.19139,45.42699],[9.1908,45.42699],[9.19079,45.42771],[9.18972,45.42763],[9.18953,45.42883],[9.18914,45.42923],[9.18843,45.42905],[9.18809,45.42949],[9.18486,45.42818],[9.18379,45.42918],[9.18324,45.42877],[9.18322,45.42829],[9.1829,45.42815],[9.18259,45.42751],[9.18251,45.42688],[9.18072,45.42571],[9.18068,45.42148],[9.18044,45.42108],[9.18222,45.42021],[9.18221,45.41996],[9.18168,45.4181],[9.18175,45.41718],[9.18207,45.41524],[9.18177,45.41471]]]},"properties":{"zona":"R2","linkzona":"MI00004391","fascia":"R","fascia_label":"Extraurbana","descr":"RONCHETTO, CHIARAVALLE, RIPAMONTI","semestre":"2025-S2","loc_min":null,"loc_max":null,"loc_mid":null,"nonres":true}}]}