{"type":"FeatureCollection","features":[{"type":"Feature","geometry":{"type":"Polygon","coordinates":[[[11.09337,46.09998],[11.09402,46.10115],[11.09633,46.1019],[11.1013,46.10398],[11.10224,46.10367],[11.10422,46.10364],[11.10438,46.10722],[11.10533,46.10764],[11.1087,46.10802],[11.10855,46.10909],[11.10752,46.11215],[11.10975,46.1125],[11.10986,46.11452],[11.11071,46.11507],[11.11028,46.11599],[11.11149,46.11643],[11.11198,46.11782],[11.11117,46.1186],[11.1108,46.1197],[11.11108,46.12159],[11.11084,46.12283],[11.10973,46.12362],[11.10926,46.12511],[11.11068,46.1258],[11.11134,46.12649],[11.11188,46.12852],[11.11313,46.13089],[11.11471,46.13456],[11.11655,46.13511],[11.11622,46.13586],[11.11859,46.13715],[11.11878,46.138],[11.11588,46.13644],[11.11071,46.13485],[11.10953,46.13433],[11.10452,46.13273],[11.094,46.12791],[11.09077,46.12582],[11.08895,46.123],[11.08556,46.12179],[11.0864,46.11995],[11.08717,46.11742],[11.08754,46.11367],[11.08824,46.111],[11.09034,46.10405],[11.09231,46.10109],[11.09337,46.09998]]]},"properties":{"zona":"D1","linkzona":"TN00001067","fascia":"D","fascia_label":"Periferica","descr":"ZONA PRODUTTIVA SPINI DI GARDOLO, INTERPORTO","semestre":"2025-S2","loc_min":null,"loc_max":null,"loc_mid":null,"nonres":true}},{"type":"Feature","geometry":{"type":"Polygon","coordinates":[[[11.1121,46.04471],[11.11246,46.04287],[11.11362,46.03905],[11.11271,46.03884],[11.11287,46.03759],[11.11392,46.03742],[11.11417,46.0353],[11.11453,46.03505],[11.11809,46.03425],[11.11956,46.0356],[11.11853,46.0385],[11.12035,46.03881],[11.11987,46.0401],[11.11702,46.04282],[11.1139,46.0456],[11.1121,46.04471]]]},"properties":{"zona":"D3","fascia":"D","fascia_label":"Periferica","redefined":true,"loc_min":null,"loc_max":null,"loc_mid":null}},{"type":"Feature","geometry":{"type":"Polygon","coordinates":[[[11.11263,46.08346],[11.11451,46.08349],[11.11472,46.08412],[11.11695,46.08494],[11.10861,46.09519],[11.10714,46.09485],[11.10355,46.09358],[11.1024,46.09265],[11.1022,46.09162],[11.10508,46.08677],[11.10688,46.08621],[11.11194,46.08352],[11.11263,46.08346]]]},"properties":{"zona":"D2","fascia":"D","fascia_label":"Periferica","redefined":true,"loc_min":null,"loc_max":null,"loc_mid":null}},{"type":"Feature","geometry":{"type":"MultiPolygon","coordinates":[[[[11.04708,46.01186],[11.0471,46.01184],[11.0471,46.01187],[11.04708,46.01186]]],[[[11.19385,46.06417],[11.19389,46.06464],[11.19252,46.06758],[11.18967,46.07135],[11.1842,46.07383],[11.18198,46.07711],[11.17949,46.07839],[11.17842,46.07863],[11.17698,46.07973],[11.17357,46.0803],[11.17257,46.0814],[11.17187,46.08288],[11.17498,46.0853],[11.17327,46.08782],[11.16874,46.09142],[11.16379,46.09334],[11.16102,46.0943],[11.15633,46.09708],[11.15538,46.09818],[11.15404,46.0987],[11.15726,46.10081],[11.156,46.10425],[11.15322,46.10464],[11.15356,46.10912],[11.15433,46.10944],[11.15587,46.11286],[11.15593,46.11389],[11.15692,46.11518],[11.15703,46.11752],[11.15896,46.11886],[11.15972,46.1191],[11.1607,46.12079],[11.16302,46.12184],[11.16381,46.12515],[11.16431,46.13025],[11.16524,46.13407],[11.16533,46.13736],[11.16499,46.14026],[11.16515,46.14099],[11.16306,46.14502],[11.16324,46.14633],[11.16397,46.14804],[11.16341,46.14878],[11.16338,46.15064],[11.16211,46.15162],[11.16201,46.15215],[11.1598,46.15206],[11.15712,46.15109],[11.15584,46.15024],[11.15535,46.14942],[11.15287,46.14878],[11.15199,46.14891],[11.15002,46.14982],[11.14635,46.15008],[11.14375,46.15086],[11.13799,46.15082],[11.13576,46.1505],[11.13382,46.15065],[11.13237,46.15041],[11.12885,46.14859],[11.12736,46.14835],[11.1257,46.1485],[11.12435,46.1474],[11.12261,46.14773],[11.12183,46.14556],[11.1213,46.14478],[11.12152,46.14336],[11.12122,46.14238],[11.11932,46.14086],[11.11962,46.13921],[11.11886,46.13846],[11.11443,46.13655],[11.1101,46.13527],[11.09323,46.12988],[11.09055,46.12914],[11.08854,46.1278],[11.08725,46.12759],[11.08629,46.12695],[11.08436,46.12671],[11.08407,46.12553],[11.08192,46.12501],[11.08292,46.12322],[11.08302,46.12083],[11.08099,46.12006],[11.07965,46.1204],[11.07779,46.11953],[11.07705,46.1179],[11.07996,46.11641],[11.08026,46.11571],[11.07806,46.11505],[11.07702,46.11223],[11.07579,46.11111],[11.07463,46.10933],[11.07268,46.1078],[11.07052,46.10553],[11.0676,46.1021],[11.06444,46.0997],[11.05736,46.09644],[11.05438,46.09192],[11.05472,46.09166],[11.05313,46.09037],[11.05093,46.0881],[11.04958,46.0876],[11.04769,46.08789],[11.04641,46.08977],[11.04523,46.08923],[11.04189,46.0872],[11.04225,46.08586],[11.03823,46.08421],[11.03695,46.08544],[11.03532,46.08658],[11.03547,46.08748],[11.03475,46.08991],[11.03255,46.09175],[11.03106,46.09159],[11.02912,46.09232],[11.0295,46.0891],[11.02562,46.08836],[11.02635,46.08737],[11.02631,46.08656],[11.02704,46.08547],[11.02683,46.08317],[11.02753,46.08279],[11.02763,46.0811],[11.02823,46.07962],[11.02767,46.07689],[11.02815,46.0758],[11.02535,46.07528],[11.02416,46.07546],[11.0234,46.07338],[11.02245,46.07299],[11.02159,46.07205],[11.02163,46.07122],[11.02337,46.06742],[11.02208,46.06558],[11.02299,46.06446],[11.02313,46.06323],[11.02467,46.06191],[11.02597,46.0593],[11.02901,46.0605],[11.03166,46.06109],[11.03532,46.06102],[11.03641,46.06071],[11.03889,46.06201],[11.04081,46.06191],[11.04226,46.0621],[11.0431,46.06155],[11.04532,46.06372],[11.04588,46.06487],[11.04741,46.06537],[11.04872,46.06364],[11.04952,46.06297],[11.04929,46.06175],[11.05004,46.061],[11.05141,46.06085],[11.05281,46.06146],[11.05524,46.06116],[11.05685,46.06144],[11.05681,46.062],[11.05804,46.06321],[11.05971,46.06385],[11.06239,46.06388],[11.06772,46.06561],[11.069,46.06548],[11.071,46.06571],[11.07184,46.06657],[11.07138,46.06712],[11.07285,46.06811],[11.07137,46.06836],[11.07145,46.06977],[11.07419,46.0708],[11.07363,46.06964],[11.07525,46.06924],[11.07643,46.06927],[11.07669,46.06843],[11.07478,46.06778],[11.07563,46.06685],[11.07471,46.06625],[11.07629,46.06534],[11.0751,46.06427],[11.07328,46.0641],[11.07135,46.06341],[11.07095,46.06266],[11.07242,46.06146],[11.07375,46.06222],[11.07451,46.06159],[11.07621,46.06123],[11.07886,46.06286],[11.07956,46.06358],[11.07958,46.0646],[11.07722,46.06613],[11.07959,46.06647],[11.08258,46.06804],[11.08318,46.06748],[11.08432,46.06757],[11.08692,46.06649],[11.08552,46.0646],[11.08477,46.06414],[11.08425,46.06162],[11.08307,46.06108],[11.08169,46.05944],[11.08542,46.05844],[11.08658,46.05893],[11.08932,46.06059],[11.08988,46.06023],[11.08857,46.05918],[11.09323,46.05797],[11.09797,46.05883],[11.09872,46.05793],[11.09887,46.05693],[11.09988,46.0558],[11.09975,46.0544],[11.09838,46.05268],[11.09757,46.05071],[11.09582,46.04875],[11.09525,46.04727],[11.09282,46.04567],[11.09124,46.04587],[11.08839,46.04579],[11.08511,46.04312],[11.08566,46.0388],[11.08745,46.03914],[11.08927,46.03688],[11.09069,46.03617],[11.0886,46.03533],[11.08592,46.03496],[11.08395,46.0336],[11.08504,46.03329],[11.08581,46.03377],[11.08828,46.03354],[11.09022,46.03386],[11.09056,46.03445],[11.09291,46.0335],[11.09307,46.03286],[11.08993,46.03231],[11.08823,46.03091],[11.08741,46.02955],[11.08565,46.0294],[11.08563,46.02875],[11.08391,46.02807],[11.08342,46.02752],[11.08426,46.02639],[11.08601,46.02618],[11.08709,46.02259],[11.08539,46.02274],[11.08401,46.02339],[11.08364,46.02395],[11.08061,46.02516],[11.0786,46.02547],[11.07624,46.02377],[11.07801,46.02322],[11.0804,46.02338],[11.08205,46.02283],[11.08491,46.02086],[11.0866,46.0194],[11.08761,46.01987],[11.08876,46.01828],[11.08883,46.01721],[11.09048,46.01578],[11.09154,46.01582],[11.09304,46.01393],[11.09394,46.01384],[11.09619,46.0127],[11.09658,46.01206],[11.09694,46.00842],[11.09716,46.00774],[11.10055,46.00662],[11.1012,46.00555],[11.10081,46.00441],[11.09873,46.00292],[11.09838,46.00167],[11.09732,45.99991],[11.0973,45.99922],[11.09637,45.99866],[11.09288,45.99325],[11.09782,45.99161],[11.10352,45.99088],[11.10656,45.99103],[11.10969,45.99009],[11.11343,45.98973],[11.11652,45.98841],[11.11361,45.98629],[11.11296,45.98528],[11.11093,45.98349],[11.11034,45.98268],[11.11131,45.98241],[11.11748,45.98192],[11.11991,45.98422],[11.1217,45.98451],[11.12276,45.98527],[11.12427,45.98575],[11.12535,45.98475],[11.12783,45.98373],[11.13075,45.982],[11.13222,45.98044],[11.13405,45.97712],[11.13514,45.97662],[11.13625,45.97662],[11.13852,45.97753],[11.13831,45.97855],[11.13974,45.97827],[11.14126,45.97703],[11.14239,45.97686],[11.14398,45.97764],[11.14555,45.97734],[11.14742,45.97651],[11.14746,45.97573],[11.14972,45.97662],[11.15013,45.97776],[11.15327,45.97956],[11.15463,45.97985],[11.15569,45.98174],[11.1563,45.98086],[11.15731,45.981],[11.15875,45.98043],[11.15945,45.98165],[11.15904,45.98255],[11.1596,45.98378],[11.15844,45.98552],[11.15807,45.98916],[11.15767,45.99],[11.15845,45.99098],[11.15827,45.99425],[11.15862,45.99571],[11.15753,45.99842],[11.15723,46.00032],[11.15825,46.00243],[11.16112,46.00279],[11.16338,46.00262],[11.16554,46.0034],[11.1667,46.00445],[11.16575,46.00504],[11.16225,46.00582],[11.16441,46.00727],[11.16456,46.00844],[11.16421,46.01144],[11.16463,46.01188],[11.16466,46.01322],[11.16256,46.01342],[11.16211,46.01453],[11.15948,46.01394],[11.15948,46.01489],[11.15826,46.01613],[11.15706,46.01664],[11.15171,46.01723],[11.14557,46.01653],[11.14668,46.01722],[11.14931,46.01819],[11.14978,46.01891],[11.15126,46.01994],[11.15464,46.02099],[11.15472,46.02141],[11.15221,46.02312],[11.14952,46.02327],[11.14872,46.02392],[11.14905,46.02472],[11.14856,46.02621],[11.1485,46.03269],[11.1482,46.03371],[11.14941,46.03404],[11.15019,46.03496],[11.15019,46.03595],[11.15159,46.03582],[11.15152,46.03833],[11.15276,46.03807],[11.15411,46.03921],[11.15635,46.04198],[11.15639,46.04294],[11.15702,46.04439],[11.15722,46.0472],[11.15817,46.04849],[11.15687,46.04906],[11.15729,46.04983],[11.15686,46.05212],[11.1592,46.053],[11.15961,46.05373],[11.15931,46.05507],[11.16087,46.05544],[11.16129,46.05646],[11.16262,46.05741],[11.1643,46.05906],[11.16437,46.05968],[11.16312,46.06037],[11.16189,46.06027],[11.16149,46.06106],[11.16613,46.06147],[11.16704,46.06116],[11.16779,46.06187],[11.16807,46.06361],[11.16895,46.06382],[11.17091,46.06264],[11.17194,46.06246],[11.17121,46.06412],[11.17335,46.06418],[11.17447,46.06661],[11.17615,46.0658],[11.17637,46.0647],[11.17772,46.06507],[11.17797,46.06574],[11.17956,46.06526],[11.18262,46.06527],[11.18424,46.06596],[11.18614,46.06538],[11.18528,46.06446],[11.18692,46.06426],[11.18766,46.06451],[11.19167,46.06455],[11.19252,46.06472],[11.19385,46.06417]],[[11.10975,46.1125],[11.1113,46.11129],[11.11188,46.10973],[11.1135,46.10904],[11.11619,46.109],[11.11576,46.10757],[11.117,46.10548],[11.11798,46.10433],[11.11819,46.10357],[11.11916,46.10267],[11.11937,46.10111],[11.12154,46.09905],[11.12166,46.09715],[11.1213,46.09523],[11.12157,46.09466],[11.12249,46.09132],[11.1251,46.08699],[11.12606,46.08792],[11.1257,46.08917],[11.12741,46.08908],[11.12748,46.08789],[11.12903,46.08796],[11.12909,46.08927],[11.12776,46.09106],[11.12934,46.09283],[11.12835,46.09429],[11.1286,46.09573],[11.12994,46.09546],[11.13129,46.09476],[11.13319,46.09275],[11.1337,46.09169],[11.13374,46.08988],[11.13422,46.08933],[11.13371,46.08808],[11.13156,46.08665],[11.13213,46.08511],[11.13135,46.08425],[11.13099,46.08256],[11.13176,46.0818],[11.13543,46.08011],[11.13613,46.07908],[11.13774,46.08069],[11.13653,46.08269],[11.13512,46.08356],[11.13547,46.08402],[11.13858,46.08389],[11.13894,46.08198],[11.13993,46.08241],[11.14119,46.08127],[11.14224,46.08121],[11.1428,46.08204],[11.14485,46.08209],[11.14533,46.08061],[11.14421,46.07949],[11.14398,46.07835],[11.14432,46.07747],[11.14555,46.07637],[11.14699,46.07669],[11.14883,46.07648],[11.15084,46.07712],[11.15058,46.07615],[11.14954,46.07475],[11.15103,46.0737],[11.14994,46.07251],[11.14861,46.07184],[11.14734,46.07321],[11.14641,46.0719],[11.14411,46.07145],[11.1419,46.07137],[11.14143,46.07036],[11.13985,46.07012],[11.14052,46.06867],[11.13901,46.06757],[11.14035,46.06694],[11.1406,46.06533],[11.14111,46.06508],[11.14444,46.0645],[11.14455,46.06294],[11.1433,46.0628],[11.14235,46.06215],[11.14147,46.0606],[11.14272,46.0597],[11.14291,46.05906],[11.14245,46.05769],[11.14087,46.05759],[11.13985,46.05708],[11.13975,46.05615],[11.1411,46.05571],[11.14069,46.05425],[11.14187,46.05313],[11.13995,46.05136],[11.13946,46.04988],[11.13977,46.04953],[11.13958,46.04771],[11.14041,46.04754],[11.14118,46.04839],[11.14319,46.048],[11.14375,46.04916],[11.14287,46.04985],[11.14269,46.05065],[11.14361,46.05194],[11.14473,46.0523],[11.14818,46.05254],[11.14986,46.05245],[11.15057,46.05356],[11.15153,46.05329],[11.15067,46.05205],[11.15135,46.05115],[11.15156,46.05014],[11.15105,46.049],[11.151,46.04788],[11.15161,46.04699],[11.1532,46.04601],[11.15321,46.04533],[11.15184,46.045],[11.15162,46.04392],[11.15233,46.04284],[11.15076,46.04209],[11.15051,46.0413],[11.1481,46.04011],[11.14782,46.03895],[11.14891,46.03846],[11.14887,46.03704],[11.14762,46.03438],[11.14614,46.03396],[11.14412,46.0339],[11.14302,46.03694],[11.14468,46.03705],[11.14402,46.03799],[11.14296,46.03784],[11.1424,46.03839],[11.14109,46.03859],[11.14079,46.03953],[11.13997,46.03867],[11.13739,46.03866],[11.13666,46.03906],[11.13582,46.03819],[11.13617,46.03651],[11.13547,46.03554],[11.13537,46.03409],[11.13469,46.03252],[11.13497,46.03194],[11.13743,46.03155],[11.1372,46.0303],[11.13659,46.02978],[11.13742,46.02775],[11.13658,46.02727],[11.13578,46.02558],[11.13513,46.0254],[11.13386,46.02767],[11.13296,46.02776],[11.13282,46.02947],[11.13053,46.02951],[11.12818,46.02928],[11.12803,46.03121],[11.12806,46.03453],[11.12568,46.03512],[11.12478,46.03698],[11.12363,46.03861],[11.12009,46.04186],[11.11826,46.04314],[11.11418,46.04677],[11.11296,46.04808],[11.11161,46.04999],[11.11141,46.05115],[11.11167,46.05329],[11.1119,46.05679],[11.11203,46.05877],[11.11224,46.06166],[11.1126,46.06348],[11.11334,46.06537],[11.11571,46.06988],[11.11635,46.07113],[11.1169,46.07304],[11.11692,46.0745],[11.11649,46.07624],[11.11487,46.07882],[11.11308,46.08036],[11.11341,46.08217],[11.11263,46.08346],[11.11194,46.08352],[11.10688,46.08621],[11.10508,46.08677],[11.1022,46.09162],[11.1024,46.09265],[11.09907,46.09383],[11.09358,46.09966],[11.09337,46.09998],[11.09231,46.10109],[11.09034,46.10405],[11.08824,46.111],[11.08754,46.11367],[11.08717,46.11742],[11.0864,46.11995],[11.08556,46.12179],[11.08895,46.123],[11.09077,46.12582],[11.094,46.12791],[11.10452,46.13273],[11.10953,46.13433],[11.11071,46.13485],[11.11588,46.13644],[11.11878,46.138],[11.11859,46.13715],[11.11622,46.13586],[11.11655,46.13511],[11.11471,46.13456],[11.11313,46.13089],[11.11188,46.12852],[11.11134,46.12649],[11.11068,46.1258],[11.10926,46.12511],[11.10973,46.12362],[11.11084,46.12283],[11.11108,46.12159],[11.1108,46.1197],[11.11117,46.1186],[11.11198,46.11782],[11.11149,46.11643],[11.11028,46.11599],[11.11071,46.11507],[11.10986,46.11452],[11.10975,46.1125]],[[11.11287,46.03759],[11.11283,46.03579],[11.11047,46.03632],[11.11146,46.0342],[11.11008,46.03453],[11.10858,46.03452],[11.10782,46.03499],[11.10739,46.03611],[11.10533,46.0372],[11.10288,46.03738],[11.10391,46.03808],[11.10384,46.03885],[11.10546,46.03939],[11.10489,46.04177],[11.10517,46.0429],[11.10461,46.04562],[11.10545,46.04517],[11.10594,46.04204],[11.10733,46.04221],[11.1118,46.0422],[11.11246,46.04287],[11.1121,46.04471],[11.1139,46.0456],[11.11702,46.04282],[11.11987,46.0401],[11.12035,46.03881],[11.11853,46.0385],[11.11956,46.0356],[11.11809,46.03425],[11.11453,46.03505],[11.11417,46.0353],[11.11392,46.03742],[11.11287,46.03759]],[[11.12984,45.99937],[11.13038,45.99899],[11.12918,45.99742],[11.12692,45.99744],[11.12492,45.99779],[11.12404,45.9955],[11.12286,45.99586],[11.1243,46.00286],[11.12537,46.0065],[11.12398,46.00731],[11.12538,46.00913],[11.1258,46.00928],[11.12691,46.01364],[11.1275,46.01427],[11.12916,46.01408],[11.12994,46.01348],[11.13221,46.0154],[11.13202,46.01709],[11.13131,46.01806],[11.12844,46.01802],[11.12593,46.01751],[11.12587,46.01866],[11.12662,46.02103],[11.1259,46.02368],[11.12784,46.02416],[11.12787,46.02073],[11.12822,46.01939],[11.12983,46.01884],[11.13137,46.01922],[11.13234,46.01911],[11.13358,46.01729],[11.1333,46.01587],[11.13461,46.01558],[11.13653,46.01396],[11.13581,46.01247],[11.13573,46.01128],[11.13504,46.01048],[11.13569,46.00963],[11.13527,46.00804],[11.13466,46.00741],[11.13317,46.00702],[11.13348,46.00541],[11.13115,46.00247],[11.13002,46.0003],[11.12984,45.99937]],[[11.04146,46.08178],[11.04247,46.08124],[11.04615,46.08333],[11.04681,46.08295],[11.047,46.08161],[11.04539,46.0813],[11.04477,46.08011],[11.04605,46.07936],[11.04729,46.07957],[11.05059,46.07863],[11.04868,46.07744],[11.04708,46.07788],[11.04643,46.0768],[11.04382,46.07598],[11.04198,46.07612],[11.04123,46.07654],[11.0429,46.07723],[11.04409,46.07687],[11.04521,46.07752],[11.04439,46.07799],[11.04419,46.08005],[11.04332,46.08068],[11.04079,46.07988],[11.03959,46.08104],[11.04146,46.08178]],[[11.05407,46.07119],[11.05589,46.07174],[11.05644,46.07283],[11.0557,46.07514],[11.05497,46.07613],[11.05566,46.07772],[11.0563,46.07826],[11.05578,46.07953],[11.05636,46.08066],[11.05776,46.08253],[11.0589,46.0831],[11.05882,46.08364],[11.05962,46.08609],[11.06078,46.08683],[11.06146,46.08854],[11.06293,46.08963],[11.06435,46.08975],[11.06734,46.09164],[11.06847,46.09188],[11.07005,46.09041],[11.0717,46.09057],[11.07222,46.0899],[11.07191,46.08791],[11.07036,46.0877],[11.06737,46.08792],[11.06577,46.08643],[11.06442,46.0856],[11.06282,46.085],[11.06463,46.08412],[11.06632,46.08197],[11.06537,46.08174],[11.06233,46.08233],[11.06358,46.08317],[11.06299,46.08392],[11.06152,46.08378],[11.05854,46.08168],[11.05711,46.07962],[11.05822,46.07898],[11.06168,46.07855],[11.06318,46.0781],[11.06221,46.07505],[11.06234,46.07449],[11.06427,46.07413],[11.0637,46.07344],[11.06571,46.07197],[11.06465,46.07039],[11.06359,46.06926],[11.06398,46.06881],[11.06365,46.06704],[11.06147,46.0666],[11.05992,46.06538],[11.05851,46.06605],[11.05754,46.06766],[11.05519,46.06714],[11.05595,46.06825],[11.05589,46.06951],[11.05432,46.0698],[11.05324,46.06945],[11.05225,46.07002],[11.05357,46.07125],[11.05407,46.07119]],[[11.09495,46.0628],[11.09397,46.06323],[11.09509,46.06456],[11.09572,46.06633],[11.09687,46.06668],[11.09815,46.06555],[11.10041,46.06576],[11.10163,46.06617],[11.10313,46.06618],[11.10302,46.06549],[11.10212,46.06463],[11.1016,46.06246],[11.10175,46.06157],[11.09995,46.06226],[11.09783,46.06217],[11.09754,46.0616],[11.09589,46.06192],[11.09495,46.0628]],[[11.10222,46.07529],[11.10023,46.07649],[11.09929,46.07813],[11.09894,46.07953],[11.09802,46.08055],[11.09802,46.08147],[11.10017,46.08107],[11.10074,46.08238],[11.09865,46.08365],[11.09873,46.08481],[11.10115,46.08425],[11.10205,46.0845],[11.10827,46.08161],[11.11282,46.07912],[11.1143,46.07764],[11.11571,46.07476],[11.1157,46.07314],[11.1151,46.07131],[11.11424,46.07011],[11.11161,46.06482],[11.11103,46.063],[11.10989,46.06323],[11.10946,46.06555],[11.11048,46.06594],[11.11058,46.0684],[11.10886,46.06933],[11.10833,46.06996],[11.10854,46.07107],[11.10708,46.07203],[11.10338,46.0731],[11.10165,46.07493],[11.10222,46.07529]],[[11.10323,46.0183],[11.10418,46.01935],[11.10618,46.02051],[11.10698,46.01998],[11.10869,46.02096],[11.11068,46.02097],[11.10848,46.01968],[11.1077,46.01832],[11.10847,46.01808],[11.10853,46.01711],[11.10635,46.01398],[11.10491,46.01456],[11.10379,46.01617],[11.10294,46.01624],[11.10349,46.01766],[11.10323,46.0183]],[[11.11254,46.12377],[11.11231,46.12417],[11.11479,46.12603],[11.11558,46.12775],[11.11669,46.12933],[11.11903,46.12884],[11.12023,46.12995],[11.12185,46.13038],[11.12239,46.13112],[11.12356,46.13077],[11.12712,46.13064],[11.12723,46.13169],[11.12857,46.133],[11.12774,46.13321],[11.12754,46.13586],[11.12813,46.13639],[11.12922,46.13579],[11.12936,46.13382],[11.1297,46.13259],[11.1311,46.13245],[11.1319,46.13296],[11.13209,46.13452],[11.13327,46.13439],[11.13343,46.13613],[11.13399,46.13748],[11.13498,46.1367],[11.13521,46.13404],[11.1362,46.13427],[11.13547,46.13179],[11.1353,46.12997],[11.13277,46.1302],[11.13178,46.12985],[11.13105,46.13059],[11.13016,46.13011],[11.12946,46.12898],[11.12948,46.12798],[11.12857,46.12749],[11.1292,46.12644],[11.13024,46.1265],[11.13106,46.12504],[11.13269,46.12502],[11.13491,46.12421],[11.1341,46.12341],[11.13227,46.12374],[11.13082,46.12344],[11.12973,46.12399],[11.1304,46.12518],[11.12923,46.12578],[11.12726,46.12599],[11.12735,46.12712],[11.12672,46.12815],[11.12376,46.12795],[11.12184,46.12701],[11.12105,46.12772],[11.11986,46.12657],[11.11834,46.12597],[11.11832,46.12446],[11.12043,46.12387],[11.12097,46.12261],[11.12072,46.12165],[11.12125,46.12106],[11.12078,46.12038],[11.12148,46.11946],[11.11956,46.11898],[11.11929,46.12034],[11.11783,46.12029],[11.11763,46.12156],[11.1158,46.12215],[11.11549,46.12329],[11.11394,46.12284],[11.11254,46.12377]],[[11.14803,46.06754],[11.14803,46.06824],[11.14907,46.06869],[11.1507,46.06875],[11.15048,46.07011],[11.15149,46.07109],[11.15327,46.07219],[11.15415,46.07174],[11.15295,46.07095],[11.15337,46.06983],[11.15343,46.06844],[11.15589,46.06839],[11.15834,46.0675],[11.1583,46.06878],[11.16015,46.06949],[11.16061,46.07007],[11.16192,46.06973],[11.16245,46.0706],[11.16201,46.07128],[11.16171,46.07313],[11.1597,46.07334],[11.15995,46.07388],[11.16168,46.07383],[11.16288,46.07528],[11.16429,46.07508],[11.16451,46.07447],[11.16375,46.07243],[11.1642,46.07096],[11.16417,46.06896],[11.16573,46.06803],[11.17066,46.06792],[11.17074,46.06714],[11.16929,46.06712],[11.1682,46.06669],[11.16809,46.06605],[11.16706,46.06569],[11.16491,46.06582],[11.16407,46.06678],[11.16308,46.06635],[11.16111,46.06676],[11.15993,46.06636],[11.15956,46.06381],[11.15917,46.06328],[11.15774,46.06278],[11.15766,46.06162],[11.15541,46.06151],[11.1544,46.06095],[11.15305,46.05776],[11.15145,46.05786],[11.15162,46.05893],[11.1511,46.06089],[11.14881,46.0609],[11.14918,46.06226],[11.15023,46.06231],[11.15015,46.0637],[11.14841,46.06386],[11.14836,46.06524],[11.14754,46.0663],[11.14803,46.06754]],[[11.15198,46.08296],[11.15348,46.08288],[11.15436,46.08194],[11.16051,46.08362],[11.1612,46.0847],[11.15964,46.08528],[11.15848,46.08487],[11.15715,46.08503],[11.1561,46.0841],[11.15541,46.08498],[11.15727,46.08539],[11.15664,46.08626],[11.15806,46.0868],[11.16134,46.08899],[11.162,46.08801],[11.16216,46.08696],[11.16127,46.08622],[11.16363,46.08549],[11.1636,46.0849],[11.16181,46.08351],[11.15935,46.08207],[11.15917,46.08097],[11.15468,46.08118],[11.15302,46.08156],[11.15297,46.08223],[11.15198,46.08296]]]]},"properties":{"zona":"R1","linkzona":"TN00002707","fascia":"R","fascia_label":"Extraurbana","descr":"ZONA RESIDUALE AGRICOLA","semestre":"2025-S2","loc_min":null,"loc_max":null,"loc_mid":null,"nonres":true}},{"type":"Feature","geometry":{"type":"Polygon","coordinates":[[[11.15706,46.01664],[11.15944,46.01825],[11.16161,46.01928],[11.16335,46.02093],[11.16584,46.02251],[11.16617,46.02324],[11.17171,46.02351],[11.17882,46.02439],[11.17999,46.02496],[11.18243,46.02557],[11.18349,46.02757],[11.18463,46.02889],[11.18484,46.02971],[11.18599,46.03106],[11.18783,46.03197],[11.1875,46.03349],[11.18797,46.03704],[11.18644,46.0393],[11.18781,46.04382],[11.1879,46.04633],[11.18952,46.04727],[11.19212,46.0499],[11.19177,46.05124],[11.19176,46.05298],[11.19302,46.05505],[11.19371,46.05676],[11.19385,46.06417],[11.19252,46.06472],[11.19167,46.06455],[11.18766,46.06451],[11.18692,46.06426],[11.18528,46.06446],[11.18614,46.06538],[11.18424,46.06596],[11.18262,46.06527],[11.17956,46.06526],[11.17797,46.06574],[11.17772,46.06507],[11.17637,46.0647],[11.17615,46.0658],[11.17447,46.06661],[11.17335,46.06418],[11.17121,46.06412],[11.17194,46.06246],[11.17091,46.06264],[11.16895,46.06382],[11.16807,46.06361],[11.16779,46.06187],[11.16704,46.06116],[11.16613,46.06147],[11.16149,46.06106],[11.16189,46.06027],[11.16312,46.06037],[11.16437,46.05968],[11.1643,46.05906],[11.16262,46.05741],[11.16129,46.05646],[11.16087,46.05544],[11.15931,46.05507],[11.15961,46.05373],[11.1592,46.053],[11.15686,46.05212],[11.15729,46.04983],[11.15687,46.04906],[11.15817,46.04849],[11.15722,46.0472],[11.15702,46.04439],[11.15639,46.04294],[11.15635,46.04198],[11.15411,46.03921],[11.15276,46.03807],[11.15152,46.03833],[11.15159,46.03582],[11.15019,46.03595],[11.15019,46.03496],[11.14941,46.03404],[11.1482,46.03371],[11.1485,46.03269],[11.14856,46.02621],[11.14905,46.02472],[11.14872,46.02392],[11.14952,46.02327],[11.15221,46.02312],[11.15472,46.02141],[11.15464,46.02099],[11.15126,46.01994],[11.14978,46.01891],[11.14931,46.01819],[11.14668,46.01722],[11.14557,46.01653],[11.15171,46.01723],[11.15706,46.01664]]]},"properties":{"zona":"R3","linkzona":"TN00002712","fascia":"R","fascia_label":"Extraurbana","descr":"ZONA MONTANA EST","semestre":"2025-S2","loc_min":null,"loc_max":null,"loc_mid":null,"nonres":true}},{"type":"Feature","geometry":{"type":"Polygon","coordinates":[[[11.07106,46.05962],[11.07253,46.06009],[11.07275,46.06097],[11.07451,46.06159],[11.07375,46.06222],[11.07242,46.06146],[11.07095,46.06266],[11.07135,46.06341],[11.07328,46.0641],[11.0751,46.06427],[11.07629,46.06534],[11.07471,46.06625],[11.07563,46.06685],[11.07478,46.06778],[11.07669,46.06843],[11.07643,46.06927],[11.07525,46.06924],[11.07363,46.06964],[11.07419,46.0708],[11.07145,46.06977],[11.07137,46.06836],[11.07285,46.06811],[11.07138,46.06712],[11.07184,46.06657],[11.071,46.06571],[11.069,46.06548],[11.06772,46.06561],[11.06239,46.06388],[11.05971,46.06385],[11.05804,46.06321],[11.05681,46.062],[11.05685,46.06144],[11.05524,46.06116],[11.05281,46.06146],[11.05141,46.06085],[11.05004,46.061],[11.04929,46.06175],[11.04952,46.06297],[11.04872,46.06364],[11.04741,46.06537],[11.04588,46.06487],[11.04532,46.06372],[11.0431,46.06155],[11.04226,46.0621],[11.04081,46.06191],[11.03889,46.06201],[11.03641,46.06071],[11.03532,46.06102],[11.03166,46.06109],[11.02901,46.0605],[11.02597,46.0593],[11.02639,46.05845],[11.02644,46.05576],[11.02405,46.05371],[11.02255,46.05161],[11.02146,46.04938],[11.02549,46.04786],[11.0277,46.04676],[11.02795,46.04662],[11.02864,46.04631],[11.0261,46.04379],[11.02626,46.0401],[11.02668,46.03721],[11.0282,46.03276],[11.02783,46.03117],[11.0284,46.03015],[11.02854,46.02808],[11.02905,46.02699],[11.02924,46.02471],[11.02789,46.02183],[11.02795,46.01905],[11.02748,46.0174],[11.02755,46.01449],[11.02807,46.01393],[11.02859,46.01207],[11.02691,46.00984],[11.02798,46.00943],[11.02746,46.00804],[11.02756,46.00598],[11.02844,46.00449],[11.02895,46.00261],[11.02991,46.00142],[11.0322,45.99726],[11.03245,45.99362],[11.03269,45.99312],[11.03231,45.99119],[11.03102,45.98925],[11.03178,45.98797],[11.03242,45.98487],[11.03545,45.98152],[11.03941,45.99096],[11.0448,45.99579],[11.0471,46.01184],[11.04708,46.01186],[11.0471,46.01187],[11.04764,46.01559],[11.0563,46.02419],[11.05847,46.02551],[11.05964,46.02399],[11.06175,46.02202],[11.0643,46.02165],[11.06574,46.02185],[11.06678,46.02111],[11.07033,46.0213],[11.07247,46.0216],[11.07392,46.02227],[11.0786,46.02547],[11.08061,46.02516],[11.08364,46.02395],[11.08401,46.02339],[11.08539,46.02274],[11.08709,46.02259],[11.08601,46.02618],[11.08426,46.02639],[11.08342,46.02752],[11.08391,46.02807],[11.08563,46.02875],[11.08565,46.0294],[11.08741,46.02955],[11.08823,46.03091],[11.08993,46.03231],[11.09307,46.03286],[11.09291,46.0335],[11.09056,46.03445],[11.09022,46.03386],[11.08828,46.03354],[11.08581,46.03377],[11.08504,46.03329],[11.08395,46.0336],[11.08592,46.03496],[11.0886,46.03533],[11.09069,46.03617],[11.08927,46.03688],[11.08745,46.03914],[11.08566,46.0388],[11.08511,46.04312],[11.08839,46.04579],[11.09124,46.04587],[11.09282,46.04567],[11.09525,46.04727],[11.09582,46.04875],[11.09757,46.05071],[11.09838,46.05268],[11.09975,46.0544],[11.09988,46.0558],[11.09887,46.05693],[11.09872,46.05793],[11.09797,46.05883],[11.09323,46.05797],[11.08857,46.05918],[11.08988,46.06023],[11.08932,46.06059],[11.08658,46.05893],[11.08542,46.05844],[11.08169,46.05944],[11.08015,46.0579],[11.07648,46.05575],[11.07566,46.05232],[11.0737,46.05144],[11.07317,46.05078],[11.07392,46.04985],[11.07172,46.04939],[11.06957,46.04808],[11.06761,46.04778],[11.06811,46.04691],[11.06707,46.04599],[11.06607,46.04403],[11.06412,46.04234],[11.06212,46.04156],[11.06138,46.04039],[11.05967,46.04038],[11.05931,46.0387],[11.05837,46.03774],[11.05727,46.03829],[11.05667,46.03734],[11.05544,46.03723],[11.05381,46.03827],[11.0555,46.03933],[11.05683,46.04246],[11.0587,46.04437],[11.0629,46.04697],[11.06287,46.04811],[11.06403,46.04864],[11.06541,46.04984],[11.06803,46.05097],[11.07018,46.05462],[11.07024,46.0551],[11.07185,46.05612],[11.07163,46.05767],[11.07039,46.0593],[11.07106,46.05962]]]},"properties":{"zona":"R2","linkzona":"TN00002711","fascia":"R","fascia_label":"Extraurbana","descr":"ZONA MONTANA OVEST","semestre":"2025-S2","loc_min":null,"loc_max":null,"loc_mid":null,"nonres":true}},{"type":"Feature","geometry":{"type":"Polygon","coordinates":[[[11.12984,45.99937],[11.13002,46.0003],[11.13115,46.00247],[11.13348,46.00541],[11.13317,46.00702],[11.13466,46.00741],[11.13527,46.00804],[11.13569,46.00963],[11.13504,46.01048],[11.13573,46.01128],[11.13581,46.01247],[11.13653,46.01396],[11.13461,46.01558],[11.1333,46.01587],[11.13358,46.01729],[11.13234,46.01911],[11.13137,46.01922],[11.12983,46.01884],[11.12822,46.01939],[11.12787,46.02073],[11.12784,46.02416],[11.1259,46.02368],[11.12662,46.02103],[11.12587,46.01866],[11.12593,46.01751],[11.12844,46.01802],[11.13131,46.01806],[11.13202,46.01709],[11.13221,46.0154],[11.12994,46.01348],[11.12916,46.01408],[11.1275,46.01427],[11.12691,46.01364],[11.1258,46.00928],[11.12538,46.00913],[11.12398,46.00731],[11.12537,46.0065],[11.1243,46.00286],[11.12286,45.99586],[11.12404,45.9955],[11.12492,45.99779],[11.12692,45.99744],[11.12918,45.99742],[11.13038,45.99899],[11.12984,45.99937]]]},"properties":{"zona":"E1","linkzona":"TN00001059","fascia":"E","fascia_label":"Suburbana","descr":"MATTARELLO","semestre":"2025-S2","loc_min":9.0,"loc_max":10.9,"loc_mid":9.95,"sale_min":2350.0,"sale_max":2900.0,"sup":"L","tipologia":"Abitazioni civili","stato":"NORMALE","ott_min":10.0,"ott_max":11.8}},{"type":"Feature","geometry":{"type":"Polygon","coordinates":[[[11.09495,46.0628],[11.09589,46.06192],[11.09754,46.0616],[11.09783,46.06217],[11.09995,46.06226],[11.10175,46.06157],[11.1016,46.06246],[11.10212,46.06463],[11.10302,46.06549],[11.10313,46.06618],[11.10163,46.06617],[11.10041,46.06576],[11.09815,46.06555],[11.09687,46.06668],[11.09572,46.06633],[11.09509,46.06456],[11.09397,46.06323],[11.09495,46.0628]]]},"properties":{"zona":"E8","linkzona":"TN00002706","fascia":"E","fascia_label":"Suburbana","descr":"SARDAGNA","semestre":"2025-S2","loc_min":4.0,"loc_max":4.5,"loc_mid":4.25,"sale_min":1700.0,"sale_max":1900.0,"sup":"L","tipologia":"Abitazioni civili","stato":"NORMALE","ott_min":4.5,"ott_max":5.5}},{"type":"Feature","geometry":{"type":"Polygon","coordinates":[[[11.07039,46.0593],[11.07163,46.05767],[11.07185,46.05612],[11.07024,46.0551],[11.07018,46.05462],[11.06803,46.05097],[11.06541,46.04984],[11.06403,46.04864],[11.06287,46.04811],[11.0629,46.04697],[11.0587,46.04437],[11.05683,46.04246],[11.0555,46.03933],[11.05381,46.03827],[11.05544,46.03723],[11.05667,46.03734],[11.05727,46.03829],[11.05837,46.03774],[11.05931,46.0387],[11.05967,46.04038],[11.06138,46.04039],[11.06212,46.04156],[11.06412,46.04234],[11.06607,46.04403],[11.06707,46.04599],[11.06811,46.04691],[11.06761,46.04778],[11.06957,46.04808],[11.07172,46.04939],[11.07392,46.04985],[11.07317,46.05078],[11.0737,46.05144],[11.07566,46.05232],[11.07648,46.05575],[11.08015,46.0579],[11.08169,46.05944],[11.08307,46.06108],[11.08425,46.06162],[11.08477,46.06414],[11.08552,46.0646],[11.08692,46.06649],[11.08432,46.06757],[11.08318,46.06748],[11.08258,46.06804],[11.07959,46.06647],[11.07722,46.06613],[11.07958,46.0646],[11.07956,46.06358],[11.07886,46.06286],[11.07621,46.06123],[11.07451,46.06159],[11.07275,46.06097],[11.07253,46.06009],[11.07106,46.05962],[11.07039,46.0593]]]},"properties":{"zona":"E7","linkzona":"TN00002567","fascia":"E","fascia_label":"Suburbana","descr":"MONTE BONDONE","semestre":"2025-S2","loc_min":null,"loc_max":null,"loc_mid":null,"sale_min":1500.0,"sale_max":1900.0}},{"type":"Feature","geometry":{"type":"Polygon","coordinates":[[[11.15198,46.08296],[11.15297,46.08223],[11.15302,46.08156],[11.15468,46.08118],[11.15917,46.08097],[11.15935,46.08207],[11.16181,46.08351],[11.1636,46.0849],[11.16363,46.08549],[11.16127,46.08622],[11.16216,46.08696],[11.162,46.08801],[11.16134,46.08899],[11.15806,46.0868],[11.15664,46.08626],[11.15727,46.08539],[11.15541,46.08498],[11.1561,46.0841],[11.15715,46.08503],[11.15848,46.08487],[11.15964,46.08528],[11.1612,46.0847],[11.16051,46.08362],[11.15436,46.08194],[11.15348,46.08288],[11.15198,46.08296]]]},"properties":{"zona":"E6","linkzona":"TN00001090","fascia":"E","fascia_label":"Suburbana","descr":"TAVERNARO,VILLAMONTAGNA","semestre":"2025-S2","loc_min":7.0,"loc_max":7.5,"loc_mid":7.25,"sale_min":2000.0,"sale_max":2200.0,"sup":"L","tipologia":"Abitazioni civili","stato":"NORMALE","ott_min":8.0,"ott_max":8.5}},{"type":"Feature","geometry":{"type":"Polygon","coordinates":[[[11.11254,46.12377],[11.11394,46.12284],[11.11549,46.12329],[11.1158,46.12215],[11.11763,46.12156],[11.11783,46.12029],[11.11929,46.12034],[11.11956,46.11898],[11.12148,46.11946],[11.12078,46.12038],[11.12125,46.12106],[11.12072,46.12165],[11.12097,46.12261],[11.12043,46.12387],[11.11832,46.12446],[11.11834,46.12597],[11.11986,46.12657],[11.12105,46.12772],[11.12184,46.12701],[11.12376,46.12795],[11.12672,46.12815],[11.12735,46.12712],[11.12726,46.12599],[11.12923,46.12578],[11.1304,46.12518],[11.12973,46.12399],[11.13082,46.12344],[11.13227,46.12374],[11.1341,46.12341],[11.13491,46.12421],[11.13269,46.12502],[11.13106,46.12504],[11.13024,46.1265],[11.1292,46.12644],[11.12857,46.12749],[11.12948,46.12798],[11.12946,46.12898],[11.13016,46.13011],[11.13105,46.13059],[11.13178,46.12985],[11.13277,46.1302],[11.1353,46.12997],[11.13547,46.13179],[11.1362,46.13427],[11.13521,46.13404],[11.13498,46.1367],[11.13399,46.13748],[11.13343,46.13613],[11.13327,46.13439],[11.13209,46.13452],[11.1319,46.13296],[11.1311,46.13245],[11.1297,46.13259],[11.12936,46.13382],[11.12922,46.13579],[11.12813,46.13639],[11.12754,46.13586],[11.12774,46.13321],[11.12857,46.133],[11.12723,46.13169],[11.12712,46.13064],[11.12356,46.13077],[11.12239,46.13112],[11.12185,46.13038],[11.12023,46.12995],[11.11903,46.12884],[11.11669,46.12933],[11.11558,46.12775],[11.11479,46.12603],[11.11231,46.12417],[11.11254,46.12377]]]},"properties":{"zona":"E5","linkzona":"TN00001086","fascia":"E","fascia_label":"Suburbana","descr":"MEANO,GAZZADINA,VIGO MEANO,CORTESANO","semestre":"2025-S2","loc_min":4.5,"loc_max":5.0,"loc_mid":4.75,"sale_min":2000.0,"sale_max":2650.0,"sup":"L","tipologia":"Abitazioni civili","stato":"NORMALE","ott_min":5.5,"ott_max":6.0}},{"type":"Feature","geometry":{"type":"Polygon","coordinates":[[[11.04146,46.08178],[11.03959,46.08104],[11.04079,46.07988],[11.04332,46.08068],[11.04419,46.08005],[11.04439,46.07799],[11.04521,46.07752],[11.04409,46.07687],[11.0429,46.07723],[11.04123,46.07654],[11.04198,46.07612],[11.04382,46.07598],[11.04643,46.0768],[11.04708,46.07788],[11.04868,46.07744],[11.05059,46.07863],[11.04729,46.07957],[11.04605,46.07936],[11.04477,46.08011],[11.04539,46.0813],[11.047,46.08161],[11.04681,46.08295],[11.04615,46.08333],[11.04247,46.08124],[11.04146,46.08178]]]},"properties":{"zona":"E4","linkzona":"TN00001085","fascia":"E","fascia_label":"Suburbana","descr":"BASELGA DEL BONDONE,VIGOLO BASELGA","semestre":"2025-S2","loc_min":4.0,"loc_max":4.5,"loc_mid":4.25,"sale_min":1700.0,"sale_max":2000.0,"sup":"L","tipologia":"Abitazioni civili","stato":"NORMALE","ott_min":4.5,"ott_max":5.0}},{"type":"Feature","geometry":{"type":"Polygon","coordinates":[[[11.05407,46.07119],[11.05357,46.07125],[11.05225,46.07002],[11.05324,46.06945],[11.05432,46.0698],[11.05589,46.06951],[11.05595,46.06825],[11.05519,46.06714],[11.05754,46.06766],[11.05851,46.06605],[11.05992,46.06538],[11.06147,46.0666],[11.06365,46.06704],[11.06398,46.06881],[11.06359,46.06926],[11.06465,46.07039],[11.06571,46.07197],[11.0637,46.07344],[11.06427,46.07413],[11.06234,46.07449],[11.06221,46.07505],[11.06318,46.0781],[11.06168,46.07855],[11.05822,46.07898],[11.05711,46.07962],[11.05854,46.08168],[11.06152,46.08378],[11.06299,46.08392],[11.06358,46.08317],[11.06233,46.08233],[11.06537,46.08174],[11.06632,46.08197],[11.06463,46.08412],[11.06282,46.085],[11.06442,46.0856],[11.06577,46.08643],[11.06737,46.08792],[11.07036,46.0877],[11.07191,46.08791],[11.07222,46.0899],[11.0717,46.09057],[11.07005,46.09041],[11.06847,46.09188],[11.06734,46.09164],[11.06435,46.08975],[11.06293,46.08963],[11.06146,46.08854],[11.06078,46.08683],[11.05962,46.08609],[11.05882,46.08364],[11.0589,46.0831],[11.05776,46.08253],[11.05636,46.08066],[11.05578,46.07953],[11.0563,46.07826],[11.05566,46.07772],[11.05497,46.07613],[11.0557,46.07514],[11.05644,46.07283],[11.05589,46.07174],[11.05407,46.07119]]]},"properties":{"zona":"E3","linkzona":"TN00001084","fascia":"E","fascia_label":"Suburbana","descr":"CADINE,SOPRAMONTE","semestre":"2025-S2","loc_min":5.5,"loc_max":6.0,"loc_mid":5.75,"sale_min":1800.0,"sale_max":2200.0,"sup":"L","tipologia":"Abitazioni civili","stato":"NORMALE","ott_min":6.0,"ott_max":6.5}},{"type":"Feature","geometry":{"type":"Polygon","coordinates":[[[11.10323,46.0183],[11.10349,46.01766],[11.10294,46.01624],[11.10379,46.01617],[11.10491,46.01456],[11.10635,46.01398],[11.10853,46.01711],[11.10847,46.01808],[11.1077,46.01832],[11.10848,46.01968],[11.11068,46.02097],[11.10869,46.02096],[11.10698,46.01998],[11.10618,46.02051],[11.10418,46.01935],[11.10323,46.0183]]]},"properties":{"zona":"E2","linkzona":"TN00001060","fascia":"E","fascia_label":"Suburbana","descr":"ROMAGNANO","semestre":"2025-S2","loc_min":5.0,"loc_max":6.2,"loc_mid":5.6,"sale_min":1800.0,"sale_max":2100.0,"sup":"L","tipologia":"Abitazioni civili","stato":"NORMALE","ott_min":6.5,"ott_max":7.2}},{"type":"Feature","geometry":{"type":"Polygon","coordinates":[[[11.12351,46.06388],[11.12322,46.06512],[11.12565,46.06569],[11.12793,46.06981],[11.12775,46.07151],[11.12717,46.0731],[11.12508,46.07456],[11.12475,46.07219],[11.12424,46.07142],[11.12154,46.07031],[11.11814,46.06992],[11.1185,46.06939],[11.11962,46.06387],[11.1195,46.06362],[11.12351,46.06388]]]},"properties":{"zona":"B1","linkzona":"TN00001053","fascia":"B","fascia_label":"Centrale","descr":"CENTRO STORICO","semestre":"2025-S2","loc_min":6.9,"loc_max":10.1,"loc_mid":8.5,"sale_min":3000.0,"sale_max":3500.0,"sup":"L","tipologia":"Abitazioni civili","stato":"NORMALE","ott_min":7.7,"ott_max":10.2}},{"type":"Feature","geometry":{"type":"Polygon","coordinates":[[[11.11167,46.05329],[11.1119,46.05679],[11.11252,46.05684],[11.11669,46.05733],[11.11588,46.06331],[11.11585,46.06361],[11.1126,46.06348],[11.11224,46.06166],[11.11203,46.05877],[11.1119,46.05679],[11.11167,46.05329]]]},"properties":{"zona":"B10","linkzona":"TN00002558","fascia":"B","fascia_label":"Centrale","descr":"EX AREA MICHELIN - LE ALBERE","semestre":"2025-S2","loc_min":null,"loc_max":null,"loc_mid":null,"sale_min":3200.0,"sale_max":3700.0}},{"type":"Feature","geometry":{"type":"Polygon","coordinates":[[[11.1126,46.06348],[11.11585,46.06361],[11.11588,46.06331],[11.1195,46.06362],[11.11962,46.06387],[11.1185,46.06939],[11.11814,46.06992],[11.12154,46.07031],[11.12424,46.07142],[11.12475,46.07219],[11.12508,46.07456],[11.12502,46.07744],[11.12423,46.07856],[11.12419,46.0795],[11.12381,46.08038],[11.1224,46.08199],[11.12005,46.0813],[11.12187,46.07863],[11.12196,46.0777],[11.12131,46.0756],[11.12056,46.07479],[11.11806,46.07136],[11.11749,46.07017],[11.11571,46.06988],[11.11334,46.06537],[11.1126,46.06348]]]},"properties":{"zona":"B2","linkzona":"TN00001054","fascia":"B","fascia_label":"Centrale","descr":"VIA PIETRASTRETTA, VIA MALVASIA, VIA MANZONI, TORRE VERDE, TORRE VANGA, VI...","semestre":"2025-S2","loc_min":6.7,"loc_max":9.3,"loc_mid":8.0,"sale_min":2300.0,"sale_max":3100.0,"sup":"L","tipologia":"Abitazioni civili","stato":"NORMALE","ott_min":7.3,"ott_max":9.5}},{"type":"Feature","geometry":{"type":"Polygon","coordinates":[[[11.11263,46.08346],[11.11341,46.08217],[11.11308,46.08036],[11.11487,46.07882],[11.11649,46.07624],[11.11692,46.0745],[11.1169,46.07304],[11.11635,46.07113],[11.11571,46.06988],[11.11749,46.07017],[11.11806,46.07136],[11.12056,46.07479],[11.12131,46.0756],[11.12196,46.0777],[11.12187,46.07863],[11.12005,46.0813],[11.11695,46.08494],[11.11472,46.08412],[11.11451,46.08349],[11.11263,46.08346]]]},"properties":{"zona":"B3","linkzona":"TN00001326","fascia":"B","fascia_label":"Centrale","descr":"CRISTO RE,LUNG`ADIGE LEOPARDI, CORSO BUONARROTI","semestre":"2025-S2","loc_min":7.5,"loc_max":10.2,"loc_mid":8.85,"sale_min":2200.0,"sale_max":2800.0,"sup":"L","tipologia":"Abitazioni civili","stato":"NORMALE","ott_min":7.7,"ott_max":11.2}},{"type":"Feature","geometry":{"type":"Polygon","coordinates":[[[11.12423,46.07856],[11.12491,46.07853],[11.12757,46.07681],[11.12831,46.07586],[11.12998,46.076],[11.13042,46.07737],[11.12958,46.0796],[11.12972,46.08058],[11.12884,46.08238],[11.12718,46.08222],[11.12609,46.08155],[11.1251,46.08557],[11.12489,46.0853],[11.12516,46.082],[11.12477,46.08041],[11.12419,46.0795],[11.12423,46.07856]]]},"properties":{"zona":"B4","linkzona":"TN00001327","fascia":"B","fascia_label":"Centrale","descr":"MURALTA","semestre":"2025-S2","loc_min":7.5,"loc_max":9.8,"loc_mid":8.65,"sale_min":2200.0,"sale_max":2600.0,"sup":"L","tipologia":"Abitazioni civili","stato":"NORMALE","ott_min":7.8,"ott_max":10.5}},{"type":"Feature","geometry":{"type":"Polygon","coordinates":[[[11.12793,46.06981],[11.12855,46.06962],[11.12931,46.06826],[11.13116,46.06786],[11.13254,46.06908],[11.13359,46.07062],[11.13575,46.07134],[11.1364,46.07255],[11.13682,46.07472],[11.135,46.07559],[11.13256,46.07694],[11.13042,46.07737],[11.12998,46.076],[11.12831,46.07586],[11.12757,46.07681],[11.12491,46.07853],[11.12423,46.07856],[11.12502,46.07744],[11.12508,46.07456],[11.12717,46.0731],[11.12775,46.07151],[11.12793,46.06981]]]},"properties":{"zona":"B5","linkzona":"TN00002553","fascia":"B","fascia_label":"Centrale","descr":"LASTE, PIETRASTRETTA, PORT`AQUILA","semestre":"2025-S2","loc_min":null,"loc_max":null,"loc_mid":null,"sale_min":2500.0,"sale_max":2900.0}},{"type":"Feature","geometry":{"type":"Polygon","coordinates":[[[11.1419,46.07137],[11.14014,46.07263],[11.13983,46.07323],[11.13682,46.07472],[11.1364,46.07255],[11.13575,46.07134],[11.13359,46.07062],[11.13254,46.06908],[11.13116,46.06786],[11.12931,46.06826],[11.13063,46.06704],[11.13381,46.06585],[11.13569,46.06606],[11.13668,46.06682],[11.13719,46.06587],[11.13644,46.06483],[11.1373,46.06364],[11.13792,46.06438],[11.14009,46.06423],[11.14111,46.06508],[11.1406,46.06533],[11.14035,46.06694],[11.13901,46.06757],[11.14052,46.06867],[11.13985,46.07012],[11.14143,46.07036],[11.1419,46.07137]]]},"properties":{"zona":"B6","linkzona":"TN00002554","fascia":"B","fascia_label":"Centrale","descr":"VIA GIARDINI,VIA VENEZIA,VIA CAVE,VIA DELLA BUSA, SAN DONA`, MESIANO","semestre":"2025-S2","loc_min":null,"loc_max":null,"loc_mid":null,"sale_min":2400.0,"sale_max":2700.0}},{"type":"Feature","geometry":{"type":"Polygon","coordinates":[[[11.12351,46.06388],[11.1241,46.06178],[11.12711,46.05878],[11.13595,46.06483],[11.13719,46.06587],[11.13668,46.06682],[11.13569,46.06606],[11.13381,46.06585],[11.13063,46.06704],[11.12931,46.06826],[11.12855,46.06962],[11.12793,46.06981],[11.12565,46.06569],[11.12322,46.06512],[11.12351,46.06388]]]},"properties":{"zona":"B7","linkzona":"TN00002555","fascia":"B","fascia_label":"Centrale","descr":"VIA S.FRANCESCO D`ASSISI,CORSO 3 NOVEMBRE,VIALE ROVERETO,VIALE TRIESTE,VIA...","semestre":"2025-S2","loc_min":null,"loc_max":null,"loc_mid":null,"sale_min":2500.0,"sale_max":3300.0}},{"type":"Feature","geometry":{"type":"Polygon","coordinates":[[[11.12911,46.05531],[11.13041,46.05478],[11.13355,46.05478],[11.13499,46.05448],[11.13556,46.05299],[11.1368,46.05536],[11.13894,46.05709],[11.13985,46.05708],[11.14087,46.05759],[11.14245,46.05769],[11.14291,46.05906],[11.14272,46.0597],[11.14147,46.0606],[11.14235,46.06215],[11.1433,46.0628],[11.14455,46.06294],[11.14444,46.0645],[11.14111,46.06508],[11.14009,46.06423],[11.13792,46.06438],[11.1373,46.06364],[11.13644,46.06483],[11.13719,46.06587],[11.13595,46.06483],[11.12711,46.05878],[11.12757,46.05835],[11.12911,46.05531]]]},"properties":{"zona":"B8","linkzona":"TN00002556","fascia":"B","fascia_label":"Centrale","descr":"BOLGHERA","semestre":"2025-S2","loc_min":8.5,"loc_max":11.0,"loc_mid":9.75,"sale_min":2600.0,"sale_max":3400.0,"sup":"L","tipologia":"Abitazioni civili","stato":"NORMALE","ott_min":10.5,"ott_max":13.0}},{"type":"Feature","geometry":{"type":"Polygon","coordinates":[[[11.11669,46.05733],[11.11718,46.05438],[11.11819,46.05238],[11.12017,46.05046],[11.12123,46.05235],[11.12337,46.05498],[11.12727,46.05569],[11.12911,46.05531],[11.12757,46.05835],[11.12711,46.05878],[11.1241,46.06178],[11.12351,46.06388],[11.1195,46.06362],[11.11588,46.06331],[11.11669,46.05733]]]},"properties":{"zona":"B9","linkzona":"TN00002557","fascia":"B","fascia_label":"Centrale","descr":"CIMITERO, SAN GIUSEPPE, S. PIO X, GHIAIE","semestre":"2025-S2","loc_min":null,"loc_max":null,"loc_mid":null,"sale_min":2400.0,"sale_max":2850.0}},{"type":"Feature","geometry":{"type":"Polygon","coordinates":[[[11.10222,46.07529],[11.10165,46.07493],[11.10338,46.0731],[11.10708,46.07203],[11.10854,46.07107],[11.10833,46.06996],[11.10886,46.06933],[11.11058,46.0684],[11.11048,46.06594],[11.10946,46.06555],[11.10989,46.06323],[11.11103,46.063],[11.11161,46.06482],[11.11424,46.07011],[11.1151,46.07131],[11.1157,46.07314],[11.11571,46.07476],[11.1143,46.07764],[11.11282,46.07912],[11.10827,46.08161],[11.10205,46.0845],[11.10115,46.08425],[11.09873,46.08481],[11.09865,46.08365],[11.10074,46.08238],[11.10017,46.08107],[11.09802,46.08147],[11.09802,46.08055],[11.09894,46.07953],[11.09929,46.07813],[11.10023,46.07649],[11.10222,46.07529]]]},"properties":{"zona":"C1","linkzona":"TN00001057","fascia":"C","fascia_label":"Semicentrale","descr":"PIEDICASTELLO,VELA","semestre":"2025-S2","loc_min":6.5,"loc_max":7.5,"loc_mid":7.0,"sale_min":1950.0,"sale_max":2550.0,"sup":"L","tipologia":"Abitazioni civili","stato":"NORMALE","ott_min":8.0,"ott_max":9.0}},{"type":"Feature","geometry":{"type":"Polygon","coordinates":[[[11.13666,46.03906],[11.13613,46.03944],[11.13495,46.03879],[11.13391,46.03755],[11.13306,46.03748],[11.13193,46.04028],[11.12911,46.04111],[11.12811,46.04078],[11.12806,46.03453],[11.12803,46.03121],[11.12818,46.02928],[11.13053,46.02951],[11.13282,46.02947],[11.13296,46.02776],[11.13386,46.02767],[11.13513,46.0254],[11.13578,46.02558],[11.13658,46.02727],[11.13742,46.02775],[11.13659,46.02978],[11.1372,46.0303],[11.13743,46.03155],[11.13497,46.03194],[11.13469,46.03252],[11.13537,46.03409],[11.13547,46.03554],[11.13617,46.03651],[11.13582,46.03819],[11.13666,46.03906]]]},"properties":{"zona":"C10","linkzona":"TN00002564","fascia":"C","fascia_label":"Semicentrale","descr":"MAN","semestre":"2025-S2","loc_min":null,"loc_max":null,"loc_mid":null,"sale_min":2200.0,"sale_max":2600.0}},{"type":"Feature","geometry":{"type":"Polygon","coordinates":[[[11.12911,46.05531],[11.12727,46.05569],[11.12337,46.05498],[11.12123,46.05235],[11.12017,46.05046],[11.1188,46.04691],[11.11843,46.04475],[11.12168,46.04483],[11.12535,46.04525],[11.12493,46.04619],[11.12529,46.04676],[11.12692,46.04704],[11.13097,46.05003],[11.13396,46.05021],[11.13574,46.05005],[11.13608,46.05277],[11.13556,46.05299],[11.13499,46.05448],[11.13355,46.05478],[11.13041,46.05478],[11.12911,46.05531]]]},"properties":{"zona":"C11","linkzona":"TN00002565","fascia":"C","fascia_label":"Semicentrale","descr":"SAN BARTOLOMEO, CLARINA","semestre":"2025-S2","loc_min":9.0,"loc_max":11.5,"loc_mid":10.25,"sale_min":2450.0,"sale_max":3000.0,"sup":"L","tipologia":"Abitazioni civili","stato":"NORMALE","ott_min":11.5,"ott_max":12.0}},{"type":"Feature","geometry":{"type":"Polygon","coordinates":[[[11.12806,46.03453],[11.12811,46.04078],[11.12802,46.04248],[11.12685,46.04501],[11.12529,46.04676],[11.12493,46.04619],[11.12535,46.04525],[11.12168,46.04483],[11.11843,46.04475],[11.1188,46.04691],[11.12017,46.05046],[11.11819,46.05238],[11.11718,46.05438],[11.11669,46.05733],[11.11252,46.05684],[11.1119,46.05679],[11.11167,46.05329],[11.11141,46.05115],[11.11161,46.04999],[11.11296,46.04808],[11.11418,46.04677],[11.11826,46.04314],[11.12009,46.04186],[11.12363,46.03861],[11.12478,46.03698],[11.12568,46.03512],[11.12806,46.03453]]]},"properties":{"zona":"C12","linkzona":"TN00002566","fascia":"C","fascia_label":"Semicentrale","descr":"MAS DESERT","semestre":"2025-S2","loc_min":null,"loc_max":null,"loc_mid":null,"sale_min":1800.0,"sale_max":2200.0}},{"type":"Feature","geometry":{"type":"Polygon","coordinates":[[[11.13958,46.04771],[11.13966,46.04622],[11.13938,46.04363],[11.14063,46.04245],[11.14031,46.04162],[11.14124,46.04034],[11.14079,46.03953],[11.14109,46.03859],[11.1424,46.03839],[11.14296,46.03784],[11.14402,46.03799],[11.14468,46.03705],[11.14302,46.03694],[11.14412,46.0339],[11.14614,46.03396],[11.14762,46.03438],[11.14887,46.03704],[11.14891,46.03846],[11.14782,46.03895],[11.1481,46.04011],[11.15051,46.0413],[11.15076,46.04209],[11.15233,46.04284],[11.15162,46.04392],[11.15184,46.045],[11.15321,46.04533],[11.1532,46.04601],[11.15161,46.04699],[11.151,46.04788],[11.15105,46.049],[11.15156,46.05014],[11.15135,46.05115],[11.15067,46.05205],[11.15153,46.05329],[11.15057,46.05356],[11.14986,46.05245],[11.14818,46.05254],[11.14473,46.0523],[11.14361,46.05194],[11.14269,46.05065],[11.14287,46.04985],[11.14375,46.04916],[11.14319,46.048],[11.14118,46.04839],[11.14041,46.04754],[11.13958,46.04771]]]},"properties":{"zona":"C13","linkzona":"TN00002715","fascia":"C","fascia_label":"Semicentrale","descr":"VILLAZZANO","semestre":"2025-S2","loc_min":null,"loc_max":null,"loc_mid":null,"sale_min":2000.0,"sale_max":2500.0}},{"type":"Feature","geometry":{"type":"Polygon","coordinates":[[[11.11246,46.04287],[11.1118,46.0422],[11.10733,46.04221],[11.10594,46.04204],[11.10545,46.04517],[11.10461,46.04562],[11.10517,46.0429],[11.10489,46.04177],[11.10546,46.03939],[11.10384,46.03885],[11.10391,46.03808],[11.10288,46.03738],[11.10533,46.0372],[11.10739,46.03611],[11.10782,46.03499],[11.10858,46.03452],[11.11008,46.03453],[11.11146,46.0342],[11.11047,46.03632],[11.11283,46.03579],[11.11287,46.03759],[11.11271,46.03884],[11.11362,46.03905],[11.11246,46.04287]]]},"properties":{"zona":"C14","linkzona":"TN00002716","fascia":"C","fascia_label":"Semicentrale","descr":"RAVINA","semestre":"2025-S2","loc_min":6.0,"loc_max":7.0,"loc_mid":6.5,"sale_min":2000.0,"sale_max":2500.0,"sup":"L","tipologia":"Abitazioni civili","stato":"NORMALE","ott_min":7.0,"ott_max":8.0}},{"type":"Feature","geometry":{"type":"Polygon","coordinates":[[[11.09337,46.09998],[11.09358,46.09966],[11.09907,46.09383],[11.1024,46.09265],[11.10355,46.09358],[11.10714,46.09485],[11.10861,46.09519],[11.1013,46.10398],[11.09633,46.1019],[11.09402,46.10115],[11.09337,46.09998]]]},"properties":{"zona":"C2","linkzona":"TN00001058","fascia":"C","fascia_label":"Semicentrale","descr":"RONCAFORT","semestre":"2025-S2","loc_min":7.0,"loc_max":8.0,"loc_mid":7.5,"sale_min":2000.0,"sale_max":2300.0,"sup":"L","tipologia":"Abitazioni civili","stato":"NORMALE","ott_min":8.0,"ott_max":9.0}},{"type":"Feature","geometry":{"type":"Polygon","coordinates":[[[11.1013,46.10398],[11.10861,46.09519],[11.11587,46.09652],[11.11736,46.09652],[11.12026,46.09577],[11.12157,46.09466],[11.1213,46.09523],[11.12166,46.09715],[11.12154,46.09905],[11.11937,46.10111],[11.11916,46.10267],[11.11819,46.10357],[11.11798,46.10433],[11.117,46.10548],[11.11576,46.10757],[11.11619,46.109],[11.1135,46.10904],[11.11188,46.10973],[11.1113,46.11129],[11.10975,46.1125],[11.10752,46.11215],[11.10855,46.10909],[11.1087,46.10802],[11.10533,46.10764],[11.10438,46.10722],[11.10422,46.10364],[11.10224,46.10367],[11.1013,46.10398]]]},"properties":{"zona":"C3","linkzona":"TN00001328","fascia":"C","fascia_label":"Semicentrale","descr":"MELTA,GARDOLO,CANOVA,","semestre":"2025-S2","loc_min":10.3,"loc_max":11.2,"loc_mid":10.75,"sale_min":2150.0,"sale_max":2650.0,"sup":"L","tipologia":"Abitazioni civili","stato":"NORMALE","ott_min":11.0,"ott_max":11.5}},{"type":"Feature","geometry":{"type":"Polygon","coordinates":[[[11.12419,46.0795],[11.12477,46.08041],[11.12516,46.082],[11.12489,46.0853],[11.1251,46.08557],[11.1251,46.08699],[11.12249,46.09132],[11.12157,46.09466],[11.12026,46.09577],[11.11736,46.09652],[11.11587,46.09652],[11.10861,46.09519],[11.11695,46.08494],[11.12005,46.0813],[11.1224,46.08199],[11.12381,46.08038],[11.12419,46.0795]]]},"properties":{"zona":"C4","linkzona":"TN00001329","fascia":"C","fascia_label":"Semicentrale","descr":"SOLTERI,CENTOCHIAVI,PIAZZINA","semestre":"2025-S2","loc_min":6.5,"loc_max":7.0,"loc_mid":6.75,"sale_min":2000.0,"sale_max":2600.0,"sup":"L","tipologia":"Abitazioni civili","stato":"NORMALE","ott_min":7.0,"ott_max":9.0}},{"type":"Feature","geometry":{"type":"Polygon","coordinates":[[[11.1251,46.08699],[11.1251,46.08557],[11.12609,46.08155],[11.12718,46.08222],[11.12884,46.08238],[11.12972,46.08058],[11.12958,46.0796],[11.13042,46.07737],[11.13256,46.07694],[11.135,46.07559],[11.13614,46.07683],[11.13563,46.07864],[11.13613,46.07908],[11.13543,46.08011],[11.13176,46.0818],[11.13099,46.08256],[11.13135,46.08425],[11.13213,46.08511],[11.13156,46.08665],[11.13371,46.08808],[11.13422,46.08933],[11.13374,46.08988],[11.1337,46.09169],[11.13319,46.09275],[11.13129,46.09476],[11.12994,46.09546],[11.1286,46.09573],[11.12835,46.09429],[11.12934,46.09283],[11.12776,46.09106],[11.12909,46.08927],[11.12903,46.08796],[11.12748,46.08789],[11.12741,46.08908],[11.1257,46.08917],[11.12606,46.08792],[11.1251,46.08699]]]},"properties":{"zona":"C5","linkzona":"TN00002559","fascia":"C","fascia_label":"Semicentrale","descr":"MARTIGNANO","semestre":"2025-S2","loc_min":null,"loc_max":null,"loc_mid":null,"sale_min":2200.0,"sale_max":2600.0}},{"type":"Feature","geometry":{"type":"Polygon","coordinates":[[[11.135,46.07559],[11.13682,46.07472],[11.13983,46.07323],[11.14014,46.07263],[11.1419,46.07137],[11.14411,46.07145],[11.14641,46.0719],[11.14734,46.07321],[11.14861,46.07184],[11.14994,46.07251],[11.15103,46.0737],[11.14954,46.07475],[11.15058,46.07615],[11.15084,46.07712],[11.14883,46.07648],[11.14699,46.07669],[11.14555,46.07637],[11.14432,46.07747],[11.14398,46.07835],[11.14421,46.07949],[11.14533,46.08061],[11.14485,46.08209],[11.1428,46.08204],[11.14224,46.08121],[11.14119,46.08127],[11.13993,46.08241],[11.13894,46.08198],[11.13858,46.08389],[11.13547,46.08402],[11.13512,46.08356],[11.13653,46.08269],[11.13774,46.08069],[11.13613,46.07908],[11.13563,46.07864],[11.13614,46.07683],[11.135,46.07559]]]},"properties":{"zona":"C6","linkzona":"TN00002560","fascia":"C","fascia_label":"Semicentrale","descr":"COGNOLA,ZELL,SAN VITO.","semestre":"2025-S2","loc_min":null,"loc_max":null,"loc_mid":null,"sale_min":2000.0,"sale_max":2300.0}},{"type":"Feature","geometry":{"type":"Polygon","coordinates":[[[11.14803,46.06754],[11.14754,46.0663],[11.14836,46.06524],[11.14841,46.06386],[11.15015,46.0637],[11.15023,46.06231],[11.14918,46.06226],[11.14881,46.0609],[11.1511,46.06089],[11.15162,46.05893],[11.15145,46.05786],[11.15305,46.05776],[11.1544,46.06095],[11.15541,46.06151],[11.15766,46.06162],[11.15774,46.06278],[11.15917,46.06328],[11.15956,46.06381],[11.15993,46.06636],[11.16111,46.06676],[11.16308,46.06635],[11.16407,46.06678],[11.16491,46.06582],[11.16706,46.06569],[11.16809,46.06605],[11.1682,46.06669],[11.16929,46.06712],[11.17074,46.06714],[11.17066,46.06792],[11.16573,46.06803],[11.16417,46.06896],[11.1642,46.07096],[11.16375,46.07243],[11.16451,46.07447],[11.16429,46.07508],[11.16288,46.07528],[11.16168,46.07383],[11.15995,46.07388],[11.1597,46.07334],[11.16171,46.07313],[11.16201,46.07128],[11.16245,46.0706],[11.16192,46.06973],[11.16061,46.07007],[11.16015,46.06949],[11.1583,46.06878],[11.15834,46.0675],[11.15589,46.06839],[11.15343,46.06844],[11.15337,46.06983],[11.15295,46.07095],[11.15415,46.07174],[11.15327,46.07219],[11.15149,46.07109],[11.15048,46.07011],[11.1507,46.06875],[11.14907,46.06869],[11.14803,46.06824],[11.14803,46.06754]]]},"properties":{"zona":"C7","linkzona":"TN00002561","fascia":"C","fascia_label":"Semicentrale","descr":"POVO","semestre":"2025-S2","loc_min":8.5,"loc_max":10.7,"loc_mid":9.6,"sale_min":2300.0,"sale_max":2700.0,"sup":"L","tipologia":"Abitazioni civili","stato":"NORMALE","ott_min":9.8,"ott_max":11.0}},{"type":"Feature","geometry":{"type":"Polygon","coordinates":[[[11.13985,46.05708],[11.13894,46.05709],[11.1368,46.05536],[11.13556,46.05299],[11.13608,46.05277],[11.13574,46.05005],[11.13758,46.04778],[11.13814,46.04622],[11.13809,46.04395],[11.13678,46.04399],[11.13501,46.04509],[11.13431,46.04347],[11.13527,46.04255],[11.13808,46.04256],[11.13882,46.04307],[11.14031,46.04162],[11.14063,46.04245],[11.13938,46.04363],[11.13966,46.04622],[11.13958,46.04771],[11.13977,46.04953],[11.13946,46.04988],[11.13995,46.05136],[11.14187,46.05313],[11.14069,46.05425],[11.1411,46.05571],[11.13975,46.05615],[11.13985,46.05708]]]},"properties":{"zona":"C8","linkzona":"TN00002562","fascia":"C","fascia_label":"Semicentrale","descr":"CERNIDOR, MAN S.ANTONIO","semestre":"2025-S2","loc_min":null,"loc_max":null,"loc_mid":null,"sale_min":2300.0,"sale_max":2800.0}},{"type":"Feature","geometry":{"type":"Polygon","coordinates":[[[11.14079,46.03953],[11.14124,46.04034],[11.14031,46.04162],[11.13882,46.04307],[11.13808,46.04256],[11.13527,46.04255],[11.13431,46.04347],[11.13501,46.04509],[11.13678,46.04399],[11.13809,46.04395],[11.13814,46.04622],[11.13758,46.04778],[11.13574,46.05005],[11.13396,46.05021],[11.13097,46.05003],[11.12692,46.04704],[11.12529,46.04676],[11.12685,46.04501],[11.12802,46.04248],[11.12811,46.04078],[11.12911,46.04111],[11.13193,46.04028],[11.13306,46.03748],[11.13391,46.03755],[11.13495,46.03879],[11.13613,46.03944],[11.13666,46.03906],[11.13739,46.03866],[11.13997,46.03867],[11.14079,46.03953]]]},"properties":{"zona":"C9","linkzona":"TN00002563","fascia":"C","fascia_label":"Semicentrale","descr":"MADONNA BIANCA","semestre":"2025-S2","loc_min":null,"loc_max":null,"loc_mid":null,"sale_min":1900.0,"sale_max":2100.0}}]}