{"type":"FeatureCollection","features":[{"type":"Feature","geometry":{"type":"Polygon","coordinates":[[[12.42554,45.4957],[12.4267,45.49663],[12.42772,45.49772],[12.42669,45.49809],[12.42463,45.49835],[12.4238,45.49862],[12.4233,45.49899],[12.4242,45.49961],[12.42497,45.4999],[12.4262,45.5001],[12.42689,45.50066],[12.42606,45.5011],[12.42321,45.5002],[12.42247,45.49979],[12.41934,45.50002],[12.41657,45.50076],[12.41689,45.50175],[12.41564,45.50169],[12.41508,45.50143],[12.41493,45.50069],[12.41424,45.49916],[12.41366,45.49856],[12.41281,45.49848],[12.41209,45.49874],[12.41075,45.49845],[12.40952,45.49848],[12.41103,45.49664],[12.4125,45.49508],[12.41126,45.49479],[12.41082,45.49454],[12.40126,45.49077],[12.40107,45.48971],[12.40064,45.48969],[12.40009,45.48838],[12.39994,45.48766],[12.4014,45.48708],[12.40297,45.48614],[12.40281,45.4858],[12.4032,45.48414],[12.40445,45.48409],[12.40516,45.48335],[12.40641,45.48383],[12.40878,45.48523],[12.41405,45.48819],[12.41266,45.48938],[12.41416,45.49034],[12.41386,45.49289],[12.41396,45.49306],[12.41551,45.49415],[12.41632,45.49362],[12.41942,45.4937],[12.42098,45.49415],[12.42232,45.49422],[12.42333,45.49447],[12.42434,45.49491],[12.42554,45.4957]]]},"properties":{"zona":"R1","linkzona":"VE00001345","fascia":"R","fascia_label":"Extraurbana","descr":"MAZZORBO E TORCELLO","semestre":"2025-S2","loc_min":null,"loc_max":null,"loc_mid":null,"sale_min":1500.0,"sale_max":2300.0}},{"type":"Feature","geometry":{"type":"Polygon","coordinates":[[[12.22574,45.45727],[12.22477,45.45962],[12.22396,45.45978],[12.22218,45.45953],[12.2215,45.45924],[12.21882,45.45855],[12.21842,45.45779],[12.21774,45.45728],[12.21702,45.45707],[12.21376,45.45668],[12.2115,45.4564],[12.21134,45.45432],[12.21084,45.4515],[12.21044,45.451],[12.21066,45.45029],[12.21028,45.44907],[12.20935,45.44807],[12.20921,45.44689],[12.20872,45.44576],[12.20899,45.44535],[12.21015,45.44479],[12.20908,45.44282],[12.20823,45.44165],[12.2072,45.44074],[12.2064,45.43981],[12.20467,45.43652],[12.20481,45.43612],[12.20537,45.4361],[12.20736,45.4355],[12.20826,45.43459],[12.20875,45.43437],[12.20962,45.43453],[12.21035,45.43505],[12.21092,45.435],[12.2128,45.43415],[12.2135,45.4329],[12.21416,45.43239],[12.2169,45.43077],[12.21764,45.43046],[12.21987,45.42977],[12.22163,45.42859],[12.22128,45.42795],[12.22168,45.4274],[12.22305,45.42759],[12.22449,45.42745],[12.22559,45.42759],[12.22763,45.42824],[12.22838,45.42821],[12.22901,45.42763],[12.22975,45.42746],[12.23054,45.42794],[12.23139,45.42791],[12.23233,45.42726],[12.23351,45.42725],[12.23452,45.42767],[12.23565,45.42773],[12.23671,45.42752],[12.23745,45.42719],[12.23827,45.42706],[12.23878,45.42743],[12.23987,45.42747],[12.24204,45.42696],[12.24252,45.42627],[12.24301,45.42597],[12.24428,45.42597],[12.24499,45.42576],[12.24523,45.42534],[12.24525,45.42433],[12.24578,45.42397],[12.24741,45.42369],[12.2482,45.42267],[12.24897,45.42203],[12.25094,45.42096],[12.25219,45.42083],[12.25296,45.42044],[12.2533,45.41975],[12.25496,45.41943],[12.2557,45.41876],[12.25728,45.41845],[12.25781,45.41808],[12.261,45.41694],[12.26187,45.4183],[12.26267,45.42046],[12.26864,45.43577],[12.27135,45.44285],[12.27225,45.4454],[12.26096,45.4459],[12.2582,45.446],[12.25759,45.44726],[12.25635,45.44765],[12.25424,45.44753],[12.25342,45.44784],[12.25163,45.44794],[12.25066,45.44705],[12.24963,45.44691],[12.24907,45.44722],[12.24859,45.44786],[12.24721,45.44807],[12.24656,45.44896],[12.24608,45.44924],[12.24513,45.44884],[12.24453,45.44945],[12.2435,45.44917],[12.24261,45.44976],[12.24187,45.44939],[12.24091,45.44976],[12.23921,45.44958],[12.23878,45.44968],[12.23827,45.45028],[12.23774,45.45017],[12.23742,45.44971],[12.23622,45.44978],[12.23507,45.45034],[12.23438,45.44951],[12.23292,45.44916],[12.23215,45.44912],[12.23172,45.44862],[12.23022,45.44835],[12.2289,45.45106],[12.22574,45.45727]]]},"properties":{"zona":"E29","linkzona":"VE00001365","fascia":"E","fascia_label":"Suburbana","descr":"MALCONTENTA ZONA INDUSTRIALE","semestre":"2025-S2","loc_min":null,"loc_max":null,"loc_mid":null,"nonres":true}},{"type":"Feature","geometry":{"type":"Polygon","coordinates":[[[12.36825,45.51943],[12.37191,45.52095],[12.37293,45.52094],[12.37217,45.52123],[12.36724,45.51929],[12.36447,45.51815],[12.36072,45.51679],[12.35991,45.51606],[12.35777,45.51373],[12.35654,45.51279],[12.35038,45.50894],[12.3492,45.50827],[12.34811,45.50742],[12.34514,45.50553],[12.34368,45.50469],[12.34274,45.504],[12.33906,45.50179],[12.33829,45.50128],[12.33513,45.49936],[12.33403,45.4988],[12.33326,45.49823],[12.33376,45.49766],[12.33348,45.49675],[12.33264,45.49604],[12.33221,45.49507],[12.3314,45.49462],[12.33081,45.49388],[12.32977,45.49215],[12.32933,45.4919],[12.32852,45.49086],[12.32844,45.49036],[12.33119,45.48878],[12.33162,45.48829],[12.33397,45.48601],[12.34369,45.48173],[12.35559,45.47651],[12.35871,45.47518],[12.35868,45.48206],[12.3586,45.49044],[12.35856,45.50071],[12.34928,45.50069],[12.36021,45.50932],[12.36345,45.51183],[12.36373,45.51196],[12.36829,45.51553],[12.36883,45.51703],[12.37055,45.51836],[12.36874,45.51953],[12.36825,45.51943]]]},"properties":{"zona":"R4","linkzona":"VE00001353","fascia":"R","fascia_label":"Extraurbana","descr":"AEROPORTO TESSERA","semestre":"2025-S2","loc_min":null,"loc_max":null,"loc_mid":null,"nonres":true}},{"type":"Feature","geometry":{"type":"Polygon","coordinates":[[[12.23747,45.48068],[12.23497,45.48131],[12.23443,45.48126],[12.23209,45.48181],[12.23144,45.48155],[12.22968,45.48201],[12.22949,45.48226],[12.22558,45.48323],[12.22502,45.48315],[12.22185,45.48362],[12.2205,45.48371],[12.21905,45.48333],[12.21828,45.48159],[12.21815,45.47997],[12.2177,45.47937],[12.21895,45.47915],[12.21837,45.47765],[12.21804,45.47715],[12.21857,45.47688],[12.21919,45.4758],[12.21948,45.47342],[12.22067,45.4735],[12.22165,45.47341],[12.22255,45.47315],[12.22319,45.47349],[12.22463,45.47307],[12.22552,45.47326],[12.22603,45.47255],[12.2264,45.47259],[12.22741,45.47498],[12.22789,45.47516],[12.23067,45.47442],[12.23011,45.47337],[12.23273,45.47272],[12.2343,45.47545],[12.23402,45.47592],[12.23475,45.47623],[12.23614,45.47863],[12.23746,45.48066],[12.23747,45.48068]]]},"properties":{"zona":"E8","linkzona":"VE00001339","fascia":"E","fascia_label":"Suburbana","descr":"MARGHERA CENTRO","semestre":"2025-S2","loc_min":5.0,"loc_max":7.5,"loc_mid":6.25,"sale_min":1000.0,"sale_max":1200.0,"sup":"L","tipologia":"Abitazioni civili","stato":"NORMALE","trend":0.0,"trend_from":"2023-S2"}},{"type":"Feature","geometry":{"type":"Polygon","coordinates":[[[12.33745,45.44302],[12.3391,45.44254],[12.33969,45.44365],[12.33662,45.44533],[12.33552,45.44639],[12.33494,45.44674],[12.33278,45.44756],[12.32961,45.44854],[12.3263,45.44938],[12.3246,45.44873],[12.32162,45.4479],[12.31901,45.44778],[12.31846,45.44701],[12.31758,45.44608],[12.31677,45.44564],[12.31639,45.44508],[12.31705,45.44463],[12.31611,45.44386],[12.31617,45.44363],[12.31547,45.44299],[12.31537,45.44263],[12.31738,45.44183],[12.31796,45.44144],[12.31692,45.44099],[12.3173,45.44073],[12.31865,45.43891],[12.31944,45.43867],[12.321,45.43933],[12.32209,45.44053],[12.32285,45.44101],[12.32205,45.44124],[12.32093,45.44207],[12.3198,45.4427],[12.32156,45.44324],[12.32203,45.44286],[12.32364,45.44408],[12.32485,45.44543],[12.32611,45.44567],[12.32671,45.44492],[12.32735,45.44519],[12.32761,45.4456],[12.32826,45.44566],[12.33089,45.445],[12.33212,45.44461],[12.33354,45.44382],[12.33414,45.4432],[12.33459,45.44311],[12.33523,45.44361],[12.33745,45.44302]]]},"properties":{"zona":"B19","linkzona":"VE00001329","fascia":"B","fascia_label":"Centrale","descr":"CANNAREGIO NORD","semestre":"2025-S2","loc_min":8.5,"loc_max":12.5,"loc_mid":10.5,"sale_min":3100.0,"sale_max":4200.0,"sup":"L","tipologia":"Abitazioni civili","stato":"NORMALE","ott_min":12.0,"ott_max":17.0,"trend":0.0,"trend_from":"2023-S2"}},{"type":"Feature","geometry":{"type":"Polygon","coordinates":[[[12.32188,45.43409],[12.32275,45.43443],[12.32327,45.43561],[12.32335,45.43624],[12.32271,45.43665],[12.32104,45.43715],[12.31994,45.43705],[12.32037,45.43561],[12.31729,45.43501],[12.3162,45.4347],[12.31625,45.43576],[12.31582,45.43575],[12.31474,45.4376],[12.3143,45.43794],[12.30925,45.43204],[12.3095,45.43193],[12.31175,45.43096],[12.3131,45.42887],[12.31474,45.42909],[12.31798,45.42882],[12.31987,45.42848],[12.32061,45.43086],[12.32063,45.43208],[12.32033,45.43212],[12.31949,45.43305],[12.3205,45.43365],[12.32188,45.43409]]]},"properties":{"zona":"B20","linkzona":"VE00001330","fascia":"B","fascia_label":"Centrale","descr":"DORSODURO OVEST","semestre":"2025-S2","loc_min":null,"loc_max":null,"loc_mid":null,"sale_min":3200.0,"sale_max":4000.0,"ott_min":10.0,"ott_max":16.0}},{"type":"Feature","geometry":{"type":"Polygon","coordinates":[[[12.35891,45.42697],[12.35894,45.42651],[12.35992,45.42581],[12.36147,45.42506],[12.36278,45.42472],[12.3642,45.42456],[12.36532,45.4246],[12.3663,45.42494],[12.3667,45.4255],[12.36619,45.42699],[12.36623,45.42775],[12.36725,45.42816],[12.36734,45.42841],[12.36663,45.42923],[12.36303,45.4328],[12.36168,45.43297],[12.36173,45.43287],[12.36173,45.4328],[12.35947,45.43213],[12.3596,45.43019],[12.36026,45.4296],[12.35992,45.42828],[12.3591,45.42766],[12.35891,45.42697]]]},"properties":{"zona":"B22","linkzona":"VE00001332","fascia":"B","fascia_label":"Centrale","descr":"SANT`ELENA","semestre":"2025-S2","loc_min":null,"loc_max":null,"loc_mid":null,"sale_min":3000.0,"sale_max":3700.0,"ott_min":10.0,"ott_max":17.0}},{"type":"Feature","geometry":{"type":"Polygon","coordinates":[[[12.31987,45.42848],[12.32138,45.42806],[12.3241,45.42704],[12.32929,45.42584],[12.33121,45.42562],[12.33379,45.42547],[12.33485,45.42579],[12.3359,45.42595],[12.33936,45.42723],[12.34167,45.42842],[12.33708,45.43106],[12.33561,45.43116],[12.33376,45.43112],[12.33184,45.43098],[12.33011,45.43114],[12.32883,45.43152],[12.32742,45.43246],[12.32701,45.43328],[12.3268,45.43473],[12.32754,45.43524],[12.32658,45.43587],[12.32472,45.43658],[12.32463,45.43673],[12.3241,45.4356],[12.32327,45.43561],[12.32275,45.43443],[12.32188,45.43409],[12.3205,45.43365],[12.31949,45.43305],[12.32033,45.43212],[12.32063,45.43208],[12.32061,45.43086],[12.31987,45.42848]]]},"properties":{"zona":"B23","linkzona":"VE00001333","fascia":"B","fascia_label":"Centrale","descr":"DORSODURO EST","semestre":"2025-S2","loc_min":null,"loc_max":null,"loc_mid":null,"sale_min":3300.0,"sale_max":4200.0,"ott_min":14.0,"ott_max":20.0}},{"type":"Feature","geometry":{"type":"Polygon","coordinates":[[[12.32837,45.43556],[12.32754,45.43524],[12.3268,45.43473],[12.32701,45.43328],[12.32742,45.43246],[12.32883,45.43152],[12.33011,45.43114],[12.33184,45.43098],[12.33376,45.43112],[12.33561,45.43116],[12.33708,45.43106],[12.33629,45.4321],[12.33783,45.43262],[12.34094,45.43351],[12.34111,45.43371],[12.34029,45.43587],[12.33978,45.43588],[12.33919,45.43647],[12.33872,45.43664],[12.33794,45.43655],[12.33748,45.43674],[12.33787,45.43779],[12.33792,45.43841],[12.33596,45.43866],[12.33558,45.43813],[12.33428,45.43739],[12.33237,45.43674],[12.32978,45.43613],[12.32837,45.43556]]]},"properties":{"zona":"B24","linkzona":"VE00001334","fascia":"B","fascia_label":"Centrale","descr":"SAN MARCO","semestre":"2025-S2","loc_min":11.0,"loc_max":16.0,"loc_mid":13.5,"sale_min":3900.0,"sale_max":5600.0,"sup":"L","tipologia":"Abitazioni civili","stato":"NORMALE","ott_min":16.0,"ott_max":23.0,"trend":0.0,"trend_from":"2023-S2"}},{"type":"Feature","geometry":{"type":"Polygon","coordinates":[[[12.35893,45.40195],[12.3576,45.40015],[12.35931,45.39952],[12.36068,45.39916],[12.36147,45.39995],[12.36333,45.39917],[12.36413,45.40005],[12.36457,45.40028],[12.3663,45.40241],[12.36726,45.40324],[12.3689,45.40492],[12.36972,45.40551],[12.37034,45.40634],[12.37157,45.40757],[12.37277,45.40846],[12.37327,45.40914],[12.37471,45.41049],[12.37582,45.4114],[12.37646,45.41209],[12.37665,45.41262],[12.37778,45.41365],[12.38201,45.4171],[12.38307,45.41792],[12.38923,45.42246],[12.39173,45.42412],[12.39337,45.42478],[12.39385,45.42533],[12.39864,45.42828],[12.40025,45.42917],[12.40117,45.42957],[12.4044,45.42919],[12.40762,45.42867],[12.40876,45.42841],[12.41097,45.42776],[12.4125,45.42723],[12.41843,45.4298],[12.40736,45.43789],[12.39203,45.43695],[12.392,45.43686],[12.38226,45.43627],[12.38232,45.43621],[12.38285,45.43532],[12.38222,45.43483],[12.38206,45.43415],[12.38096,45.43397],[12.38042,45.43362],[12.37936,45.4338],[12.37939,45.42716],[12.37743,45.42447],[12.37566,45.42099],[12.37494,45.42003],[12.37267,45.4189],[12.37116,45.4184],[12.36925,45.41817],[12.36818,45.41747],[12.36771,45.41668],[12.36647,45.41526],[12.36316,45.40835],[12.36185,45.40592],[12.35893,45.40195]]]},"properties":{"zona":"E4","linkzona":"VE00001327","fascia":"E","fascia_label":"Suburbana","descr":"LIDO CENTRO","semestre":"2025-S2","loc_min":null,"loc_max":null,"loc_mid":null,"sale_min":2700.0,"sale_max":3400.0}},{"type":"Feature","geometry":{"type":"Polygon","coordinates":[[[12.3576,45.40015],[12.35447,45.39637],[12.34918,45.3898],[12.34597,45.38585],[12.34594,45.38576],[12.33743,45.375],[12.33895,45.37452],[12.33986,45.37403],[12.34053,45.37394],[12.34144,45.37328],[12.34236,45.37361],[12.34332,45.37332],[12.34371,45.37296],[12.34419,45.37296],[12.34613,45.37611],[12.34737,45.37824],[12.35109,45.38322],[12.35188,45.38435],[12.35314,45.38645],[12.35488,45.38908],[12.35798,45.39323],[12.35879,45.39409],[12.35954,45.39521],[12.3619,45.39772],[12.36264,45.39829],[12.36333,45.39917],[12.36147,45.39995],[12.36068,45.39916],[12.35931,45.39952],[12.3576,45.40015]]]},"properties":{"zona":"E10","linkzona":"VE00001341","fascia":"E","fascia_label":"Suburbana","descr":"LIDO TERRE PERSE","semestre":"2025-S2","loc_min":null,"loc_max":null,"loc_mid":null,"sale_min":2400.0,"sale_max":2800.0}},{"type":"Feature","geometry":{"type":"Polygon","coordinates":[[[12.21948,45.47342],[12.22005,45.47173],[12.22091,45.47054],[12.22116,45.46953],[12.21951,45.46946],[12.21965,45.46813],[12.22039,45.46803],[12.22205,45.46733],[12.22285,45.46596],[12.22351,45.46433],[12.22465,45.46391],[12.22299,45.461],[12.22534,45.46032],[12.22644,45.46017],[12.23277,45.46013],[12.23289,45.46574],[12.23342,45.46646],[12.23507,45.46956],[12.23407,45.46942],[12.23129,45.4702],[12.23273,45.47272],[12.23011,45.47337],[12.23067,45.47442],[12.22789,45.47516],[12.22741,45.47498],[12.2264,45.47259],[12.22603,45.47255],[12.22552,45.47326],[12.22463,45.47307],[12.22319,45.47349],[12.22255,45.47315],[12.22165,45.47341],[12.22067,45.4735],[12.21948,45.47342]]]},"properties":{"zona":"E14","linkzona":"VE00001347","fascia":"E","fascia_label":"Suburbana","descr":"MARGHERA","semestre":"2025-S2","loc_min":null,"loc_max":null,"loc_mid":null,"sale_min":1000.0,"sale_max":1300.0}},{"type":"Feature","geometry":{"type":"Polygon","coordinates":[[[12.34371,45.37296],[12.34332,45.37332],[12.34236,45.37361],[12.34144,45.37328],[12.34053,45.37394],[12.33986,45.37403],[12.33895,45.37452],[12.33743,45.375],[12.33669,45.37428],[12.33664,45.3738],[12.33668,45.37107],[12.33677,45.36973],[12.33661,45.36907],[12.33517,45.36652],[12.33239,45.36143],[12.33171,45.3603],[12.33095,45.35934],[12.32893,45.3579],[12.32808,45.35694],[12.32598,45.35434],[12.32353,45.35115],[12.32211,45.35056],[12.32137,45.35046],[12.32052,45.35004],[12.31875,45.34985],[12.31772,45.34941],[12.31641,45.34818],[12.315,45.34749],[12.31411,45.34672],[12.31284,45.34595],[12.31193,45.34616],[12.31119,45.34568],[12.31036,45.34476],[12.30969,45.34381],[12.30927,45.34271],[12.30912,45.34154],[12.3092,45.34087],[12.30991,45.33995],[12.3112,45.33922],[12.31269,45.33912],[12.31565,45.33997],[12.31751,45.3402],[12.3201,45.33957],[12.32944,45.33743],[12.3292,45.33963],[12.3292,45.34223],[12.32931,45.3447],[12.32957,45.34693],[12.32999,45.34939],[12.33085,45.35266],[12.33313,45.35775],[12.33448,45.3599],[12.3345,45.3601],[12.33574,45.36156],[12.33844,45.36495],[12.33875,45.36541],[12.34104,45.36828],[12.34297,45.37084],[12.34418,45.37296],[12.34371,45.37296]]]},"properties":{"zona":"E15","linkzona":"VE00001348","fascia":"E","fascia_label":"Suburbana","descr":"LIDO MALAMOCCO ALBERONI","semestre":"2025-S2","loc_min":null,"loc_max":null,"loc_mid":null,"sale_min":2100.0,"sale_max":2700.0}},{"type":"Feature","geometry":{"type":"Polygon","coordinates":[[[12.26187,45.4183],[12.25938,45.41439],[12.25797,45.41209],[12.25632,45.40963],[12.24729,45.39544],[12.26587,45.39595],[12.26588,45.3925],[12.266,45.38683],[12.26609,45.37441],[12.26599,45.35943],[12.26152,45.35279],[12.25427,45.34238],[12.24823,45.33295],[12.24348,45.32559],[12.24732,45.32699],[12.24951,45.32693],[12.25151,45.32673],[12.25745,45.32419],[12.25951,45.32677],[12.26503,45.32913],[12.26834,45.32898],[12.27029,45.32918],[12.27114,45.33034],[12.28094,45.33144],[12.29565,45.33235],[12.29621,45.32839],[12.29851,45.31337],[12.29939,45.30807],[12.29788,45.30261],[12.29558,45.29664],[12.29184,45.28542],[12.29143,45.28409],[12.28679,45.27018],[12.28471,45.26498],[12.27765,45.24386],[12.27539,45.23634],[12.28791,45.23545],[12.29139,45.23525],[12.29123,45.23545],[12.29031,45.23642],[12.28837,45.23821],[12.28827,45.23889],[12.28709,45.23989],[12.28718,45.24071],[12.28782,45.24038],[12.28833,45.23965],[12.28871,45.23953],[12.28928,45.24013],[12.29056,45.24102],[12.29241,45.24278],[12.29357,45.24286],[12.29565,45.24461],[12.29771,45.24672],[12.29824,45.24712],[12.29902,45.2481],[12.29976,45.24942],[12.29998,45.25055],[12.29994,45.25137],[12.29927,45.25375],[12.29877,45.2541],[12.29823,45.25501],[12.29807,45.25559],[12.29959,45.26094],[12.29998,45.26267],[12.30047,45.26364],[12.30053,45.26462],[12.30024,45.26506],[12.29977,45.26676],[12.29958,45.27034],[12.29996,45.2715],[12.30043,45.27192],[12.30077,45.27261],[12.30084,45.27383],[12.30096,45.2781],[12.30125,45.27899],[12.30116,45.27993],[12.30094,45.28041],[12.30103,45.281],[12.30139,45.2814],[12.30194,45.28276],[12.30263,45.28591],[12.30379,45.28846],[12.30381,45.28873],[12.3054,45.29195],[12.30551,45.29194],[12.3068,45.29452],[12.30682,45.29488],[12.3077,45.29663],[12.30833,45.29871],[12.30902,45.30036],[12.3097,45.3023],[12.31023,45.30347],[12.31028,45.30485],[12.31019,45.30779],[12.30942,45.30896],[12.30969,45.30996],[12.31039,45.31085],[12.31132,45.31132],[12.31236,45.31271],[12.31261,45.31402],[12.31412,45.3161],[12.31424,45.31653],[12.31483,45.3169],[12.31536,45.31766],[12.31543,45.31806],[12.31673,45.3197],[12.31741,45.31993],[12.31733,45.32079],[12.31782,45.32159],[12.31793,45.32247],[12.31757,45.32338],[12.3177,45.32398],[12.31827,45.32417],[12.3188,45.32467],[12.31926,45.32546],[12.31904,45.32624],[12.31972,45.32639],[12.32116,45.3275],[12.32157,45.32807],[12.31957,45.33138],[12.31825,45.33265],[12.31586,45.33355],[12.31614,45.33488],[12.31654,45.33588],[12.31905,45.3357],[12.32011,45.33564],[12.3201,45.33957],[12.31751,45.3402],[12.31565,45.33997],[12.31269,45.33912],[12.3112,45.33922],[12.30991,45.33995],[12.3092,45.34087],[12.30912,45.34154],[12.30927,45.34271],[12.30969,45.34381],[12.31036,45.34476],[12.31119,45.34568],[12.31193,45.34616],[12.31284,45.34595],[12.31411,45.34672],[12.315,45.34749],[12.31641,45.34818],[12.31772,45.34941],[12.31875,45.34985],[12.32052,45.35004],[12.32137,45.35046],[12.32211,45.35056],[12.32353,45.35115],[12.32598,45.35434],[12.32808,45.35694],[12.32893,45.3579],[12.33095,45.35934],[12.33171,45.3603],[12.33239,45.36143],[12.33517,45.36652],[12.33661,45.36907],[12.33677,45.36973],[12.33668,45.37107],[12.33664,45.3738],[12.33669,45.37428],[12.33743,45.375],[12.34594,45.38576],[12.34597,45.38585],[12.34918,45.3898],[12.35447,45.39637],[12.3576,45.40015],[12.35893,45.40195],[12.36185,45.40592],[12.36316,45.40835],[12.36647,45.41526],[12.36771,45.41668],[12.36818,45.41747],[12.36925,45.41817],[12.37116,45.4184],[12.37267,45.4189],[12.37494,45.42003],[12.37566,45.42099],[12.37743,45.42447],[12.37939,45.42716],[12.37936,45.4338],[12.37934,45.43602],[12.37863,45.43603],[12.3782,45.43655],[12.37635,45.43721],[12.37567,45.43755],[12.37378,45.43816],[12.37345,45.43877],[12.3738,45.43902],[12.37311,45.44079],[12.37293,45.44174],[12.37301,45.4424],[12.37401,45.4434],[12.37559,45.4439],[12.37627,45.44358],[12.37661,45.444],[12.378,45.44509],[12.38083,45.44643],[12.38217,45.44729],[12.38206,45.44785],[12.38413,45.44849],[12.38433,45.44797],[12.38354,45.44687],[12.39168,45.44689],[12.39173,45.44719],[12.38998,45.4492],[12.38896,45.44968],[12.38827,45.45059],[12.38692,45.45193],[12.38559,45.45394],[12.38577,45.45419],[12.3883,45.4546],[12.38929,45.45466],[12.39113,45.45435],[12.39193,45.45495],[12.39256,45.45608],[12.39342,45.45614],[12.39579,45.45586],[12.39704,45.45591],[12.39943,45.4564],[12.39995,45.4567],[12.40025,45.45826],[12.40048,45.45843],[12.40187,45.45817],[12.40322,45.45807],[12.40426,45.45757],[12.40409,45.45735],[12.40498,45.45693],[12.40557,45.45721],[12.4067,45.45747],[12.40761,45.45806],[12.40774,45.45834],[12.40864,45.45895],[12.40979,45.45911],[12.41103,45.45999],[12.41124,45.46041],[12.41275,45.46098],[12.4136,45.46182],[12.41424,45.46285],[12.41354,45.46334],[12.41501,45.46543],[12.41501,45.46772],[12.41673,45.4677],[12.42368,45.47447],[12.42563,45.47407],[12.42814,45.47397],[12.42945,45.47435],[12.43034,45.47474],[12.43457,45.47754],[12.44065,45.47439],[12.44365,45.47272],[12.44631,45.4714],[12.45122,45.47363],[12.45785,45.47414],[12.46807,45.47518],[12.47758,45.48517],[12.47755,45.48877],[12.47467,45.49208],[12.47575,45.49294],[12.4798,45.49235],[12.4822,45.49371],[12.48548,45.49983],[12.49307,45.49883],[12.49545,45.4972],[12.50309,45.49802],[12.50778,45.50371],[12.50964,45.50379],[12.51195,45.50306],[12.52554,45.503],[12.52628,45.50103],[12.52717,45.50076],[12.52895,45.50182],[12.53203,45.50316],[12.53298,45.50393],[12.53306,45.50548],[12.53342,45.50618],[12.53341,45.50665],[12.53282,45.50735],[12.53149,45.50859],[12.53129,45.50922],[12.53239,45.51196],[12.53152,45.51269],[12.53285,45.51288],[12.53619,45.51319],[12.53867,45.51292],[12.53901,45.51273],[12.53929,45.51145],[12.53991,45.51065],[12.54225,45.51013],[12.54264,45.51036],[12.54309,45.51122],[12.54441,45.5118],[12.54513,45.51239],[12.54546,45.51342],[12.54602,45.51386],[12.54708,45.51415],[12.54809,45.51475],[12.55197,45.5167],[12.55592,45.51853],[12.5589,45.51999],[12.56066,45.52098],[12.56332,45.52214],[12.56534,45.52345],[12.56757,45.52454],[12.56804,45.52538],[12.56847,45.52556],[12.56945,45.52554],[12.57082,45.52524],[12.57193,45.52604],[12.57159,45.52667],[12.57253,45.52752],[12.574,45.52791],[12.57652,45.52802],[12.57792,45.52842],[12.57924,45.52863],[12.58056,45.52924],[12.5809,45.53019],[12.58073,45.532],[12.58113,45.53236],[12.58322,45.5337],[12.58353,45.53372],[12.5844,45.53529],[12.58561,45.53822],[12.58721,45.5394],[12.58938,45.54041],[12.59247,45.54175],[12.59311,45.5423],[12.59627,45.5454],[12.59214,45.5465],[12.58701,45.54783],[12.57681,45.5506],[12.5735,45.55145],[12.57179,45.55338],[12.56988,45.55564],[12.56251,45.56443],[12.56061,45.56664],[12.55982,45.56787],[12.55832,45.56981],[12.55767,45.5704],[12.55449,45.57252],[12.5527,45.57423],[12.54919,45.57715],[12.54858,45.57809],[12.54811,45.57806],[12.54245,45.57721],[12.53692,45.57614],[12.52787,45.57441],[12.52204,45.5734],[12.51956,45.57271],[12.51655,45.57205],[12.51287,45.5713],[12.5086,45.57037],[12.50378,45.56927],[12.50113,45.56875],[12.49768,45.5679],[12.49539,45.56755],[12.49081,45.56656],[12.48902,45.56611],[12.4861,45.56525],[12.47668,45.56349],[12.47334,45.56272],[12.4736,45.5621],[12.47169,45.56153],[12.47062,45.56057],[12.46991,45.56012],[12.46707,45.5586],[12.46506,45.55692],[12.46307,45.55536],[12.46042,45.55427],[12.45875,45.55315],[12.45705,45.55277],[12.4574,45.552],[12.45826,45.54925],[12.45904,45.54572],[12.45877,45.54544],[12.45737,45.54547],[12.4482,45.54502],[12.4387,45.54459],[12.43755,45.5445],[12.43718,45.54408],[12.43686,45.54295],[12.43595,45.54262],[12.43396,45.54287],[12.43214,45.54286],[12.43078,45.54331],[12.42995,45.54331],[12.42952,45.54286],[12.42936,45.54148],[12.42806,45.54127],[12.42564,45.54191],[12.42425,45.5419],[12.42374,45.54215],[12.41557,45.54533],[12.41494,45.54523],[12.41451,45.54452],[12.41367,45.54426],[12.41352,45.54328],[12.41355,45.54233],[12.41181,45.5421],[12.41014,45.54167],[12.41014,45.54072],[12.40974,45.53906],[12.40983,45.53794],[12.41027,45.53666],[12.411,45.53517],[12.4113,45.53375],[12.41112,45.53309],[12.41061,45.53239],[12.40981,45.53273],[12.40831,45.53271],[12.40767,45.53235],[12.4076,45.53165],[12.40682,45.53154],[12.4066,45.53229],[12.40575,45.5322],[12.40521,45.53237],[12.40418,45.53351],[12.40396,45.53456],[12.40403,45.53503],[12.40468,45.53561],[12.40482,45.53618],[12.40434,45.53684],[12.40349,45.53693],[12.40318,45.53691],[12.40304,45.53552],[12.40266,45.5352],[12.40108,45.53468],[12.40085,45.5341],[12.40103,45.53336],[12.40087,45.53246],[12.40037,45.53192],[12.39848,45.53163],[12.39795,45.53224],[12.39697,45.53289],[12.39564,45.53237],[12.39588,45.53159],[12.39589,45.53063],[12.39549,45.52867],[12.39453,45.52746],[12.39423,45.52679],[12.39459,45.52554],[12.39433,45.52373],[12.39402,45.523],[12.3938,45.52113],[12.39356,45.52045],[12.39376,45.52001],[12.39367,45.51901],[12.39248,45.51816],[12.39047,45.517],[12.38916,45.51732],[12.38857,45.51777],[12.38813,45.51878],[12.3878,45.51857],[12.38612,45.51846],[12.38409,45.51882],[12.38324,45.51927],[12.38222,45.51939],[12.37615,45.52035],[12.37293,45.52094],[12.37191,45.52095],[12.36825,45.51943],[12.36874,45.51953],[12.37055,45.51836],[12.36883,45.51703],[12.36829,45.51553],[12.36373,45.51196],[12.36345,45.51183],[12.36021,45.50932],[12.34928,45.50069],[12.35856,45.50071],[12.3586,45.49044],[12.35868,45.48206],[12.35871,45.47518],[12.35559,45.47651],[12.34369,45.48173],[12.33397,45.48601],[12.32355,45.48226],[12.31366,45.47868],[12.30163,45.47424],[12.29214,45.47072],[12.29216,45.47001],[12.29219,45.45761],[12.29264,45.44296],[12.27135,45.44285],[12.26864,45.43577],[12.26267,45.42046],[12.26187,45.4183]],[[12.42554,45.4957],[12.42434,45.49491],[12.42333,45.49447],[12.42232,45.49422],[12.42098,45.49415],[12.41942,45.4937],[12.41632,45.49362],[12.41551,45.49415],[12.41396,45.49306],[12.41386,45.49289],[12.41416,45.49034],[12.41266,45.48938],[12.41405,45.48819],[12.40878,45.48523],[12.40641,45.48383],[12.40516,45.48335],[12.40445,45.48409],[12.4032,45.48414],[12.40281,45.4858],[12.40297,45.48614],[12.4014,45.48708],[12.39994,45.48766],[12.40009,45.48838],[12.40064,45.48969],[12.40107,45.48971],[12.40126,45.49077],[12.41082,45.49454],[12.41126,45.49479],[12.4125,45.49508],[12.41103,45.49664],[12.40952,45.49848],[12.41075,45.49845],[12.41209,45.49874],[12.41281,45.49848],[12.41366,45.49856],[12.41424,45.49916],[12.41493,45.50069],[12.41508,45.50143],[12.41564,45.50169],[12.41689,45.50175],[12.41657,45.50076],[12.41934,45.50002],[12.42247,45.49979],[12.42321,45.5002],[12.42606,45.5011],[12.42689,45.50066],[12.4262,45.5001],[12.42497,45.4999],[12.4242,45.49961],[12.4233,45.49899],[12.4238,45.49862],[12.42463,45.49835],[12.42669,45.49809],[12.42772,45.49772],[12.4267,45.49663],[12.42554,45.4957]],[[12.33969,45.44365],[12.34272,45.44192],[12.34628,45.43989],[12.34711,45.43944],[12.35298,45.4384],[12.35401,45.43817],[12.35681,45.4386],[12.35698,45.43879],[12.35909,45.44008],[12.36034,45.44061],[12.36233,45.44092],[12.36317,45.43981],[12.36322,45.43824],[12.36201,45.43806],[12.35924,45.43659],[12.35979,45.43557],[12.36063,45.43532],[12.36143,45.43444],[12.3614,45.43342],[12.36168,45.43297],[12.36303,45.4328],[12.36663,45.42923],[12.36734,45.42841],[12.36725,45.42816],[12.36623,45.42775],[12.36619,45.42699],[12.3667,45.4255],[12.3663,45.42494],[12.36532,45.4246],[12.3642,45.42456],[12.36278,45.42472],[12.36147,45.42506],[12.35992,45.42581],[12.35894,45.42651],[12.35891,45.42697],[12.3591,45.42766],[12.35868,45.42694],[12.35795,45.42742],[12.35589,45.42936],[12.35465,45.43009],[12.35073,45.43189],[12.35051,45.43209],[12.35039,45.43206],[12.34805,45.43333],[12.34711,45.43364],[12.34452,45.43388],[12.34294,45.43382],[12.3412,45.43355],[12.34111,45.43371],[12.34094,45.43351],[12.33783,45.43262],[12.33629,45.4321],[12.33708,45.43106],[12.34167,45.42842],[12.34262,45.42999],[12.34376,45.43034],[12.34593,45.42977],[12.34627,45.42944],[12.34608,45.42876],[12.34869,45.42875],[12.3487,45.42516],[12.34105,45.42514],[12.33959,45.42412],[12.33844,45.42362],[12.33704,45.4232],[12.33402,45.42314],[12.33233,45.42327],[12.33094,45.42318],[12.33058,45.42294],[12.32978,45.42327],[12.32813,45.4235],[12.32717,45.42351],[12.32467,45.42374],[12.32405,45.42336],[12.32249,45.42354],[12.32134,45.42427],[12.321,45.42408],[12.32023,45.42468],[12.31937,45.42508],[12.31159,45.42503],[12.31122,45.42543],[12.31183,45.42649],[12.31218,45.42677],[12.31271,45.42846],[12.3131,45.42887],[12.31175,45.43096],[12.3095,45.43193],[12.30915,45.43197],[12.30629,45.4333],[12.30379,45.4344],[12.3093,45.4409],[12.31407,45.44132],[12.31479,45.44192],[12.31543,45.44184],[12.31537,45.44263],[12.31547,45.44299],[12.31617,45.44363],[12.31611,45.44386],[12.31705,45.44463],[12.31639,45.44508],[12.31677,45.44564],[12.31758,45.44608],[12.31846,45.44701],[12.31901,45.44778],[12.32162,45.4479],[12.3246,45.44873],[12.3263,45.44938],[12.32961,45.44854],[12.33278,45.44756],[12.33494,45.44674],[12.33552,45.44639],[12.33662,45.44533],[12.33969,45.44365]],[[12.3056,45.43983],[12.30433,45.43834],[12.30205,45.43927],[12.30582,45.44383],[12.30739,45.44402],[12.30815,45.44395],[12.31116,45.44267],[12.31247,45.44202],[12.31244,45.44184],[12.30928,45.44158],[12.30847,45.44191],[12.30733,45.44183],[12.3056,45.43983]],[[12.34738,45.45489],[12.34865,45.45535],[12.34855,45.45692],[12.34904,45.45728],[12.34873,45.45825],[12.34824,45.45801],[12.34757,45.45833],[12.34617,45.45926],[12.34657,45.45993],[12.34953,45.46043],[12.35221,45.46043],[12.35308,45.46104],[12.35349,45.46204],[12.35427,45.46207],[12.35709,45.46131],[12.35771,45.46097],[12.35965,45.46024],[12.36067,45.4596],[12.3609,45.45925],[12.36087,45.45838],[12.36052,45.45791],[12.35821,45.45565],[12.35826,45.45417],[12.35745,45.45364],[12.35683,45.45362],[12.35533,45.45309],[12.35223,45.45227],[12.35158,45.45174],[12.3503,45.45145],[12.34967,45.45159],[12.34917,45.45125],[12.34791,45.4516],[12.34797,45.45259],[12.34761,45.45321],[12.34641,45.45423],[12.34661,45.4546],[12.34738,45.45489]],[[12.4213,45.48471],[12.4208,45.48425],[12.41966,45.484],[12.41925,45.48351],[12.41767,45.48316],[12.41682,45.48366],[12.41615,45.48381],[12.41479,45.48472],[12.41484,45.48503],[12.41385,45.48546],[12.41367,45.48583],[12.41382,45.48681],[12.41472,45.48766],[12.41666,45.48735],[12.41792,45.48739],[12.41939,45.48709],[12.42064,45.48647],[12.42134,45.48572],[12.4213,45.48471]]]},"properties":{"zona":"R3","linkzona":"VE00001352","fascia":"R","fascia_label":"Extraurbana","descr":"LAGUNA","semestre":"2025-S2","loc_min":null,"loc_max":null,"loc_mid":null,"sale_min":1000.0,"sale_max":1300.0}},{"type":"Feature","geometry":{"type":"Polygon","coordinates":[[[12.29123,45.23545],[12.29161,45.23525],[12.31286,45.23377],[12.30743,45.23422],[12.30023,45.23472],[12.29916,45.23711],[12.29804,45.24103],[12.29716,45.24453],[12.29716,45.24566],[12.2986,45.24701],[12.29925,45.24782],[12.30011,45.24933],[12.30036,45.25048],[12.30025,45.25176],[12.29966,45.25384],[12.29926,45.25594],[12.29945,45.25723],[12.30002,45.25828],[12.30065,45.25865],[12.30049,45.25939],[12.30069,45.26062],[12.30115,45.26177],[12.30165,45.26224],[12.30143,45.26292],[12.30171,45.26432],[12.30234,45.26601],[12.30225,45.26684],[12.30284,45.26932],[12.30319,45.26975],[12.30278,45.27027],[12.30296,45.27203],[12.30349,45.27393],[12.3033,45.27454],[12.30348,45.27612],[12.30382,45.27742],[12.30441,45.27829],[12.30419,45.27887],[12.30423,45.27965],[12.30463,45.28131],[12.30519,45.2824],[12.30564,45.28273],[12.3055,45.28336],[12.30566,45.28514],[12.30662,45.28686],[12.30698,45.28703],[12.30684,45.28792],[12.30719,45.28966],[12.30787,45.29104],[12.30871,45.29194],[12.30869,45.29237],[12.30944,45.29489],[12.31003,45.29601],[12.31052,45.2965],[12.31042,45.2975],[12.311,45.29923],[12.312,45.30091],[12.31236,45.30124],[12.31227,45.3018],[12.31266,45.30371],[12.31303,45.30463],[12.31406,45.30599],[12.31376,45.30641],[12.31394,45.30767],[12.31431,45.30851],[12.31546,45.3101],[12.31549,45.31125],[12.31612,45.3127],[12.31707,45.314],[12.31704,45.31442],[12.3178,45.31612],[12.31885,45.31757],[12.31898,45.31879],[12.31956,45.32022],[12.32065,45.32172],[12.32089,45.32182],[12.32112,45.32285],[12.32232,45.32506],[12.32288,45.32566],[12.32338,45.32723],[12.32396,45.32827],[12.324,45.32901],[12.32437,45.33015],[12.32539,45.33149],[12.32641,45.3324],[12.32997,45.33276],[12.33605,45.33136],[12.33645,45.33122],[12.34461,45.32931],[12.3444,45.32907],[12.34273,45.32845],[12.34007,45.32775],[12.34015,45.32758],[12.34284,45.32827],[12.34505,45.32905],[12.34461,45.32932],[12.3365,45.33122],[12.33617,45.33137],[12.32997,45.33279],[12.32468,45.33228],[12.32532,45.33522],[12.31905,45.3357],[12.31654,45.33588],[12.31614,45.33488],[12.31586,45.33355],[12.31825,45.33265],[12.31957,45.33138],[12.32157,45.32807],[12.32116,45.3275],[12.31972,45.32639],[12.31904,45.32624],[12.31926,45.32546],[12.3188,45.32467],[12.31827,45.32417],[12.3177,45.32398],[12.31757,45.32338],[12.31793,45.32247],[12.31782,45.32159],[12.31733,45.32079],[12.31741,45.31993],[12.31673,45.3197],[12.31543,45.31806],[12.31536,45.31766],[12.31483,45.3169],[12.31424,45.31653],[12.31412,45.3161],[12.31261,45.31402],[12.31236,45.31271],[12.31132,45.31132],[12.31039,45.31085],[12.30969,45.30996],[12.30942,45.30896],[12.31019,45.30779],[12.31028,45.30485],[12.31023,45.30347],[12.3097,45.3023],[12.30902,45.30036],[12.30833,45.29871],[12.3077,45.29663],[12.30682,45.29488],[12.3068,45.29452],[12.30551,45.29194],[12.3054,45.29195],[12.30381,45.28873],[12.30379,45.28846],[12.30263,45.28591],[12.30194,45.28276],[12.30139,45.2814],[12.30103,45.281],[12.30094,45.28041],[12.30116,45.27993],[12.30125,45.27899],[12.30096,45.2781],[12.30084,45.27383],[12.30077,45.27261],[12.30043,45.27192],[12.29996,45.2715],[12.29958,45.27034],[12.29977,45.26676],[12.30024,45.26506],[12.30053,45.26462],[12.30047,45.26364],[12.29998,45.26267],[12.29959,45.26094],[12.29807,45.25559],[12.29823,45.25501],[12.29877,45.2541],[12.29927,45.25375],[12.29994,45.25137],[12.29998,45.25055],[12.29976,45.24942],[12.29902,45.2481],[12.29824,45.24712],[12.29771,45.24672],[12.29565,45.24461],[12.29357,45.24286],[12.29241,45.24278],[12.29056,45.24102],[12.28928,45.24013],[12.28871,45.23953],[12.28833,45.23965],[12.28782,45.24038],[12.28718,45.24071],[12.28709,45.23989],[12.28827,45.23889],[12.28837,45.23821],[12.29031,45.23642],[12.29123,45.23545]]]},"properties":{"zona":"E17","linkzona":"VE00001350","fascia":"E","fascia_label":"Suburbana","descr":"PELLESTRINA","semestre":"2025-S2","loc_min":null,"loc_max":null,"loc_mid":null,"sale_min":1800.0,"sale_max":2400.0}},{"type":"Feature","geometry":{"type":"Polygon","coordinates":[[[12.22299,45.461],[12.22218,45.45953],[12.22396,45.45978],[12.22477,45.45962],[12.22574,45.45727],[12.2289,45.45106],[12.23022,45.44835],[12.23172,45.44862],[12.23215,45.44912],[12.23292,45.44916],[12.23438,45.44951],[12.23507,45.45034],[12.23622,45.44978],[12.23742,45.44971],[12.23774,45.45017],[12.23827,45.45028],[12.23878,45.44968],[12.23921,45.44958],[12.24091,45.44976],[12.24187,45.44939],[12.24261,45.44976],[12.2435,45.44917],[12.24453,45.44945],[12.24513,45.44884],[12.24608,45.44924],[12.24656,45.44896],[12.24721,45.44807],[12.24859,45.44786],[12.24907,45.44722],[12.24963,45.44691],[12.25066,45.44705],[12.25163,45.44794],[12.25342,45.44784],[12.25424,45.44753],[12.25635,45.44765],[12.25759,45.44726],[12.2582,45.446],[12.26096,45.4459],[12.27225,45.4454],[12.27135,45.44285],[12.29264,45.44296],[12.29219,45.45761],[12.29216,45.47001],[12.29214,45.47072],[12.28895,45.46955],[12.28757,45.46878],[12.28633,45.46809],[12.28489,45.46735],[12.28192,45.46573],[12.28027,45.46433],[12.27819,45.46538],[12.27664,45.46624],[12.2747,45.46716],[12.27272,45.46795],[12.27075,45.4686],[12.26826,45.46928],[12.26637,45.46967],[12.26235,45.47035],[12.26023,45.47081],[12.25751,45.4717],[12.25518,45.47288],[12.25414,45.47361],[12.25213,45.47525],[12.25071,45.47629],[12.24921,45.47723],[12.24755,45.47803],[12.24538,45.47883],[12.24352,45.47931],[12.23849,45.48054],[12.23746,45.48066],[12.23614,45.47863],[12.23475,45.47623],[12.23402,45.47592],[12.2343,45.47545],[12.23273,45.47272],[12.23129,45.4702],[12.23407,45.46942],[12.23507,45.46956],[12.23342,45.46646],[12.23289,45.46574],[12.23277,45.46013],[12.22644,45.46017],[12.22534,45.46032],[12.22299,45.461]]]},"properties":{"zona":"E18","linkzona":"VE00001351","fascia":"E","fascia_label":"Suburbana","descr":"PORTO MARGHERA","semestre":"2025-S2","loc_min":null,"loc_max":null,"loc_mid":null,"nonres":true}},{"type":"Feature","geometry":{"type":"Polygon","coordinates":[[[12.32754,45.43524],[12.32837,45.43556],[12.32978,45.43613],[12.33237,45.43674],[12.33428,45.43739],[12.33558,45.43813],[12.33596,45.43866],[12.3351,45.43955],[12.33386,45.43999],[12.33267,45.44068],[12.33041,45.43833],[12.32996,45.43896],[12.32866,45.43976],[12.32755,45.43899],[12.32616,45.43891],[12.32567,45.4385],[12.32375,45.43894],[12.32309,45.43837],[12.32293,45.43779],[12.32325,45.43739],[12.32463,45.43673],[12.32472,45.43658],[12.32658,45.43587],[12.32754,45.43524]]]},"properties":{"zona":"B16","linkzona":"VE00001325","fascia":"B","fascia_label":"Centrale","descr":"SAN POLO","semestre":"2025-S2","loc_min":9.0,"loc_max":13.0,"loc_mid":11.0,"sale_min":3700.0,"sale_max":5200.0,"sup":"L","tipologia":"Abitazioni civili","stato":"NORMALE","ott_min":11.5,"ott_max":19.0,"trend":0.0,"trend_from":"2023-S2"}},{"type":"Feature","geometry":{"type":"Polygon","coordinates":[[[12.34111,45.43371],[12.3412,45.43355],[12.34294,45.43382],[12.34452,45.43388],[12.34711,45.43364],[12.34805,45.43333],[12.35039,45.43206],[12.35051,45.43209],[12.35062,45.43279],[12.3499,45.43325],[12.35025,45.43465],[12.35008,45.43487],[12.34891,45.43494],[12.34958,45.43626],[12.35011,45.43707],[12.34806,45.43779],[12.34634,45.43794],[12.34595,45.43832],[12.34628,45.43989],[12.34272,45.44192],[12.34121,45.43964],[12.34064,45.43853],[12.3387,45.43897],[12.33792,45.43841],[12.33787,45.43779],[12.33748,45.43674],[12.33794,45.43655],[12.33872,45.43664],[12.33919,45.43647],[12.33978,45.43588],[12.34029,45.43587],[12.34111,45.43371]]]},"properties":{"zona":"B17","linkzona":"VE00001326","fascia":"B","fascia_label":"Centrale","descr":"CASTELLO OVEST","semestre":"2025-S2","loc_min":8.5,"loc_max":14.0,"loc_mid":11.25,"sale_min":3500.0,"sale_max":4500.0,"sup":"L","tipologia":"Abitazioni civili","stato":"NORMALE","ott_min":13.0,"ott_max":19.0,"trend":0.0,"trend_from":"2023-S2"}},{"type":"Feature","geometry":{"type":"Polygon","coordinates":[[[12.2705,45.49891],[12.27027,45.4989],[12.27126,45.50094],[12.26985,45.5013],[12.26921,45.50164],[12.26807,45.50196],[12.26802,45.5029],[12.26812,45.50408],[12.26841,45.50521],[12.26917,45.50616],[12.26954,45.50697],[12.26945,45.50821],[12.26986,45.50864],[12.27024,45.50951],[12.2707,45.51131],[12.26971,45.51168],[12.26851,45.51168],[12.26849,45.51209],[12.26891,45.51316],[12.27011,45.51529],[12.2685,45.51586],[12.26621,45.51681],[12.26592,45.5174],[12.26449,45.51759],[12.26304,45.51738],[12.26249,45.51801],[12.26115,45.51816],[12.26034,45.51841],[12.25993,45.51882],[12.25922,45.51888],[12.25926,45.51945],[12.25853,45.52013],[12.25894,45.52137],[12.25999,45.52517],[12.25003,45.52588],[12.24792,45.52598],[12.2477,45.52453],[12.24577,45.52464],[12.24596,45.52613],[12.24569,45.52625],[12.24582,45.52846],[12.24616,45.53059],[12.24533,45.53094],[12.24426,45.53204],[12.24392,45.53211],[12.24304,45.5317],[12.2423,45.53213],[12.24218,45.53268],[12.24123,45.53396],[12.24122,45.5345],[12.24048,45.53478],[12.23941,45.5365],[12.23919,45.53703],[12.23838,45.5375],[12.23725,45.53785],[12.23586,45.53792],[12.23487,45.53835],[12.23409,45.53839],[12.23412,45.53644],[12.23477,45.5364],[12.23471,45.53308],[12.23473,45.53082],[12.23443,45.52776],[12.23249,45.52765],[12.23248,45.52658],[12.23153,45.52635],[12.23159,45.52481],[12.23181,45.52454],[12.23183,45.5229],[12.23006,45.52253],[12.2298,45.52144],[12.22961,45.5193],[12.23003,45.51921],[12.22992,45.51735],[12.23042,45.51676],[12.23128,45.51681],[12.23145,45.51612],[12.23321,45.5162],[12.23332,45.51533],[12.23263,45.51362],[12.23245,45.51294],[12.23163,45.51128],[12.2306,45.50947],[12.22949,45.50755],[12.22962,45.50702],[12.23079,45.50564],[12.23082,45.50529],[12.22875,45.50077],[12.22877,45.50034],[12.22997,45.49905],[12.2289,45.49908],[12.22866,45.49836],[12.22799,45.49812],[12.22682,45.49865],[12.22688,45.49909],[12.22607,45.49974],[12.22571,45.49969],[12.22453,45.49891],[12.22314,45.49905],[12.22129,45.4996],[12.2211,45.50059],[12.2203,45.50091],[12.21922,45.50068],[12.21869,45.50121],[12.21913,45.50192],[12.21761,45.5018],[12.21756,45.50264],[12.21633,45.5034],[12.21587,45.5048],[12.21503,45.50568],[12.21456,45.50586],[12.21299,45.50444],[12.21348,45.5039],[12.21145,45.50231],[12.21215,45.50148],[12.21316,45.5007],[12.21401,45.49967],[12.21283,45.49899],[12.21231,45.49852],[12.21114,45.49676],[12.21231,45.49625],[12.21274,45.49581],[12.21317,45.49491],[12.21217,45.49285],[12.21169,45.49029],[12.21175,45.48873],[12.2114,45.48864],[12.21149,45.48716],[12.2112,45.48601],[12.21218,45.48659],[12.21341,45.48626],[12.21531,45.48654],[12.21698,45.48657],[12.21832,45.48703],[12.21896,45.48677],[12.21967,45.48579],[12.21935,45.48428],[12.21905,45.48333],[12.2205,45.48371],[12.22185,45.48362],[12.22502,45.48315],[12.22155,45.48379],[12.22057,45.48385],[12.2207,45.4844],[12.22455,45.48408],[12.22528,45.48449],[12.22423,45.48555],[12.22389,45.48609],[12.22312,45.48817],[12.22297,45.48922],[12.22377,45.49012],[12.22528,45.49036],[12.22735,45.49222],[12.22765,45.49266],[12.22895,45.49378],[12.22888,45.49387],[12.23156,45.49562],[12.23144,45.49599],[12.23251,45.49677],[12.23339,45.49711],[12.23377,45.49763],[12.23482,45.49798],[12.23706,45.49952],[12.23749,45.49961],[12.24109,45.50213],[12.241,45.50347],[12.24199,45.50345],[12.24227,45.50614],[12.24272,45.50663],[12.24268,45.50713],[12.24472,45.50743],[12.24594,45.50711],[12.24688,45.50666],[12.24786,45.5065],[12.24811,45.50701],[12.2501,45.5084],[12.25227,45.50782],[12.25267,45.50845],[12.25601,45.50731],[12.25651,45.5075],[12.25747,45.50678],[12.25857,45.50643],[12.25815,45.50558],[12.26026,45.50511],[12.2599,45.50424],[12.25896,45.50389],[12.25989,45.50304],[12.25995,45.50248],[12.2594,45.50138],[12.2587,45.4993],[12.25772,45.49943],[12.25761,45.49912],[12.25653,45.49961],[12.25601,45.49898],[12.25551,45.49925],[12.25377,45.4974],[12.25445,45.49705],[12.25367,45.49617],[12.25427,45.4961],[12.25337,45.49498],[12.25293,45.49386],[12.25352,45.49303],[12.25439,45.49249],[12.25353,45.49186],[12.25433,45.49168],[12.25476,45.49123],[12.25333,45.48975],[12.25237,45.48857],[12.2508,45.48784],[12.25003,45.48732],[12.24827,45.48519],[12.24734,45.48395],[12.2493,45.48284],[12.24812,45.4815],[12.24724,45.48068],[12.24697,45.48008],[12.24644,45.47985],[12.2448,45.47964],[12.24375,45.47966],[12.24352,45.47931],[12.24538,45.47883],[12.24755,45.47803],[12.24921,45.47723],[12.25071,45.47629],[12.25092,45.47653],[12.25435,45.47816],[12.25587,45.47738],[12.25655,45.47808],[12.25598,45.47863],[12.25832,45.47934],[12.25988,45.47904],[12.26195,45.47788],[12.26364,45.47714],[12.26449,45.47689],[12.26607,45.47676],[12.2671,45.47647],[12.26743,45.47726],[12.26794,45.47775],[12.26953,45.47889],[12.26962,45.47918],[12.26662,45.48117],[12.26374,45.48328],[12.2583,45.48789],[12.25729,45.48894],[12.25678,45.48964],[12.25759,45.4915],[12.25923,45.49118],[12.26143,45.49113],[12.26313,45.49035],[12.26374,45.48987],[12.26653,45.49215],[12.26687,45.4927],[12.2664,45.49304],[12.26757,45.49407],[12.2684,45.49546],[12.26695,45.49608],[12.26909,45.49856],[12.2705,45.49891]]]},"properties":{"zona":"E19","linkzona":"VE00001355","fascia":"E","fascia_label":"Suburbana","descr":"MESTRE SEMICENTRALE","semestre":"2025-S2","loc_min":6.0,"loc_max":9.0,"loc_mid":7.5,"sale_min":1400.0,"sale_max":1600.0,"sup":"L","tipologia":"Abitazioni civili","stato":"NORMALE","trend":0.0,"trend_from":"2023-S2"}},{"type":"Feature","geometry":{"type":"Polygon","coordinates":[[[12.32285,45.44101],[12.32416,45.44154],[12.32586,45.44203],[12.32812,45.44229],[12.32954,45.4421],[12.33141,45.44146],[12.33267,45.44068],[12.33386,45.43999],[12.3351,45.43955],[12.33596,45.43866],[12.33792,45.43841],[12.3387,45.43897],[12.34064,45.43853],[12.34121,45.43964],[12.34272,45.44192],[12.33969,45.44365],[12.3391,45.44254],[12.33745,45.44302],[12.33523,45.44361],[12.33459,45.44311],[12.33414,45.4432],[12.33354,45.44382],[12.33212,45.44461],[12.33089,45.445],[12.32826,45.44566],[12.32761,45.4456],[12.32735,45.44519],[12.32671,45.44492],[12.32611,45.44567],[12.32485,45.44543],[12.32364,45.44408],[12.32203,45.44286],[12.32156,45.44324],[12.3198,45.4427],[12.32093,45.44207],[12.32205,45.44124],[12.32285,45.44101]]]},"properties":{"zona":"B15","linkzona":"VE00001324","fascia":"B","fascia_label":"Centrale","descr":"CANNAREGIO SUD","semestre":"2025-S2","loc_min":8.5,"loc_max":13.0,"loc_mid":10.75,"sale_min":3600.0,"sale_max":4600.0,"sup":"L","tipologia":"Abitazioni civili","stato":"NORMALE","ott_min":14.0,"ott_max":20.0,"trend":0.0,"trend_from":"2023-S2"}},{"type":"Feature","geometry":{"type":"MultiPolygon","coordinates":[[[[12.32285,45.44101],[12.32209,45.44053],[12.321,45.43933],[12.31944,45.43867],[12.31865,45.43891],[12.3173,45.44073],[12.31692,45.44099],[12.31796,45.44144],[12.31738,45.44183],[12.31537,45.44263],[12.31543,45.44184],[12.31479,45.44192],[12.31407,45.44132],[12.3093,45.4409],[12.30379,45.4344],[12.30629,45.4333],[12.30915,45.43197],[12.3095,45.43193],[12.30925,45.43204],[12.3143,45.43794],[12.31474,45.4376],[12.31582,45.43575],[12.31625,45.43576],[12.3162,45.4347],[12.31729,45.43501],[12.32037,45.43561],[12.31994,45.43705],[12.32104,45.43715],[12.32271,45.43665],[12.32335,45.43624],[12.32327,45.43561],[12.3241,45.4356],[12.32463,45.43673],[12.32325,45.43739],[12.32293,45.43779],[12.32309,45.43837],[12.32375,45.43894],[12.32567,45.4385],[12.32616,45.43891],[12.32755,45.43899],[12.32866,45.43976],[12.32996,45.43896],[12.33041,45.43833],[12.33267,45.44068],[12.33141,45.44146],[12.32954,45.4421],[12.32812,45.44229],[12.32586,45.44203],[12.32416,45.44154],[12.32285,45.44101]]],[[[12.3056,45.43983],[12.30733,45.44183],[12.30847,45.44191],[12.30928,45.44158],[12.31244,45.44184],[12.31247,45.44202],[12.31116,45.44267],[12.30815,45.44395],[12.30739,45.44402],[12.30582,45.44383],[12.30205,45.43927],[12.30433,45.43834],[12.3056,45.43983]]]]},"properties":{"zona":"B25","linkzona":"VE00001335","fascia":"B","fascia_label":"Centrale","descr":"SANTA CROCE","semestre":"2025-S2","loc_min":8.0,"loc_max":13.0,"loc_mid":10.5,"sale_min":3400.0,"sale_max":4900.0,"sup":"L","tipologia":"Abitazioni civili","stato":"NORMALE","ott_min":12.0,"ott_max":17.5,"trend":0.0,"trend_from":"2023-S2"}},{"type":"Feature","geometry":{"type":"Polygon","coordinates":[[[12.35051,45.43209],[12.35073,45.43189],[12.35465,45.43009],[12.35589,45.42936],[12.35795,45.42742],[12.35868,45.42694],[12.3591,45.42766],[12.35992,45.42828],[12.36026,45.4296],[12.3596,45.43019],[12.35947,45.43213],[12.36173,45.4328],[12.36173,45.43287],[12.36168,45.43297],[12.3614,45.43342],[12.36143,45.43444],[12.36063,45.43532],[12.35979,45.43557],[12.35924,45.43659],[12.36201,45.43806],[12.36322,45.43824],[12.36317,45.43981],[12.36233,45.44092],[12.36034,45.44061],[12.35909,45.44008],[12.35698,45.43879],[12.35681,45.4386],[12.35401,45.43817],[12.35298,45.4384],[12.34711,45.43944],[12.34628,45.43989],[12.34595,45.43832],[12.34634,45.43794],[12.34806,45.43779],[12.35011,45.43707],[12.34958,45.43626],[12.34891,45.43494],[12.35008,45.43487],[12.35025,45.43465],[12.3499,45.43325],[12.35062,45.43279],[12.35051,45.43209]]]},"properties":{"zona":"B21","linkzona":"VE00001331","fascia":"B","fascia_label":"Centrale","descr":"CASTELLO EST","semestre":"2025-S2","loc_min":8.5,"loc_max":13.0,"loc_mid":10.75,"sale_min":3100.0,"sale_max":3900.0,"sup":"L","tipologia":"Abitazioni civili","stato":"NORMALE","ott_min":11.0,"ott_max":16.5,"trend":0.0,"trend_from":"2023-S2"}},{"type":"Feature","geometry":{"type":"Polygon","coordinates":[[[12.40349,45.53693],[12.40285,45.53716],[12.40154,45.53723],[12.40061,45.53748],[12.39974,45.5381],[12.39905,45.5384],[12.39807,45.53853],[12.39743,45.53884],[12.39708,45.53944],[12.39653,45.53985],[12.39496,45.54051],[12.39471,45.54075],[12.39488,45.54153],[12.39467,45.54184],[12.39348,45.54216],[12.39261,45.54194],[12.39193,45.54119],[12.39095,45.54081],[12.38932,45.54091],[12.38836,45.54065],[12.38636,45.53978],[12.38618,45.53936],[12.38647,45.53874],[12.38649,45.53808],[12.3861,45.53801],[12.38367,45.53857],[12.38243,45.53871],[12.3814,45.53848],[12.38008,45.53763],[12.37927,45.53666],[12.37845,45.5364],[12.37627,45.53635],[12.37449,45.53568],[12.3732,45.53543],[12.37227,45.53492],[12.37082,45.53472],[12.37018,45.53489],[12.36892,45.53562],[12.36844,45.53558],[12.36735,45.53487],[12.36671,45.53473],[12.36522,45.53492],[12.36425,45.53471],[12.36409,45.53412],[12.3651,45.53318],[12.36502,45.53277],[12.36525,45.53178],[12.36573,45.53113],[12.37806,45.53302],[12.38043,45.5334],[12.38241,45.53137],[12.38585,45.53049],[12.38542,45.53024],[12.38196,45.53111],[12.37999,45.53311],[12.3776,45.53273],[12.36532,45.53084],[12.36481,45.5315],[12.36462,45.53233],[12.36387,45.5322],[12.36255,45.53233],[12.36193,45.53222],[12.36087,45.53171],[12.36013,45.53161],[12.36019,45.53233],[12.36,45.53346],[12.35928,45.53389],[12.35871,45.53389],[12.35745,45.53309],[12.3568,45.53299],[12.35505,45.53326],[12.35341,45.53314],[12.35198,45.53334],[12.34952,45.53412],[12.34879,45.53405],[12.34832,45.53314],[12.34767,45.53285],[12.34603,45.53421],[12.34555,45.53423],[12.34466,45.53334],[12.34394,45.53297],[12.34301,45.53323],[12.33972,45.53341],[12.33927,45.53353],[12.3381,45.53422],[12.33728,45.53412],[12.33606,45.53455],[12.33287,45.53528],[12.33245,45.53521],[12.33144,45.53464],[12.33083,45.53366],[12.32942,45.533],[12.3281,45.53283],[12.32547,45.53346],[12.32417,45.53341],[12.32298,45.53351],[12.32133,45.53293],[12.32129,45.53348],[12.32179,45.5344],[12.32343,45.5378],[12.3244,45.5396],[12.32401,45.53984],[12.32328,45.53974],[12.32258,45.54017],[12.32157,45.54026],[12.32061,45.53989],[12.32047,45.53951],[12.31985,45.5392],[12.31945,45.53947],[12.31924,45.54007],[12.31699,45.53915],[12.31679,45.5384],[12.31595,45.53818],[12.31615,45.53882],[12.31564,45.53897],[12.31426,45.53888],[12.31423,45.53926],[12.31338,45.53936],[12.31288,45.53982],[12.3129,45.54031],[12.31156,45.54032],[12.31089,45.54066],[12.31018,45.54055],[12.30948,45.54143],[12.30905,45.54135],[12.30716,45.54186],[12.30661,45.5425],[12.30564,45.54249],[12.30245,45.539],[12.30187,45.53777],[12.30185,45.53706],[12.30284,45.53358],[12.30347,45.53378],[12.30436,45.53371],[12.30466,45.53313],[12.30514,45.53315],[12.30566,45.5323],[12.30509,45.53213],[12.3052,45.53148],[12.30608,45.53161],[12.30653,45.53043],[12.30563,45.53025],[12.30582,45.5297],[12.30732,45.53004],[12.30722,45.52923],[12.3093,45.52908],[12.30966,45.52945],[12.31017,45.52892],[12.31105,45.52892],[12.3114,45.52829],[12.31057,45.52825],[12.30963,45.5277],[12.30932,45.52644],[12.30845,45.52628],[12.30839,45.52575],[12.30778,45.52579],[12.30771,45.5252],[12.3088,45.52523],[12.309,45.52429],[12.30812,45.52436],[12.3077,45.52479],[12.30746,45.52337],[12.30723,45.52317],[12.30625,45.52045],[12.30534,45.51812],[12.30535,45.51646],[12.30571,45.51579],[12.30574,45.51461],[12.30552,45.51396],[12.3036,45.51351],[12.30216,45.514],[12.30084,45.51428],[12.30054,45.51371],[12.29908,45.51392],[12.29901,45.51369],[12.30062,45.51345],[12.30032,45.51292],[12.29904,45.51307],[12.29871,45.51175],[12.30034,45.51157],[12.29911,45.51108],[12.29847,45.51116],[12.29809,45.50963],[12.29832,45.50951],[12.29846,45.50797],[12.29828,45.50795],[12.29832,45.50633],[12.30254,45.50607],[12.30427,45.50562],[12.30442,45.50616],[12.30526,45.50607],[12.30645,45.50615],[12.30692,45.50802],[12.30873,45.50793],[12.3114,45.50795],[12.31113,45.50627],[12.31078,45.50487],[12.31954,45.50414],[12.31963,45.50492],[12.32088,45.50483],[12.32099,45.50577],[12.322,45.50571],[12.32229,45.50515],[12.32413,45.50501],[12.32403,45.5039],[12.3265,45.50366],[12.32572,45.50564],[12.32511,45.5067],[12.32446,45.50735],[12.32284,45.50832],[12.32107,45.50969],[12.32122,45.51249],[12.32151,45.51249],[12.32366,45.51299],[12.32747,45.51284],[12.32818,45.51085],[12.32804,45.50984],[12.32713,45.50953],[12.32762,45.50853],[12.33086,45.50578],[12.33232,45.50675],[12.33158,45.50739],[12.33308,45.50834],[12.33249,45.50887],[12.33382,45.50963],[12.33346,45.50985],[12.33658,45.5119],[12.33877,45.5129],[12.33987,45.51323],[12.34247,45.5146],[12.34314,45.51468],[12.35048,45.51466],[12.35352,45.51825],[12.35409,45.51864],[12.35531,45.51798],[12.35561,45.51798],[12.35648,45.51865],[12.35705,45.51879],[12.35755,45.51901],[12.36089,45.51702],[12.36116,45.51704],[12.3649,45.5184],[12.36768,45.51954],[12.37261,45.52147],[12.37378,45.52111],[12.37659,45.5206],[12.38266,45.51964],[12.38368,45.51951],[12.38453,45.51907],[12.38601,45.51875],[12.38813,45.51878],[12.38857,45.51777],[12.38916,45.51732],[12.39047,45.517],[12.39248,45.51816],[12.39367,45.51901],[12.39376,45.52001],[12.39356,45.52045],[12.3938,45.52113],[12.39402,45.523],[12.39433,45.52373],[12.39459,45.52554],[12.39423,45.52679],[12.39453,45.52746],[12.39549,45.52867],[12.39589,45.53063],[12.39588,45.53159],[12.39564,45.53237],[12.39697,45.53289],[12.39795,45.53224],[12.39848,45.53163],[12.40037,45.53192],[12.40087,45.53246],[12.40103,45.53336],[12.40085,45.5341],[12.40108,45.53468],[12.40266,45.5352],[12.40304,45.53552],[12.40318,45.53691],[12.40349,45.53693]]]},"properties":{"zona":"R6","linkzona":"VE00001926","fascia":"R","fascia_label":"Extraurbana","descr":"ZONA RURALE","semestre":"2025-S2","loc_min":null,"loc_max":null,"loc_mid":null,"sale_min":700.0,"sale_max":1300.0}},{"type":"Feature","geometry":{"type":"Polygon","coordinates":[[[12.2112,45.48601],[12.20992,45.48625],[12.20909,45.48628],[12.2067,45.4866],[12.20591,45.48612],[12.20557,45.4855],[12.20468,45.48589],[12.2041,45.48569],[12.20326,45.4857],[12.20021,45.48639],[12.19879,45.48626],[12.19817,45.48657],[12.19563,45.48654],[12.19464,45.48665],[12.19288,45.48623],[12.19188,45.48636],[12.19075,45.48669],[12.18901,45.48692],[12.18779,45.48672],[12.18772,45.48608],[12.18614,45.48612],[12.18477,45.48638],[12.18369,45.48693],[12.18312,45.48676],[12.18187,45.4871],[12.18141,45.4861],[12.18158,45.48592],[12.18004,45.48377],[12.18016,45.48307],[12.17928,45.48156],[12.17892,45.48047],[12.17995,45.48037],[12.18069,45.48002],[12.18015,45.47905],[12.18224,45.47772],[12.18259,45.4779],[12.18316,45.47792],[12.18418,45.47764],[12.18441,45.47807],[12.18557,45.47776],[12.18743,45.47785],[12.19232,45.47892],[12.19537,45.47955],[12.19617,45.47892],[12.19799,45.47932],[12.19817,45.48017],[12.19867,45.48032],[12.20571,45.48197],[12.20987,45.48297],[12.21263,45.48356],[12.21481,45.48395],[12.21889,45.48441],[12.21935,45.48428],[12.21967,45.48579],[12.21896,45.48677],[12.21832,45.48703],[12.21698,45.48657],[12.21531,45.48654],[12.21341,45.48626],[12.21218,45.48659],[12.2112,45.48601]]]},"properties":{"zona":"E20","linkzona":"VE00001356","fascia":"E","fascia_label":"Suburbana","descr":"CHIRIGNAGO CENTRO","semestre":"2025-S2","loc_min":null,"loc_max":null,"loc_mid":null,"sale_min":1150.0,"sale_max":1450.0}},{"type":"Feature","geometry":{"type":"Polygon","coordinates":[[[12.27126,45.50094],[12.27261,45.5006],[12.27319,45.50015],[12.27405,45.49998],[12.27515,45.50019],[12.27527,45.50068],[12.27478,45.50123],[12.27585,45.50172],[12.27644,45.50161],[12.27765,45.50082],[12.27806,45.50089],[12.27953,45.50175],[12.27987,45.50232],[12.28147,45.50056],[12.2833,45.50113],[12.28483,45.50201],[12.28591,45.50024],[12.28652,45.49981],[12.28663,45.50029],[12.2861,45.5022],[12.28789,45.50258],[12.28817,45.50352],[12.29082,45.50396],[12.29109,45.50434],[12.29182,45.50415],[12.29345,45.5041],[12.29488,45.50389],[12.29521,45.50558],[12.29526,45.50652],[12.29486,45.50735],[12.29398,45.50737],[12.29225,45.50766],[12.2924,45.50889],[12.29273,45.51014],[12.29462,45.50987],[12.2955,45.5116],[12.29506,45.51196],[12.29585,45.51346],[12.29615,45.51344],[12.297,45.51538],[12.29463,45.51592],[12.29495,45.51676],[12.29372,45.51728],[12.29205,45.51781],[12.29175,45.51754],[12.291,45.51624],[12.28834,45.51661],[12.28674,45.51677],[12.28446,45.51724],[12.28303,45.51458],[12.27921,45.51522],[12.27795,45.51548],[12.27718,45.51493],[12.27675,45.51304],[12.27633,45.51333],[12.27541,45.51351],[12.27466,45.51388],[12.27217,45.5147],[12.27011,45.51529],[12.26891,45.51316],[12.26849,45.51209],[12.26851,45.51168],[12.26971,45.51168],[12.2707,45.51131],[12.27024,45.50951],[12.26986,45.50864],[12.26945,45.50821],[12.26954,45.50697],[12.26917,45.50616],[12.26841,45.50521],[12.26812,45.50408],[12.26802,45.5029],[12.26807,45.50196],[12.26921,45.50164],[12.26985,45.5013],[12.27126,45.50094]]]},"properties":{"zona":"E21","linkzona":"VE00001357","fascia":"E","fascia_label":"Suburbana","descr":"FAVARO CENTRO","semestre":"2025-S2","loc_min":null,"loc_max":null,"loc_mid":null,"sale_min":1200.0,"sale_max":1500.0}},{"type":"Feature","geometry":{"type":"Polygon","coordinates":[[[12.2306,45.50947],[12.22762,45.5094],[12.22486,45.50957],[12.22372,45.50986],[12.22277,45.51036],[12.22166,45.51071],[12.22075,45.51118],[12.2209,45.51148],[12.21875,45.51295],[12.22071,45.51551],[12.22147,45.51677],[12.22299,45.51631],[12.22407,45.5183],[12.22236,45.51855],[12.22299,45.5199],[12.22287,45.52015],[12.22182,45.52093],[12.22001,45.52147],[12.21922,45.52066],[12.21879,45.5208],[12.21858,45.52181],[12.21685,45.52236],[12.21638,45.52226],[12.21479,45.52233],[12.21351,45.52249],[12.21245,45.52231],[12.21137,45.52293],[12.21155,45.52325],[12.21059,45.52372],[12.21007,45.52436],[12.20913,45.52465],[12.20885,45.52559],[12.20769,45.52594],[12.20561,45.52701],[12.20353,45.52712],[12.20286,45.5269],[12.20184,45.52546],[12.20352,45.52504],[12.2025,45.52357],[12.20225,45.52349],[12.20107,45.52214],[12.20043,45.52125],[12.19883,45.52018],[12.19854,45.51978],[12.19815,45.51938],[12.19861,45.51904],[12.19828,45.51865],[12.19879,45.51834],[12.19855,45.51786],[12.19934,45.51783],[12.19935,45.51745],[12.1999,45.51712],[12.19834,45.51557],[12.19477,45.51262],[12.19363,45.51322],[12.19289,45.51248],[12.1933,45.5122],[12.19192,45.51115],[12.19114,45.51082],[12.19113,45.51041],[12.19163,45.51008],[12.19157,45.50973],[12.19209,45.5092],[12.19182,45.50845],[12.19267,45.50822],[12.19344,45.50779],[12.19449,45.50783],[12.19364,45.50641],[12.1954,45.50574],[12.19557,45.50593],[12.1967,45.50569],[12.19634,45.50507],[12.19827,45.50429],[12.19924,45.50509],[12.20029,45.50577],[12.19923,45.50629],[12.20048,45.50739],[12.20099,45.50695],[12.20193,45.50677],[12.20307,45.50687],[12.20343,45.50715],[12.20497,45.50648],[12.20565,45.50665],[12.2067,45.50625],[12.20739,45.5057],[12.20807,45.50593],[12.2089,45.50583],[12.20959,45.50539],[12.21056,45.50611],[12.21121,45.50631],[12.21184,45.50682],[12.21289,45.50671],[12.21345,45.50607],[12.21418,45.50618],[12.21456,45.50586],[12.21503,45.50568],[12.21587,45.5048],[12.21633,45.5034],[12.21756,45.50264],[12.21761,45.5018],[12.21913,45.50192],[12.21869,45.50121],[12.21922,45.50068],[12.2203,45.50091],[12.2211,45.50059],[12.22129,45.4996],[12.22314,45.49905],[12.22453,45.49891],[12.22571,45.49969],[12.22607,45.49974],[12.22688,45.49909],[12.22682,45.49865],[12.22799,45.49812],[12.22866,45.49836],[12.2289,45.49908],[12.22997,45.49905],[12.22877,45.50034],[12.22875,45.50077],[12.23082,45.50529],[12.23079,45.50564],[12.22962,45.50702],[12.22949,45.50755],[12.2306,45.50947]]]},"properties":{"zona":"E22","linkzona":"VE00001358","fascia":"E","fascia_label":"Suburbana","descr":"ZELARINO CENTRO","semestre":"2025-S2","loc_min":null,"loc_max":null,"loc_mid":null,"sale_min":1250.0,"sale_max":1600.0}},{"type":"Feature","geometry":{"type":"Polygon","coordinates":[[[12.22502,45.48315],[12.22558,45.48323],[12.22949,45.48226],[12.22968,45.48201],[12.23144,45.48155],[12.23209,45.48181],[12.23443,45.48126],[12.23497,45.48131],[12.23747,45.48068],[12.23746,45.48066],[12.23849,45.48054],[12.24352,45.47931],[12.24375,45.47966],[12.2448,45.47964],[12.24644,45.47985],[12.24697,45.48008],[12.24725,45.48078],[12.24803,45.48147],[12.24922,45.48279],[12.24728,45.48398],[12.24785,45.48475],[12.24625,45.48549],[12.24737,45.48753],[12.24692,45.48774],[12.24752,45.48849],[12.24715,45.48876],[12.24533,45.48945],[12.24324,45.49003],[12.2438,45.49117],[12.24422,45.49106],[12.24386,45.49037],[12.24599,45.48977],[12.24734,45.48925],[12.24813,45.4888],[12.24753,45.48806],[12.24798,45.48783],[12.24674,45.48598],[12.24712,45.48565],[12.24827,45.48519],[12.25003,45.48732],[12.2508,45.48784],[12.25237,45.48857],[12.25333,45.48975],[12.25476,45.49123],[12.25433,45.49168],[12.25353,45.49186],[12.25439,45.49249],[12.25352,45.49303],[12.25293,45.49386],[12.25337,45.49498],[12.25427,45.4961],[12.25367,45.49617],[12.25445,45.49705],[12.25377,45.4974],[12.25551,45.49925],[12.25601,45.49898],[12.25653,45.49961],[12.25761,45.49912],[12.25772,45.49943],[12.2587,45.4993],[12.2594,45.50138],[12.25995,45.50248],[12.25989,45.50304],[12.25896,45.50389],[12.2599,45.50424],[12.26026,45.50511],[12.25815,45.50558],[12.25857,45.50643],[12.25747,45.50678],[12.25651,45.5075],[12.25601,45.50731],[12.25267,45.50845],[12.25227,45.50782],[12.2501,45.5084],[12.24811,45.50701],[12.24786,45.5065],[12.24688,45.50666],[12.24594,45.50711],[12.24472,45.50743],[12.24268,45.50713],[12.24272,45.50663],[12.24227,45.50614],[12.24199,45.50345],[12.241,45.50347],[12.24109,45.50213],[12.23749,45.49961],[12.23706,45.49952],[12.23482,45.49798],[12.23377,45.49763],[12.23339,45.49711],[12.23251,45.49677],[12.23144,45.49599],[12.23156,45.49562],[12.22888,45.49387],[12.22895,45.49378],[12.22765,45.49266],[12.22735,45.49222],[12.22528,45.49036],[12.22377,45.49012],[12.22297,45.48922],[12.22312,45.48817],[12.22389,45.48609],[12.22423,45.48555],[12.22528,45.48449],[12.22455,45.48408],[12.2207,45.4844],[12.22057,45.48385],[12.22155,45.48379],[12.22502,45.48315]]]},"properties":{"zona":"E23","linkzona":"VE00001359","fascia":"E","fascia_label":"Suburbana","descr":"MESTRE CENTRO","semestre":"2025-S2","loc_min":6.5,"loc_max":8.5,"loc_mid":7.5,"sale_min":1650.0,"sale_max":1850.0,"sup":"L","tipologia":"Abitazioni civili","stato":"NORMALE","ott_min":8.5,"ott_max":12.5,"trend":3.4,"trend_from":"2023-S2"}},{"type":"Feature","geometry":{"type":"MultiPolygon","coordinates":[[[[12.28757,45.46878],[12.28633,45.46809],[12.28375,45.47134],[12.27883,45.47766],[12.27718,45.47995],[12.27686,45.48317],[12.2767,45.48349],[12.27797,45.48368],[12.2818,45.48445],[12.28354,45.48475],[12.28384,45.48634],[12.28384,45.48709],[12.28349,45.4882],[12.28363,45.48842],[12.28504,45.48939],[12.28594,45.49062],[12.28581,45.49217],[12.28642,45.49486],[12.28734,45.49615],[12.28647,45.49665],[12.28624,45.49732],[12.28611,45.49848],[12.2858,45.49916],[12.28652,45.49981],[12.28591,45.50024],[12.28483,45.50201],[12.2833,45.50113],[12.28147,45.50056],[12.27987,45.50232],[12.27953,45.50175],[12.27806,45.50089],[12.27765,45.50082],[12.27644,45.50161],[12.27585,45.50172],[12.27478,45.50123],[12.27527,45.50068],[12.27515,45.50019],[12.27405,45.49998],[12.27319,45.50015],[12.27261,45.5006],[12.27126,45.50094],[12.27027,45.4989],[12.2705,45.49891],[12.26909,45.49856],[12.26695,45.49608],[12.2684,45.49546],[12.26757,45.49407],[12.2664,45.49304],[12.26687,45.4927],[12.26653,45.49215],[12.26374,45.48987],[12.26313,45.49035],[12.26143,45.49113],[12.25923,45.49118],[12.25759,45.4915],[12.25678,45.48964],[12.25729,45.48894],[12.2583,45.48789],[12.26374,45.48328],[12.26662,45.48117],[12.26962,45.47918],[12.26953,45.47889],[12.26794,45.47775],[12.26743,45.47726],[12.2671,45.47647],[12.26607,45.47676],[12.26449,45.47689],[12.26364,45.47714],[12.26195,45.47788],[12.25988,45.47904],[12.25832,45.47934],[12.25598,45.47863],[12.25655,45.47808],[12.25587,45.47738],[12.25435,45.47816],[12.25092,45.47653],[12.25071,45.47629],[12.25213,45.47525],[12.25414,45.47361],[12.25518,45.47288],[12.25751,45.4717],[12.26023,45.47081],[12.26235,45.47035],[12.26637,45.46967],[12.26826,45.46928],[12.27075,45.4686],[12.27272,45.46795],[12.2747,45.46716],[12.27664,45.46624],[12.27819,45.46538],[12.28027,45.46433],[12.28192,45.46573],[12.28489,45.46735],[12.28633,45.46809],[12.28757,45.46878]]],[[[12.21456,45.50586],[12.21418,45.50618],[12.21345,45.50607],[12.21289,45.50671],[12.21184,45.50682],[12.21121,45.50631],[12.21056,45.50611],[12.20959,45.50539],[12.2089,45.50583],[12.20807,45.50593],[12.20739,45.5057],[12.2067,45.50625],[12.20565,45.50665],[12.20497,45.50648],[12.20343,45.50715],[12.20307,45.50687],[12.20193,45.50677],[12.20099,45.50695],[12.20048,45.50739],[12.19923,45.50629],[12.20029,45.50577],[12.19924,45.50509],[12.19827,45.50429],[12.19634,45.50507],[12.1967,45.50569],[12.19557,45.50593],[12.1954,45.50574],[12.19364,45.50641],[12.19259,45.50578],[12.1918,45.5046],[12.19221,45.50448],[12.19368,45.50388],[12.1925,45.50216],[12.19481,45.5017],[12.19608,45.50133],[12.19625,45.50099],[12.19688,45.50076],[12.19619,45.49943],[12.19713,45.4992],[12.19735,45.49942],[12.19867,45.49937],[12.19975,45.49965],[12.19994,45.49927],[12.20069,45.49895],[12.19756,45.49427],[12.19728,45.49357],[12.19884,45.49317],[12.19957,45.49319],[12.1987,45.49104],[12.20177,45.49047],[12.20161,45.48962],[12.20021,45.48639],[12.20326,45.4857],[12.2041,45.48569],[12.20468,45.48589],[12.20557,45.4855],[12.20591,45.48612],[12.2067,45.4866],[12.20909,45.48628],[12.20992,45.48625],[12.2112,45.48601],[12.21149,45.48716],[12.2114,45.48864],[12.21175,45.48873],[12.21169,45.49029],[12.21217,45.49285],[12.21317,45.49491],[12.21274,45.49581],[12.21231,45.49625],[12.21114,45.49676],[12.21231,45.49852],[12.21283,45.49899],[12.21401,45.49967],[12.21316,45.5007],[12.21215,45.50148],[12.21145,45.50231],[12.21348,45.5039],[12.21299,45.50444],[12.21456,45.50586]]],[[[12.23409,45.53839],[12.23229,45.53881],[12.23127,45.53877],[12.22974,45.53886],[12.22911,45.53856],[12.22842,45.5386],[12.22828,45.53897],[12.2266,45.5388],[12.22596,45.53888],[12.22532,45.53797],[12.22495,45.53863],[12.2232,45.53879],[12.22195,45.53864],[12.22183,45.53819],[12.22075,45.53823],[12.22038,45.53646],[12.22035,45.53645],[12.22007,45.53652],[12.21996,45.53508],[12.22099,45.53503],[12.22083,45.53385],[12.22229,45.53383],[12.22201,45.53083],[12.22206,45.528],[12.22136,45.52802],[12.22191,45.52609],[12.22234,45.52312],[12.22328,45.524],[12.22491,45.52406],[12.22551,45.52474],[12.22659,45.52513],[12.22727,45.52507],[12.22936,45.5235],[12.23006,45.52253],[12.23183,45.5229],[12.23181,45.52454],[12.23159,45.52481],[12.23153,45.52635],[12.23248,45.52658],[12.23249,45.52765],[12.23443,45.52776],[12.23473,45.53082],[12.23471,45.53308],[12.23477,45.5364],[12.23412,45.53644],[12.23409,45.53839]]],[[[12.25999,45.52517],[12.26125,45.52527],[12.2621,45.52565],[12.26342,45.52654],[12.26655,45.52924],[12.26782,45.53024],[12.26761,45.53118],[12.26601,45.53234],[12.26509,45.53242],[12.26525,45.53353],[12.26452,45.53354],[12.26385,45.53423],[12.26317,45.53442],[12.26263,45.53405],[12.26294,45.53318],[12.2621,45.53306],[12.26054,45.53306],[12.2599,45.53381],[12.26022,45.53451],[12.25989,45.53484],[12.2582,45.53436],[12.25731,45.53368],[12.25646,45.53367],[12.25642,45.53305],[12.25533,45.53218],[12.25421,45.53168],[12.25221,45.53132],[12.25158,45.53086],[12.25053,45.53114],[12.24902,45.53102],[12.24815,45.53064],[12.24722,45.53134],[12.24667,45.53116],[12.24617,45.53059],[12.24582,45.52846],[12.24569,45.52625],[12.24596,45.52613],[12.24577,45.52464],[12.2477,45.52453],[12.24792,45.52598],[12.25003,45.52588],[12.25999,45.52517]]]]},"properties":{"zona":"E24","linkzona":"VE00001360","fascia":"E","fascia_label":"Suburbana","descr":"MESTRE PERIFERIA","semestre":"2025-S2","loc_min":null,"loc_max":null,"loc_mid":null,"sale_min":1100.0,"sale_max":1400.0}},{"type":"Feature","geometry":{"type":"MultiPolygon","coordinates":[[[[12.18259,45.4779],[12.18225,45.4777],[12.18014,45.47906],[12.18066,45.48],[12.17996,45.48034],[12.1789,45.48044],[12.17873,45.4801],[12.17935,45.47982],[12.17785,45.47723],[12.17771,45.4768],[12.17811,45.47613],[12.17909,45.47604],[12.17941,45.47564],[12.18043,45.47564],[12.17911,45.47242],[12.17805,45.46958],[12.17798,45.46779],[12.1785,45.46712],[12.17976,45.46614],[12.18084,45.46582],[12.18103,45.46548],[12.18276,45.46483],[12.18492,45.46482],[12.18551,45.46398],[12.18601,45.46427],[12.18716,45.46407],[12.18822,45.46369],[12.18877,45.46375],[12.18967,45.4635],[12.19073,45.46395],[12.1917,45.46378],[12.19154,45.46315],[12.19212,45.46293],[12.19296,45.46332],[12.19317,45.46268],[12.1938,45.46252],[12.19436,45.46266],[12.19489,45.46236],[12.19656,45.46207],[12.19697,45.46143],[12.19764,45.46149],[12.19845,45.46114],[12.19943,45.46128],[12.19981,45.46177],[12.20042,45.46169],[12.20087,45.46133],[12.2021,45.46116],[12.2031,45.46132],[12.204,45.46011],[12.20459,45.46043],[12.20617,45.4608],[12.20703,45.46033],[12.20798,45.46046],[12.20909,45.45975],[12.20955,45.45972],[12.20966,45.45896],[12.2107,45.45824],[12.21169,45.45811],[12.21218,45.45763],[12.21275,45.45759],[12.21376,45.45668],[12.21702,45.45707],[12.21774,45.45728],[12.21842,45.45779],[12.21882,45.45855],[12.2215,45.45924],[12.22218,45.45953],[12.22299,45.461],[12.22465,45.46391],[12.22351,45.46433],[12.22285,45.46596],[12.22205,45.46733],[12.22039,45.46803],[12.21965,45.46813],[12.21951,45.46946],[12.22116,45.46953],[12.22091,45.47054],[12.22005,45.47173],[12.21948,45.47342],[12.21919,45.4758],[12.21857,45.47688],[12.21804,45.47715],[12.21837,45.47765],[12.21895,45.47915],[12.2177,45.47937],[12.21815,45.47997],[12.21828,45.48159],[12.21905,45.48333],[12.21935,45.48428],[12.21889,45.48441],[12.21481,45.48395],[12.21263,45.48356],[12.20987,45.48297],[12.20571,45.48197],[12.19867,45.48032],[12.19817,45.48017],[12.19799,45.47932],[12.19617,45.47892],[12.19537,45.47955],[12.19232,45.47892],[12.18743,45.47785],[12.18557,45.47776],[12.18441,45.47807],[12.18418,45.47764],[12.18316,45.47792],[12.18259,45.4779]]],[[[12.18312,45.48676],[12.18369,45.48693],[12.18477,45.48638],[12.18614,45.48612],[12.18772,45.48608],[12.18779,45.48672],[12.18901,45.48692],[12.19075,45.48669],[12.19188,45.48636],[12.19288,45.48623],[12.19464,45.48665],[12.19563,45.48654],[12.19817,45.48657],[12.19879,45.48626],[12.20021,45.48639],[12.20161,45.48962],[12.20177,45.49047],[12.1987,45.49104],[12.19957,45.49319],[12.19884,45.49317],[12.19728,45.49357],[12.19756,45.49427],[12.20069,45.49895],[12.19994,45.49927],[12.19975,45.49965],[12.19867,45.49937],[12.19735,45.49942],[12.19713,45.4992],[12.19619,45.49943],[12.19688,45.50076],[12.19625,45.50099],[12.19608,45.50133],[12.19481,45.5017],[12.1925,45.50216],[12.19368,45.50388],[12.19221,45.50448],[12.19091,45.5048],[12.1897,45.50531],[12.19111,45.50722],[12.19207,45.50811],[12.19071,45.50815],[12.18937,45.50777],[12.18867,45.50736],[12.18754,45.50745],[12.18613,45.50819],[12.18553,45.50775],[12.18473,45.5076],[12.18628,45.51071],[12.18499,45.51036],[12.18469,45.51146],[12.18426,45.51156],[12.18247,45.51118],[12.18031,45.5112],[12.17991,45.51076],[12.18081,45.51035],[12.18178,45.51027],[12.18139,45.50888],[12.18105,45.50827],[12.18026,45.50739],[12.17967,45.50762],[12.17917,45.50692],[12.17724,45.50754],[12.17587,45.50787],[12.17424,45.50583],[12.17338,45.50556],[12.17151,45.5038],[12.16956,45.50223],[12.16864,45.50164],[12.16682,45.49997],[12.1679,45.49965],[12.16868,45.49994],[12.17009,45.49989],[12.17174,45.49877],[12.17226,45.49933],[12.17177,45.4996],[12.17406,45.50175],[12.17567,45.50295],[12.17957,45.5068],[12.18055,45.50652],[12.18151,45.50588],[12.17957,45.50385],[12.17955,45.50367],[12.17761,45.50164],[12.17688,45.50209],[12.17485,45.50011],[12.17533,45.49966],[12.17431,45.49839],[12.17374,45.49861],[12.17295,45.49761],[12.17214,45.49681],[12.17144,45.49577],[12.17243,45.49543],[12.17211,45.49486],[12.17255,45.49408],[12.17344,45.4942],[12.17363,45.49378],[12.17562,45.49382],[12.17653,45.49367],[12.17605,45.49307],[12.17692,45.49265],[12.17714,45.49194],[12.17877,45.4913],[12.17882,45.49066],[12.17942,45.4904],[12.1794,45.48971],[12.18025,45.48866],[12.18195,45.488],[12.18253,45.48695],[12.18312,45.48676]]]]},"properties":{"zona":"E25","linkzona":"VE00001361","fascia":"E","fascia_label":"Suburbana","descr":"CHIRIGNAGO PERIFERIA","semestre":"2025-S2","loc_min":null,"loc_max":null,"loc_mid":null,"sale_min":1050.0,"sale_max":1350.0}},{"type":"Feature","geometry":{"type":"Polygon","coordinates":[[[12.30564,45.54249],[12.30523,45.54266],[12.30429,45.54247],[12.30429,45.54331],[12.30342,45.54389],[12.30152,45.54426],[12.30118,45.54452],[12.30047,45.54438],[12.29998,45.54454],[12.29977,45.54523],[12.29873,45.54516],[12.29855,45.54571],[12.29782,45.54581],[12.29664,45.54364],[12.2963,45.5425],[12.29544,45.54268],[12.29492,45.5412],[12.29282,45.53931],[12.29218,45.53944],[12.29069,45.53844],[12.29092,45.53745],[12.28925,45.53726],[12.28799,45.53639],[12.28732,45.53723],[12.28697,45.53803],[12.28741,45.54007],[12.28748,45.54117],[12.28597,45.5418],[12.28634,45.54317],[12.28576,45.54339],[12.28367,45.54356],[12.28219,45.54297],[12.28208,45.54211],[12.28122,45.5408],[12.28078,45.53922],[12.2804,45.53718],[12.2813,45.5365],[12.28139,45.5358],[12.28075,45.53559],[12.28015,45.53514],[12.27991,45.53584],[12.27843,45.53559],[12.27777,45.53574],[12.27722,45.53627],[12.27628,45.53632],[12.27583,45.53666],[12.2747,45.53617],[12.27433,45.53662],[12.27364,45.53677],[12.27347,45.53626],[12.27174,45.53346],[12.27149,45.53255],[12.2688,45.53341],[12.26526,45.53381],[12.26541,45.53332],[12.26509,45.53242],[12.26601,45.53234],[12.26761,45.53118],[12.26782,45.53024],[12.26655,45.52924],[12.26342,45.52654],[12.2621,45.52565],[12.26125,45.52527],[12.25999,45.52517],[12.25894,45.52137],[12.25853,45.52013],[12.25926,45.51945],[12.25922,45.51888],[12.25993,45.51882],[12.26034,45.51841],[12.26115,45.51816],[12.26249,45.51801],[12.26304,45.51738],[12.26449,45.51759],[12.26592,45.5174],[12.26621,45.51681],[12.2685,45.51586],[12.27011,45.51529],[12.27217,45.5147],[12.27466,45.51388],[12.27541,45.51351],[12.27633,45.51333],[12.27675,45.51304],[12.27718,45.51493],[12.27795,45.51548],[12.27921,45.51522],[12.28303,45.51458],[12.28446,45.51724],[12.28674,45.51677],[12.28834,45.51661],[12.291,45.51624],[12.29175,45.51754],[12.29205,45.51781],[12.29372,45.51728],[12.29495,45.51676],[12.29463,45.51592],[12.297,45.51538],[12.29615,45.51344],[12.29585,45.51346],[12.29506,45.51196],[12.2955,45.5116],[12.29462,45.50987],[12.29273,45.51014],[12.2924,45.50889],[12.29225,45.50766],[12.29398,45.50737],[12.29486,45.50735],[12.29526,45.50652],[12.29521,45.50558],[12.29488,45.50389],[12.29345,45.5041],[12.29182,45.50415],[12.29109,45.50434],[12.29082,45.50396],[12.28817,45.50352],[12.28789,45.50258],[12.2861,45.5022],[12.28663,45.50029],[12.28652,45.49981],[12.2858,45.49916],[12.28611,45.49848],[12.28624,45.49732],[12.28647,45.49665],[12.28734,45.49615],[12.28642,45.49486],[12.28581,45.49217],[12.28594,45.49062],[12.28504,45.48939],[12.28363,45.48842],[12.28349,45.4882],[12.28384,45.48709],[12.28384,45.48634],[12.28354,45.48475],[12.2818,45.48445],[12.27797,45.48368],[12.2767,45.48349],[12.27686,45.48317],[12.27718,45.47995],[12.27883,45.47766],[12.28375,45.47134],[12.28633,45.46809],[12.28757,45.46878],[12.28895,45.46955],[12.29214,45.47072],[12.30163,45.47424],[12.31366,45.47868],[12.32355,45.48226],[12.33397,45.48601],[12.33162,45.48829],[12.33119,45.48878],[12.32844,45.49036],[12.32852,45.49086],[12.32933,45.4919],[12.32977,45.49215],[12.33081,45.49388],[12.3314,45.49462],[12.33221,45.49507],[12.33264,45.49604],[12.33348,45.49675],[12.33376,45.49766],[12.33326,45.49823],[12.33403,45.4988],[12.33513,45.49936],[12.33829,45.50128],[12.33906,45.50179],[12.34274,45.504],[12.34368,45.50469],[12.34514,45.50553],[12.34811,45.50742],[12.3492,45.50827],[12.35038,45.50894],[12.35654,45.51279],[12.35777,45.51373],[12.35991,45.51606],[12.36059,45.51671],[12.35705,45.51879],[12.35648,45.51865],[12.35561,45.51798],[12.35531,45.51798],[12.35409,45.51864],[12.35352,45.51825],[12.35048,45.51466],[12.34314,45.51468],[12.34247,45.5146],[12.33987,45.51323],[12.33877,45.5129],[12.33658,45.5119],[12.33346,45.50985],[12.33382,45.50963],[12.33249,45.50887],[12.33308,45.50834],[12.33158,45.50739],[12.33232,45.50675],[12.33086,45.50578],[12.32762,45.50853],[12.32713,45.50953],[12.32804,45.50984],[12.32818,45.51085],[12.32747,45.51284],[12.32366,45.51299],[12.32151,45.51249],[12.32122,45.51249],[12.32107,45.50969],[12.32284,45.50832],[12.32446,45.50735],[12.32511,45.5067],[12.32572,45.50564],[12.3265,45.50366],[12.32403,45.5039],[12.32413,45.50501],[12.32229,45.50515],[12.322,45.50571],[12.32099,45.50577],[12.32088,45.50483],[12.31963,45.50492],[12.31954,45.50414],[12.31078,45.50487],[12.31113,45.50627],[12.3114,45.50795],[12.30873,45.50793],[12.30692,45.50802],[12.30645,45.50615],[12.30526,45.50607],[12.30442,45.50616],[12.30427,45.50562],[12.30254,45.50607],[12.29832,45.50633],[12.29828,45.50795],[12.29846,45.50797],[12.29832,45.50951],[12.29809,45.50963],[12.29847,45.51116],[12.29911,45.51108],[12.30034,45.51157],[12.29871,45.51175],[12.29904,45.51307],[12.30032,45.51292],[12.30062,45.51345],[12.29901,45.51369],[12.29908,45.51392],[12.30054,45.51371],[12.30084,45.51428],[12.30216,45.514],[12.3036,45.51351],[12.30552,45.51396],[12.30574,45.51461],[12.30571,45.51579],[12.30535,45.51646],[12.30534,45.51812],[12.30625,45.52045],[12.30723,45.52317],[12.30746,45.52337],[12.3077,45.52479],[12.30812,45.52436],[12.309,45.52429],[12.3088,45.52523],[12.30771,45.5252],[12.30778,45.52579],[12.30839,45.52575],[12.30845,45.52628],[12.30932,45.52644],[12.30963,45.5277],[12.31057,45.52825],[12.3114,45.52829],[12.31105,45.52892],[12.31017,45.52892],[12.30966,45.52945],[12.3093,45.52908],[12.30722,45.52923],[12.30732,45.53004],[12.30582,45.5297],[12.30563,45.53025],[12.30653,45.53043],[12.30608,45.53161],[12.3052,45.53148],[12.30509,45.53213],[12.30566,45.5323],[12.30514,45.53315],[12.30466,45.53313],[12.30436,45.53371],[12.30347,45.53378],[12.30284,45.53358],[12.30185,45.53706],[12.30187,45.53777],[12.30245,45.539],[12.30564,45.54249]]]},"properties":{"zona":"E26","linkzona":"VE00001362","fascia":"E","fascia_label":"Suburbana","descr":"FAVARO PERIFERIA","semestre":"2025-S2","loc_min":null,"loc_max":null,"loc_mid":null,"sale_min":1000.0,"sale_max":1350.0}},{"type":"Feature","geometry":{"type":"Polygon","coordinates":[[[12.21376,45.45668],[12.21275,45.45759],[12.21218,45.45763],[12.21169,45.45811],[12.2107,45.45824],[12.20966,45.45896],[12.20955,45.45972],[12.20909,45.45975],[12.20798,45.46046],[12.20703,45.46033],[12.20617,45.4608],[12.20459,45.46043],[12.204,45.46011],[12.2031,45.46132],[12.2021,45.46116],[12.20087,45.46133],[12.20042,45.46169],[12.19981,45.46177],[12.19943,45.46128],[12.19845,45.46114],[12.19764,45.46149],[12.19697,45.46143],[12.19656,45.46207],[12.19489,45.46236],[12.19436,45.46266],[12.1938,45.46252],[12.19317,45.46268],[12.19296,45.46332],[12.19212,45.46293],[12.19154,45.46315],[12.1917,45.46378],[12.19073,45.46395],[12.18967,45.4635],[12.18898,45.46366],[12.18801,45.4627],[12.18678,45.46177],[12.18521,45.46079],[12.1848,45.45939],[12.18478,45.45777],[12.18283,45.4579],[12.18162,45.45811],[12.18063,45.45791],[12.18036,45.45712],[12.17953,45.454],[12.17913,45.45307],[12.18048,45.4525],[12.18182,45.45173],[12.18344,45.45124],[12.18409,45.45059],[12.1847,45.44917],[12.18519,45.44889],[12.18664,45.44892],[12.18862,45.44938],[12.18923,45.4493],[12.19136,45.44853],[12.19243,45.44788],[12.19257,45.44714],[12.1918,45.44616],[12.19181,45.44565],[12.19219,45.4449],[12.19216,45.44379],[12.19241,45.44341],[12.19453,45.44175],[12.19516,45.4414],[12.19617,45.44114],[12.19775,45.44122],[12.19843,45.44097],[12.19891,45.44014],[12.19985,45.43927],[12.19964,45.43849],[12.19997,45.43808],[12.20128,45.43767],[12.20208,45.43724],[12.20267,45.43611],[12.20346,45.43586],[12.20481,45.43612],[12.20467,45.43652],[12.2064,45.43981],[12.2072,45.44074],[12.20823,45.44165],[12.20908,45.44282],[12.21015,45.44479],[12.20899,45.44535],[12.20872,45.44576],[12.20921,45.44689],[12.20935,45.44807],[12.21028,45.44907],[12.21066,45.45029],[12.21044,45.451],[12.21084,45.4515],[12.21134,45.45432],[12.2115,45.4564],[12.21376,45.45668]]]},"properties":{"zona":"E27","linkzona":"VE00001363","fascia":"E","fascia_label":"Suburbana","descr":"MALCONTENTA","semestre":"2025-S2","loc_min":null,"loc_max":null,"loc_mid":null,"sale_min":1000.0,"sale_max":1300.0}},{"type":"Feature","geometry":{"type":"Polygon","coordinates":[[[12.23006,45.52253],[12.22936,45.5235],[12.22727,45.52507],[12.22659,45.52513],[12.22551,45.52474],[12.22491,45.52406],[12.22328,45.524],[12.22234,45.52312],[12.22191,45.52609],[12.22136,45.52802],[12.22206,45.528],[12.22201,45.53083],[12.22229,45.53383],[12.22083,45.53385],[12.22099,45.53503],[12.21996,45.53508],[12.22007,45.53652],[12.22036,45.53646],[12.22072,45.53824],[12.2195,45.53809],[12.21897,45.53783],[12.218,45.53807],[12.2167,45.53776],[12.21536,45.53726],[12.21288,45.53799],[12.21274,45.53874],[12.21199,45.53877],[12.21153,45.53932],[12.21154,45.53972],[12.2111,45.54057],[12.20954,45.54079],[12.20887,45.54131],[12.20801,45.54109],[12.20772,45.54057],[12.20682,45.5406],[12.20629,45.54108],[12.20572,45.54127],[12.20584,45.54193],[12.20522,45.54263],[12.2045,45.54244],[12.20377,45.54255],[12.20383,45.54314],[12.20438,45.54335],[12.20454,45.54457],[12.20458,45.54704],[12.2042,45.54831],[12.20316,45.54856],[12.20298,45.5474],[12.20157,45.54724],[12.20043,45.54741],[12.1992,45.54742],[12.19902,45.54585],[12.19385,45.54608],[12.19201,45.5463],[12.192,45.54723],[12.19175,45.54781],[12.19178,45.54853],[12.19204,45.54883],[12.19182,45.55093],[12.19062,45.55253],[12.19047,45.55291],[12.18891,45.55321],[12.1886,45.55299],[12.18744,45.55292],[12.18598,45.55303],[12.18483,45.55301],[12.1832,45.55314],[12.18125,45.55318],[12.18077,45.54703],[12.18133,45.54538],[12.18135,45.54428],[12.18072,45.54418],[12.18056,45.54268],[12.17919,45.54281],[12.17906,45.54244],[12.17981,45.5423],[12.17957,45.54053],[12.17917,45.53895],[12.17754,45.53979],[12.17713,45.5399],[12.17676,45.5392],[12.17585,45.5381],[12.17552,45.53793],[12.17499,45.53692],[12.17342,45.53703],[12.17116,45.53458],[12.16872,45.53166],[12.16877,45.53111],[12.16993,45.53092],[12.16991,45.53029],[12.17175,45.53039],[12.17257,45.53018],[12.17399,45.53019],[12.17378,45.52973],[12.17573,45.52967],[12.17598,45.52921],[12.17684,45.52921],[12.17749,45.52902],[12.17838,45.52825],[12.1792,45.52824],[12.17936,45.52915],[12.17995,45.52827],[12.18095,45.52812],[12.18102,45.52773],[12.18206,45.52809],[12.1832,45.52787],[12.18336,45.52731],[12.18282,45.52596],[12.18192,45.52578],[12.18147,45.52485],[12.18147,45.52389],[12.183,45.5245],[12.18433,45.52443],[12.18484,45.52457],[12.18602,45.52426],[12.18635,45.52375],[12.18622,45.52321],[12.18755,45.52284],[12.18829,45.52331],[12.18887,45.52294],[12.18934,45.52201],[12.19077,45.52131],[12.19186,45.52095],[12.19373,45.5196],[12.19363,45.51928],[12.19444,45.51884],[12.19607,45.51879],[12.19783,45.51937],[12.19854,45.51978],[12.19883,45.52018],[12.20043,45.52125],[12.20107,45.52214],[12.20225,45.52349],[12.2025,45.52357],[12.20352,45.52504],[12.20184,45.52546],[12.20286,45.5269],[12.20353,45.52712],[12.20561,45.52701],[12.20769,45.52594],[12.20885,45.52559],[12.20913,45.52465],[12.21007,45.52436],[12.21059,45.52372],[12.21155,45.52325],[12.21137,45.52293],[12.21245,45.52231],[12.21351,45.52249],[12.21479,45.52233],[12.21638,45.52226],[12.21685,45.52236],[12.21858,45.52181],[12.21879,45.5208],[12.21922,45.52066],[12.22001,45.52147],[12.22182,45.52093],[12.22287,45.52015],[12.22299,45.5199],[12.22236,45.51855],[12.22407,45.5183],[12.22299,45.51631],[12.22147,45.51677],[12.22071,45.51551],[12.21875,45.51295],[12.2209,45.51148],[12.22075,45.51118],[12.22166,45.51071],[12.22277,45.51036],[12.22372,45.50986],[12.22486,45.50957],[12.22762,45.5094],[12.2306,45.50947],[12.23163,45.51128],[12.23245,45.51294],[12.23263,45.51362],[12.23332,45.51533],[12.23321,45.5162],[12.23145,45.51612],[12.23128,45.51681],[12.23042,45.51676],[12.22992,45.51735],[12.23003,45.51921],[12.22961,45.5193],[12.2298,45.52144],[12.23006,45.52253]]]},"properties":{"zona":"E28","linkzona":"VE00001364","fascia":"E","fascia_label":"Suburbana","descr":"ZELARINO PERIFERIA","semestre":"2025-S2","loc_min":null,"loc_max":null,"loc_mid":null}},{"type":"Feature","geometry":{"type":"Polygon","coordinates":[[[12.34738,45.45489],[12.34661,45.4546],[12.34641,45.45423],[12.34761,45.45321],[12.34797,45.45259],[12.34791,45.4516],[12.34917,45.45125],[12.34967,45.45159],[12.3503,45.45145],[12.35158,45.45174],[12.35223,45.45227],[12.35533,45.45309],[12.35683,45.45362],[12.35745,45.45364],[12.35826,45.45417],[12.35821,45.45565],[12.36052,45.45791],[12.36087,45.45838],[12.3609,45.45925],[12.36067,45.4596],[12.35965,45.46024],[12.35771,45.46097],[12.35709,45.46131],[12.35427,45.46207],[12.35349,45.46204],[12.35308,45.46104],[12.35221,45.46043],[12.34953,45.46043],[12.34657,45.45993],[12.34617,45.45926],[12.34757,45.45833],[12.34824,45.45801],[12.34873,45.45825],[12.34904,45.45728],[12.34855,45.45692],[12.34865,45.45535],[12.34738,45.45489]]]},"properties":{"zona":"E6","linkzona":"VE00001337","fascia":"E","fascia_label":"Suburbana","descr":"MURANO","semestre":"2025-S2","loc_min":null,"loc_max":null,"loc_mid":null,"sale_min":2100.0,"sale_max":3100.0}},{"type":"Feature","geometry":{"type":"Polygon","coordinates":[[[12.37936,45.4338],[12.38042,45.43362],[12.38096,45.43397],[12.38206,45.43415],[12.38222,45.43483],[12.38285,45.43532],[12.38232,45.43621],[12.38188,45.43631],[12.39202,45.43695],[12.40735,45.43789],[12.42054,45.45049],[12.42993,45.45951],[12.43745,45.46678],[12.44365,45.47272],[12.44065,45.47439],[12.43457,45.47754],[12.43034,45.47474],[12.42945,45.47435],[12.42814,45.47397],[12.42563,45.47407],[12.42368,45.47447],[12.41673,45.4677],[12.41501,45.46772],[12.41501,45.46543],[12.41354,45.46334],[12.41424,45.46285],[12.4136,45.46182],[12.41275,45.46098],[12.41124,45.46041],[12.41103,45.45999],[12.40979,45.45911],[12.40864,45.45895],[12.40774,45.45834],[12.40761,45.45806],[12.4067,45.45747],[12.40557,45.45721],[12.40498,45.45693],[12.40409,45.45735],[12.40426,45.45757],[12.40322,45.45807],[12.40187,45.45817],[12.40048,45.45843],[12.40025,45.45826],[12.39995,45.4567],[12.39943,45.4564],[12.39704,45.45591],[12.39579,45.45586],[12.39342,45.45614],[12.39256,45.45608],[12.39193,45.45495],[12.39113,45.45435],[12.38929,45.45466],[12.3883,45.4546],[12.38577,45.45419],[12.38559,45.45394],[12.38692,45.45193],[12.38827,45.45059],[12.38896,45.44968],[12.38998,45.4492],[12.39173,45.44719],[12.39168,45.44689],[12.38354,45.44687],[12.38433,45.44797],[12.38413,45.44849],[12.38206,45.44785],[12.38217,45.44729],[12.38083,45.44643],[12.378,45.44509],[12.37661,45.444],[12.37627,45.44358],[12.37559,45.4439],[12.37401,45.4434],[12.37301,45.4424],[12.37293,45.44174],[12.37311,45.44079],[12.3738,45.43902],[12.37345,45.43877],[12.37378,45.43816],[12.37567,45.43755],[12.37635,45.43721],[12.3782,45.43655],[12.37863,45.43603],[12.37934,45.43602],[12.37936,45.4338]]]},"properties":{"zona":"R2","linkzona":"VE00001346","fascia":"R","fascia_label":"Extraurbana","descr":"SANT`ERASMO E VIGNOLE","semestre":"2025-S2","loc_min":null,"loc_max":null,"loc_mid":null,"sale_min":1500.0,"sale_max":2300.0}},{"type":"Feature","geometry":{"type":"Polygon","coordinates":[[[12.31987,45.42848],[12.31798,45.42882],[12.31474,45.42909],[12.3131,45.42887],[12.31271,45.42846],[12.31218,45.42677],[12.31183,45.42649],[12.31122,45.42543],[12.31159,45.42503],[12.31937,45.42508],[12.32023,45.42468],[12.321,45.42408],[12.32134,45.42427],[12.32249,45.42354],[12.32405,45.42336],[12.32467,45.42374],[12.32717,45.42351],[12.32813,45.4235],[12.32978,45.42327],[12.33058,45.42294],[12.33094,45.42318],[12.33233,45.42327],[12.33402,45.42314],[12.33704,45.4232],[12.33844,45.42362],[12.33959,45.42412],[12.34105,45.42514],[12.3487,45.42516],[12.34869,45.42875],[12.34608,45.42876],[12.34627,45.42944],[12.34593,45.42977],[12.34376,45.43034],[12.34262,45.42999],[12.34167,45.42842],[12.33936,45.42723],[12.3359,45.42595],[12.33485,45.42579],[12.33379,45.42547],[12.33121,45.42562],[12.32929,45.42584],[12.3241,45.42704],[12.32138,45.42806],[12.31987,45.42848]]]},"properties":{"zona":"E5","linkzona":"VE00001336","fascia":"E","fascia_label":"Suburbana","descr":"GIUDECCA","semestre":"2025-S2","loc_min":null,"loc_max":null,"loc_mid":null,"sale_min":2800.0,"sale_max":3900.0}},{"type":"Feature","geometry":{"type":"Polygon","coordinates":[[[12.4213,45.48471],[12.42134,45.48572],[12.42064,45.48647],[12.41939,45.48709],[12.41792,45.48739],[12.41666,45.48735],[12.41472,45.48766],[12.41382,45.48681],[12.41367,45.48583],[12.41385,45.48546],[12.41484,45.48503],[12.41479,45.48472],[12.41615,45.48381],[12.41682,45.48366],[12.41767,45.48316],[12.41925,45.48351],[12.41966,45.484],[12.4208,45.48425],[12.4213,45.48471]]]},"properties":{"zona":"E7","linkzona":"VE00001338","fascia":"E","fascia_label":"Suburbana","descr":"BURANO","semestre":"2025-S2","loc_min":null,"loc_max":null,"loc_mid":null,"sale_min":1800.0,"sale_max":2600.0}}]}