{"type":"FeatureCollection","features":[{"type":"Feature","geometry":{"type":"Polygon","coordinates":[[[11.92453,45.40544],[11.92495,45.40571],[11.92633,45.40596],[11.92641,45.40616],[11.92824,45.40627],[11.92858,45.4067],[11.92641,45.40666],[11.92506,45.40643],[11.92226,45.40657],[11.92104,45.40657],[11.91866,45.40645],[11.91576,45.40649],[11.91051,45.40645],[11.90844,45.40607],[11.9083,45.40648],[11.9065,45.40699],[11.90654,45.40717],[11.90305,45.40843],[11.9022,45.40868],[11.90199,45.40858],[11.90131,45.40755],[11.90102,45.40567],[11.89872,45.40517],[11.89807,45.40515],[11.89776,45.40551],[11.89788,45.40628],[11.89758,45.40553],[11.89775,45.40523],[11.89818,45.40507],[11.89853,45.40509],[11.90094,45.40558],[11.90086,45.40514],[11.90012,45.40341],[11.90073,45.40317],[11.90135,45.40319],[11.90176,45.40295],[11.90197,45.40202],[11.90125,45.40156],[11.90157,45.40029],[11.89935,45.39999],[11.89987,45.39735],[11.89962,45.39667],[11.9,45.3957],[11.90043,45.39512],[11.9013,45.39449],[11.90273,45.3936],[11.90192,45.39274],[11.9012,45.39311],[11.90098,45.39349],[11.89874,45.39117],[11.89949,45.39047],[11.898,45.38905],[11.89909,45.38518],[11.89968,45.38422],[11.90201,45.38425],[11.90299,45.38451],[11.90461,45.38401],[11.90696,45.38401],[11.90798,45.38374],[11.91197,45.38349],[11.91197,45.38333],[11.9156,45.3831],[11.91861,45.38295],[11.91923,45.38274],[11.92,45.38221],[11.92062,45.38295],[11.9197,45.38392],[11.91913,45.38538],[11.91761,45.38618],[11.91809,45.38637],[11.91824,45.38698],[11.91809,45.38745],[11.91874,45.38893],[11.91836,45.3893],[11.91893,45.39117],[11.91872,45.39148],[11.91891,45.39226],[11.91937,45.39306],[11.91967,45.39392],[11.92071,45.39606],[11.92178,45.39738],[11.92242,45.39732],[11.92282,45.39835],[11.92353,45.39917],[11.92334,45.39935],[11.9238,45.40079],[11.92375,45.40167],[11.92346,45.40271],[11.92289,45.40416],[11.92393,45.40404],[11.92366,45.40447],[11.92453,45.40544]]]},"properties":{"zona":"D8","linkzona":"PD00002850","fascia":"D","fascia_label":"Periferica","descr":"S. GREGORIO, TERRANEGRA, FORCELLINI EST","semestre":"2025-S2","loc_min":6.5,"loc_max":9.0,"loc_mid":7.75,"sale_min":1450.0,"sale_max":1900.0,"sup":"L","tipologia":"Abitazioni civili","stato":"NORMALE","ott_min":7.0,"ott_max":9.5,"trend":0.0,"trend_from":"2023-S2"}},{"type":"Feature","geometry":{"type":"Polygon","coordinates":[[[11.86858,45.44161],[11.86875,45.44303],[11.87089,45.44311],[11.87096,45.443],[11.8712,45.44418],[11.87063,45.44436],[11.87008,45.44488],[11.87043,45.44631],[11.86885,45.44664],[11.86898,45.44729],[11.86956,45.44782],[11.86728,45.44924],[11.86633,45.4499],[11.86545,45.44884],[11.86451,45.44896],[11.8644,45.44946],[11.86315,45.4499],[11.86286,45.4496],[11.86217,45.45001],[11.86084,45.44948],[11.86048,45.44976],[11.86158,45.45048],[11.86098,45.45132],[11.86051,45.45116],[11.86025,45.45161],[11.85952,45.45129],[11.85928,45.45172],[11.86026,45.45211],[11.85935,45.45271],[11.86043,45.45317],[11.86162,45.45286],[11.86315,45.45277],[11.86532,45.45299],[11.8669,45.45346],[11.8672,45.454],[11.8645,45.4533],[11.86391,45.45321],[11.86242,45.45324],[11.86158,45.45335],[11.86049,45.45375],[11.85988,45.45428],[11.85969,45.45537],[11.85863,45.45568],[11.85797,45.45625],[11.85734,45.45622],[11.8567,45.45655],[11.85669,45.45685],[11.85578,45.45735],[11.85456,45.45649],[11.85334,45.45599],[11.85161,45.45551],[11.8524,45.45432],[11.85176,45.45286],[11.85133,45.45224],[11.84962,45.45213],[11.84943,45.4512],[11.84975,45.45095],[11.8477,45.45034],[11.8475,45.45058],[11.84674,45.45046],[11.84673,45.44959],[11.84725,45.44911],[11.84583,45.44856],[11.84495,45.44925],[11.84421,45.44945],[11.84335,45.45013],[11.84395,45.4504],[11.84328,45.45084],[11.84263,45.4509],[11.84215,45.45138],[11.84122,45.45094],[11.84015,45.45184],[11.83878,45.45332],[11.83908,45.45368],[11.83791,45.45444],[11.83716,45.45533],[11.8365,45.4552],[11.83631,45.45569],[11.83262,45.45551],[11.83189,45.45418],[11.83154,45.45278],[11.83076,45.45076],[11.82918,45.44652],[11.82933,45.44433],[11.82907,45.44324],[11.82912,45.44193],[11.82887,45.44024],[11.82875,45.43814],[11.82846,45.43636],[11.82843,45.43547],[11.82859,45.43383],[11.82841,45.43256],[11.82885,45.43139],[11.82873,45.43118],[11.82699,45.43154],[11.82664,45.42972],[11.82633,45.42458],[11.82608,45.41835],[11.82717,45.41829],[11.82742,45.41914],[11.82715,45.4195],[11.82764,45.41978],[11.82836,45.41979],[11.82835,45.42128],[11.82919,45.4219],[11.83009,45.42156],[11.83043,45.42192],[11.83164,45.42159],[11.83303,45.42198],[11.83338,45.42152],[11.83284,45.42134],[11.83286,45.42075],[11.83312,45.42059],[11.8346,45.42097],[11.83541,45.42093],[11.83577,45.42061],[11.83738,45.42133],[11.83913,45.42096],[11.83942,45.42074],[11.83985,45.42168],[11.83948,45.42175],[11.83981,45.42267],[11.83828,45.42305],[11.83855,45.42393],[11.83857,45.42477],[11.83828,45.42482],[11.83898,45.42642],[11.83855,45.42651],[11.83857,45.42709],[11.83816,45.42773],[11.83791,45.42877],[11.83814,45.42915],[11.83797,45.43005],[11.83854,45.43107],[11.83816,45.43144],[11.83862,45.43228],[11.83911,45.43266],[11.83733,45.4331],[11.83682,45.43363],[11.83638,45.43497],[11.83915,45.4338],[11.83797,45.4355],[11.83886,45.43592],[11.83983,45.43454],[11.84022,45.43472],[11.84074,45.43429],[11.84114,45.43368],[11.84086,45.43332],[11.85194,45.42862],[11.85375,45.42903],[11.85416,45.4315],[11.85461,45.43222],[11.85501,45.43253],[11.85403,45.43309],[11.85481,45.43415],[11.85617,45.43385],[11.85743,45.43551],[11.85825,45.43847],[11.85912,45.4384],[11.85872,45.43679],[11.85954,45.43668],[11.85943,45.43617],[11.86149,45.43646],[11.86187,45.43628],[11.86386,45.4362],[11.86403,45.4373],[11.8648,45.43721],[11.86611,45.4366],[11.8671,45.43749],[11.86699,45.43834],[11.86622,45.43964],[11.86576,45.44043],[11.86615,45.44055],[11.86597,45.44125],[11.86803,45.44094],[11.86858,45.44161]]]},"properties":{"zona":"R1","linkzona":"PD00001568","fascia":"R","fascia_label":"Extraurbana","descr":"ZONA RURALE COMPRENDE QUARTIERE PONTEROTTO","semestre":"2025-S2","loc_min":4.6,"loc_max":5.6,"loc_mid":5.1,"sale_min":1200.0,"sale_max":1600.0,"sup":"L","tipologia":"Abitazioni civili","stato":"NORMALE","trend":0.0,"trend_from":"2023-S2"}},{"type":"Feature","geometry":{"type":"Polygon","coordinates":[[[11.82608,45.41835],[11.8258,45.4146],[11.8256,45.41268],[11.82522,45.40818],[11.82408,45.40359],[11.82279,45.40345],[11.82137,45.40295],[11.81844,45.40271],[11.81892,45.40098],[11.81866,45.39984],[11.81825,45.39973],[11.81815,45.3972],[11.82027,45.39707],[11.81972,45.39601],[11.82102,45.39572],[11.82098,45.39518],[11.82055,45.39508],[11.82071,45.39455],[11.82009,45.39454],[11.81913,45.39408],[11.81913,45.39316],[11.81972,45.39172],[11.81907,45.39149],[11.817,45.39202],[11.81628,45.39254],[11.81531,45.39219],[11.8163,45.38985],[11.81659,45.38894],[11.81806,45.38922],[11.81712,45.3917],[11.81737,45.39175],[11.81893,45.39134],[11.82022,45.39135],[11.82056,45.39079],[11.82092,45.39079],[11.82181,45.39131],[11.82214,45.39115],[11.82289,45.39233],[11.824,45.39271],[11.82479,45.39265],[11.82552,45.39193],[11.82697,45.39148],[11.82853,45.3903],[11.82933,45.38984],[11.83005,45.38981],[11.83036,45.38947],[11.83124,45.39002],[11.83168,45.39067],[11.83226,45.39121],[11.83269,45.39134],[11.83444,45.39114],[11.83562,45.3912],[11.83679,45.39183],[11.83743,45.39205],[11.83832,45.39208],[11.83987,45.39151],[11.84003,45.39194],[11.8413,45.39339],[11.84127,45.39391],[11.84412,45.39845],[11.84473,45.39893],[11.84509,45.39983],[11.84547,45.40011],[11.84701,45.40201],[11.847,45.40265],[11.84777,45.40368],[11.84969,45.40332],[11.85036,45.40333],[11.85115,45.4031],[11.85127,45.40393],[11.85014,45.4041],[11.85203,45.40639],[11.85234,45.40699],[11.85358,45.4084],[11.85492,45.4107],[11.85594,45.41197],[11.85584,45.41277],[11.85683,45.41407],[11.85855,45.4162],[11.85693,45.41683],[11.8572,45.4184],[11.85705,45.41917],[11.8561,45.42015],[11.8556,45.41962],[11.85479,45.41831],[11.85238,45.41903],[11.85191,45.41867],[11.85001,45.41918],[11.84944,45.41893],[11.84902,45.41817],[11.84659,45.41872],[11.84627,45.41809],[11.84582,45.41821],[11.84674,45.4204],[11.84512,45.42025],[11.84416,45.42062],[11.84443,45.42104],[11.84194,45.42205],[11.84057,45.42267],[11.83985,45.42168],[11.83942,45.42074],[11.83913,45.42096],[11.83738,45.42133],[11.83577,45.42061],[11.83541,45.42093],[11.8346,45.42097],[11.83312,45.42059],[11.83286,45.42075],[11.83284,45.42134],[11.83338,45.42152],[11.83303,45.42198],[11.83164,45.42159],[11.83043,45.42192],[11.83009,45.42156],[11.82919,45.4219],[11.82835,45.42128],[11.82836,45.41979],[11.82764,45.41978],[11.82715,45.4195],[11.82742,45.41914],[11.82717,45.41829],[11.82608,45.41835]]]},"properties":{"zona":"D1","linkzona":"PD00000023","fascia":"D","fascia_label":"Periferica","descr":"CHIESANUOVA,BRUSEGANA","semestre":"2025-S2","loc_min":4.7,"loc_max":5.6,"loc_mid":5.15,"sale_min":1100.0,"sale_max":1500.0,"sup":"L","tipologia":"Abitazioni civili","stato":"NORMALE","trend":0.0,"trend_from":"2023-S2"}},{"type":"Feature","geometry":{"type":"Polygon","coordinates":[[[11.86795,45.41874],[11.8674,45.41827],[11.86765,45.41803],[11.86595,45.41714],[11.86443,45.41662],[11.86414,45.41622],[11.865,45.41532],[11.86459,45.41177],[11.86419,45.41159],[11.86452,45.41119],[11.86416,45.40805],[11.86371,45.40779],[11.86415,45.40745],[11.86418,45.40414],[11.86372,45.40379],[11.86417,45.4035],[11.86416,45.39977],[11.86554,45.39918],[11.86574,45.39638],[11.86724,45.39241],[11.86733,45.39198],[11.86784,45.39085],[11.86832,45.3907],[11.87397,45.39244],[11.87451,45.39219],[11.87512,45.39217],[11.87556,45.39249],[11.87535,45.39284],[11.88019,45.39421],[11.88073,45.39454],[11.88338,45.39821],[11.88437,45.39839],[11.88392,45.39898],[11.88641,45.40245],[11.88838,45.40287],[11.88763,45.40407],[11.88725,45.40425],[11.88558,45.40722],[11.88402,45.40856],[11.88221,45.41068],[11.8828,45.41102],[11.88218,45.41109],[11.88215,45.41155],[11.8812,45.41243],[11.88079,45.41325],[11.87903,45.41368],[11.87889,45.41265],[11.8777,45.41308],[11.87516,45.41486],[11.87461,45.41537],[11.87545,45.41616],[11.87602,45.4163],[11.87321,45.41819],[11.87349,45.41842],[11.87302,45.4189],[11.8722,45.41866],[11.87231,45.41836],[11.87015,45.41804],[11.86861,45.4182],[11.86868,45.4185],[11.86795,45.41874]],[[11.877,45.40473],[11.87669,45.40451],[11.87608,45.40357],[11.87225,45.4028],[11.87057,45.40238],[11.86977,45.40334],[11.86861,45.40334],[11.86858,45.40543],[11.86835,45.40563],[11.86838,45.40629],[11.86818,45.40831],[11.86826,45.40991],[11.86861,45.41051],[11.86978,45.41136],[11.87081,45.41148],[11.87242,45.41184],[11.87333,45.41184],[11.87369,45.41151],[11.87574,45.41147],[11.87638,45.4113],[11.87667,45.41163],[11.87806,45.41087],[11.87856,45.41107],[11.87887,45.41044],[11.87844,45.40996],[11.87843,45.40801],[11.87827,45.40692],[11.87779,45.40591],[11.877,45.40473]]]},"properties":{"zona":"B2","linkzona":"PD00000016","fascia":"B","fascia_label":"Centrale","descr":"CARMINE,SAVONAROLA,RIVIERE EXT.,PORTA SAN GIOVANNI,CITTA GIARDINO,SANTA GI...","semestre":"2025-S2","loc_min":7.9,"loc_max":10.5,"loc_mid":9.2,"sale_min":2250.0,"sale_max":3100.0,"sup":"L","tipologia":"Abitazioni civili","stato":"NORMALE","ott_min":8.1,"ott_max":11.5,"trend":0.0,"trend_from":"2023-S2"}},{"type":"Feature","geometry":{"type":"Polygon","coordinates":[[[11.86743,45.36674],[11.86649,45.36665],[11.86604,45.36583],[11.86469,45.36632],[11.86478,45.36661],[11.86422,45.36704],[11.86297,45.36543],[11.8612,45.36328],[11.86181,45.36287],[11.8629,45.36257],[11.86558,45.36212],[11.86924,45.36127],[11.87053,45.36105],[11.86979,45.35714],[11.8711,45.35705],[11.8716,45.35716],[11.87252,45.35779],[11.8732,45.35752],[11.87319,45.357],[11.8746,45.35684],[11.87646,45.35645],[11.87565,45.35507],[11.87701,45.35474],[11.87678,45.35441],[11.87799,45.35414],[11.87877,45.35475],[11.8796,45.35506],[11.88058,45.35497],[11.88201,45.35433],[11.8819,45.3541],[11.88235,45.3533],[11.88252,45.35264],[11.8842,45.35128],[11.88556,45.35075],[11.88672,45.35073],[11.8879,45.35099],[11.88844,45.35173],[11.88873,45.35182],[11.88958,45.35133],[11.89048,45.351],[11.89139,45.35153],[11.89196,45.35357],[11.8932,45.35363],[11.89361,45.35345],[11.89404,45.35269],[11.89572,45.35264],[11.89693,45.35274],[11.89651,45.35171],[11.8962,45.35166],[11.8954,45.34989],[11.89388,45.34584],[11.89451,45.34564],[11.89541,45.34574],[11.8958,45.34594],[11.89856,45.34661],[11.89998,45.34635],[11.90025,45.34576],[11.89986,45.34481],[11.90001,45.34399],[11.89978,45.34312],[11.9047,45.34254],[11.90782,45.34194],[11.91427,45.34085],[11.91696,45.34035],[11.92025,45.33962],[11.91984,45.34241],[11.91969,45.344],[11.91944,45.34441],[11.91929,45.34602],[11.91546,45.3467],[11.9155,45.34803],[11.91513,45.34832],[11.91545,45.34871],[11.9144,45.34906],[11.91268,45.34897],[11.91229,45.34905],[11.91263,45.34996],[11.91135,45.35023],[11.91264,45.35165],[11.91204,45.35183],[11.91271,45.35283],[11.91119,45.35352],[11.91153,45.35466],[11.91004,45.35515],[11.90884,45.35594],[11.90923,45.35652],[11.90856,45.35678],[11.90777,45.35661],[11.90698,45.3569],[11.90625,45.35792],[11.90535,45.35859],[11.90407,45.35911],[11.90251,45.35946],[11.90302,45.36127],[11.89875,45.36192],[11.89636,45.36232],[11.89592,45.36126],[11.89382,45.36153],[11.89365,45.36052],[11.89568,45.35999],[11.89631,45.35955],[11.89595,45.35882],[11.89603,45.35758],[11.89632,45.35666],[11.89622,45.3563],[11.89531,45.35636],[11.89182,45.3573],[11.89182,45.35764],[11.89073,45.358],[11.89058,45.35773],[11.88905,45.35788],[11.88911,45.35821],[11.88764,45.35855],[11.88787,45.35923],[11.88743,45.35936],[11.88776,45.35999],[11.88723,45.36023],[11.88753,45.36065],[11.88674,45.36104],[11.88556,45.36124],[11.88497,45.36161],[11.88525,45.36207],[11.88573,45.36186],[11.88596,45.36245],[11.88638,45.36241],[11.88731,45.36461],[11.88813,45.36433],[11.89216,45.36354],[11.89289,45.36361],[11.8932,45.36328],[11.89393,45.3648],[11.89376,45.36544],[11.89468,45.36758],[11.89522,45.36866],[11.8978,45.36833],[11.89909,45.36798],[11.89975,45.36707],[11.90067,45.3668],[11.90152,45.3664],[11.9022,45.36651],[11.90288,45.36846],[11.90337,45.37032],[11.90646,45.36985],[11.9069,45.36869],[11.90748,45.36797],[11.90773,45.36731],[11.90809,45.36703],[11.90976,45.3667],[11.91074,45.36636],[11.91372,45.36585],[11.91412,45.36712],[11.91342,45.3673],[11.9112,45.36751],[11.91148,45.36883],[11.91258,45.36871],[11.91297,45.37012],[11.91364,45.37009],[11.91383,45.37095],[11.9129,45.37108],[11.91319,45.37155],[11.91292,45.3721],[11.91216,45.37219],[11.91185,45.3711],[11.91241,45.37101],[11.91213,45.37009],[11.91095,45.37015],[11.911,45.37048],[11.90985,45.37056],[11.91004,45.3717],[11.91057,45.3721],[11.90979,45.3729],[11.90858,45.37306],[11.90936,45.37472],[11.90902,45.37476],[11.90749,45.37346],[11.90538,45.37233],[11.90501,45.37244],[11.90464,45.37145],[11.9028,45.3717],[11.90247,45.37156],[11.9013,45.37166],[11.90029,45.37205],[11.89992,45.37162],[11.89854,45.37152],[11.89832,45.37076],[11.89751,45.37081],[11.89771,45.37164],[11.8966,45.37177],[11.89636,45.37082],[11.89551,45.37092],[11.89534,45.36987],[11.89447,45.37012],[11.89211,45.36999],[11.89024,45.37012],[11.88857,45.36971],[11.88718,45.36988],[11.88654,45.36881],[11.88567,45.36884],[11.88525,45.36795],[11.88443,45.36815],[11.88469,45.36871],[11.88386,45.36884],[11.88357,45.36817],[11.88266,45.36828],[11.88238,45.36814],[11.88092,45.36822],[11.8811,45.36909],[11.87993,45.36937],[11.87963,45.36982],[11.87842,45.37032],[11.87782,45.37044],[11.87738,45.36957],[11.8763,45.36965],[11.87396,45.37001],[11.87334,45.36928],[11.87214,45.36969],[11.87128,45.36522],[11.8692,45.36477],[11.86943,45.36529],[11.86843,45.36563],[11.86835,45.36521],[11.86764,45.36526],[11.86739,45.36563],[11.86785,45.36669],[11.86743,45.36674]]]},"properties":{"zona":"R3","linkzona":"PD00002872","fascia":"R","fascia_label":"Extraurbana","descr":"ZONA RURALE","semestre":"2025-S2","loc_min":null,"loc_max":null,"loc_mid":null,"nonres":true}},{"type":"Feature","geometry":{"type":"Polygon","coordinates":[[[11.89636,45.36232],[11.89669,45.36226],[11.89758,45.36439],[11.89402,45.36513],[11.89393,45.3648],[11.8932,45.36328],[11.89289,45.36361],[11.89216,45.36354],[11.88813,45.36433],[11.88731,45.36461],[11.88638,45.36241],[11.88596,45.36245],[11.88573,45.36186],[11.88525,45.36207],[11.88497,45.36161],[11.88556,45.36124],[11.88674,45.36104],[11.88753,45.36065],[11.88723,45.36023],[11.88776,45.35999],[11.88743,45.35936],[11.88787,45.35923],[11.88764,45.35855],[11.88911,45.35821],[11.88905,45.35788],[11.89058,45.35773],[11.89073,45.358],[11.89182,45.35764],[11.89182,45.3573],[11.89531,45.35636],[11.89622,45.3563],[11.89632,45.35666],[11.89603,45.35758],[11.89595,45.35882],[11.89631,45.35955],[11.89568,45.35999],[11.89365,45.36052],[11.89382,45.36153],[11.89592,45.36126],[11.89636,45.36232]]]},"properties":{"zona":"E3","linkzona":"PD00002831","fascia":"E","fascia_label":"Suburbana","descr":"SALBORO","semestre":"2025-S2","loc_min":4.6,"loc_max":5.6,"loc_mid":5.1,"sale_min":1100.0,"sale_max":1450.0,"sup":"L","tipologia":"Abitazioni civili","stato":"NORMALE","trend":0.0,"trend_from":"2023-S2"}},{"type":"Feature","geometry":{"type":"Polygon","coordinates":[[[11.8828,45.41102],[11.88515,45.41123],[11.88596,45.41108],[11.88776,45.41044],[11.89017,45.41011],[11.89016,45.4099],[11.89287,45.40951],[11.89302,45.40958],[11.89637,45.40916],[11.898,45.40909],[11.89879,45.40968],[11.89992,45.40923],[11.90018,45.40934],[11.90129,45.40893],[11.90199,45.40928],[11.90233,45.41214],[11.90251,45.41367],[11.90236,45.41376],[11.90088,45.41322],[11.89998,45.41265],[11.89702,45.41347],[11.89681,45.4141],[11.89715,45.41504],[11.89734,45.41637],[11.89766,45.41783],[11.89739,45.41859],[11.8971,45.41887],[11.89567,45.41953],[11.89521,45.41938],[11.88949,45.41827],[11.8877,45.418],[11.88523,45.4179],[11.8844,45.41777],[11.88416,45.41797],[11.88292,45.41813],[11.88184,45.41845],[11.87866,45.41897],[11.87813,45.41843],[11.87727,45.41846],[11.87542,45.41884],[11.87427,45.41922],[11.87244,45.41997],[11.87183,45.42013],[11.87167,45.42001],[11.87133,45.41953],[11.8722,45.41866],[11.87302,45.4189],[11.87349,45.41842],[11.87321,45.41819],[11.87602,45.4163],[11.87545,45.41616],[11.87461,45.41537],[11.87516,45.41486],[11.8777,45.41308],[11.87889,45.41265],[11.87903,45.41368],[11.88079,45.41325],[11.8812,45.41243],[11.88215,45.41155],[11.88218,45.41109],[11.8828,45.41102]]]},"properties":{"zona":"C2","linkzona":"PD00000019","fascia":"C","fascia_label":"Semicentrale","descr":"STAZIONE,SCROVEGNI,C.SO DEL POPOLO,FIERA, CITTADELLA","semestre":"2025-S2","loc_min":6.6,"loc_max":8.0,"loc_mid":7.3,"sale_min":1100.0,"sale_max":1550.0,"sup":"L","tipologia":"Abitazioni civili","stato":"NORMALE","trend":16.8,"trend_from":"2023-S2"}},{"type":"Feature","geometry":{"type":"Polygon","coordinates":[[[11.83987,45.39151],[11.84424,45.38971],[11.84719,45.38836],[11.84784,45.38825],[11.84808,45.38796],[11.84904,45.38763],[11.85022,45.38671],[11.85085,45.3859],[11.85171,45.38534],[11.85196,45.38578],[11.85355,45.38537],[11.85485,45.38549],[11.85663,45.38629],[11.85731,45.38617],[11.86015,45.38591],[11.86192,45.38591],[11.86266,45.38609],[11.86628,45.38766],[11.86705,45.38843],[11.86729,45.38914],[11.86681,45.39189],[11.86733,45.39198],[11.86724,45.39241],[11.86574,45.39638],[11.86554,45.39918],[11.86416,45.39977],[11.86417,45.4035],[11.86372,45.40379],[11.86418,45.40414],[11.86415,45.40745],[11.86371,45.40779],[11.86416,45.40805],[11.86452,45.41119],[11.86419,45.41159],[11.86459,45.41177],[11.865,45.41532],[11.86414,45.41622],[11.86443,45.41662],[11.86595,45.41714],[11.86765,45.41803],[11.8674,45.41827],[11.86795,45.41874],[11.86868,45.4185],[11.86861,45.4182],[11.87015,45.41804],[11.87231,45.41836],[11.8722,45.41866],[11.87133,45.41953],[11.87167,45.42001],[11.87005,45.42049],[11.86843,45.42068],[11.86708,45.42066],[11.86477,45.42028],[11.86339,45.41991],[11.86117,45.41898],[11.86074,45.41908],[11.85855,45.4162],[11.85683,45.41407],[11.85584,45.41277],[11.85594,45.41197],[11.85492,45.4107],[11.85358,45.4084],[11.85234,45.40699],[11.85203,45.40639],[11.85014,45.4041],[11.85127,45.40393],[11.85115,45.4031],[11.85036,45.40333],[11.84969,45.40332],[11.84777,45.40368],[11.847,45.40265],[11.84701,45.40201],[11.84547,45.40011],[11.84509,45.39983],[11.84473,45.39893],[11.84412,45.39845],[11.84127,45.39391],[11.8413,45.39339],[11.84003,45.39194],[11.83987,45.39151]]]},"properties":{"zona":"C6","linkzona":"PD00002351","fascia":"C","fascia_label":"Semicentrale","descr":"PALESTRO, SACRA FAMIGLIA, SAN GIUSEPPE","semestre":"2025-S2","loc_min":6.5,"loc_max":8.5,"loc_mid":7.5,"sale_min":1300.0,"sale_max":1550.0,"sup":"L","tipologia":"Abitazioni civili","stato":"NORMALE","ott_min":6.7,"ott_max":9.0,"trend":13.6,"trend_from":"2023-S2"}},{"type":"Feature","geometry":{"type":"Polygon","coordinates":[[[11.81806,45.38922],[11.81659,45.38894],[11.81696,45.38751],[11.81579,45.38743],[11.81361,45.3871],[11.81296,45.38693],[11.81234,45.38632],[11.81175,45.38537],[11.81137,45.38512],[11.81035,45.38497],[11.80983,45.38433],[11.80538,45.3774],[11.80678,45.37687],[11.80874,45.37631],[11.80964,45.37551],[11.81047,45.37513],[11.8099,45.37425],[11.80915,45.372],[11.80925,45.3714],[11.8098,45.3706],[11.81029,45.37078],[11.81093,45.37034],[11.81213,45.36978],[11.8139,45.3697],[11.81472,45.36892],[11.81552,45.36861],[11.81633,45.36805],[11.81651,45.36693],[11.81805,45.36624],[11.81922,45.36589],[11.81965,45.36562],[11.82065,45.36553],[11.82308,45.36466],[11.82389,45.36499],[11.82481,45.36481],[11.8258,45.36428],[11.82677,45.36363],[11.82747,45.36355],[11.82903,45.36245],[11.82947,45.36136],[11.83013,45.36021],[11.83096,45.35976],[11.83204,45.35897],[11.83395,45.35798],[11.837,45.35723],[11.84047,45.36255],[11.84091,45.36335],[11.83697,45.36486],[11.83679,45.36464],[11.83661,45.36441],[11.83442,45.36493],[11.83481,45.36565],[11.83426,45.36581],[11.83359,45.36545],[11.83201,45.36592],[11.83181,45.36567],[11.83074,45.36596],[11.83077,45.36651],[11.82999,45.36666],[11.82892,45.36518],[11.82874,45.36526],[11.82988,45.36688],[11.82884,45.36708],[11.82833,45.3673],[11.82715,45.36715],[11.82726,45.36776],[11.82654,45.36755],[11.82448,45.3679],[11.82398,45.36855],[11.82258,45.36887],[11.82243,45.3693],[11.82188,45.36954],[11.82218,45.3702],[11.8262,45.3751],[11.82646,45.37506],[11.82723,45.3757],[11.82804,45.37518],[11.8282,45.37465],[11.82927,45.3739],[11.83165,45.37287],[11.83205,45.37281],[11.83235,45.37338],[11.83338,45.3731],[11.8332,45.37268],[11.83439,45.37254],[11.83488,45.37366],[11.8359,45.37347],[11.83532,45.37239],[11.83716,45.37207],[11.83897,45.37183],[11.83917,45.37228],[11.84023,45.37204],[11.8407,45.37162],[11.84134,45.3707],[11.84414,45.37252],[11.8434,45.37288],[11.84397,45.37358],[11.84499,45.37317],[11.84527,45.3734],[11.84497,45.37386],[11.84562,45.374],[11.84629,45.37444],[11.84617,45.37524],[11.84507,45.3767],[11.84459,45.37714],[11.84413,45.37725],[11.84336,45.37772],[11.84356,45.37827],[11.84186,45.37897],[11.84226,45.3795],[11.84077,45.37957],[11.84106,45.38079],[11.8424,45.38076],[11.84277,45.38246],[11.84511,45.3818],[11.84588,45.38352],[11.84691,45.38512],[11.84646,45.38527],[11.84669,45.38587],[11.84479,45.38641],[11.84347,45.3866],[11.84334,45.38628],[11.84122,45.38685],[11.84094,45.38646],[11.83977,45.38676],[11.83956,45.38642],[11.83752,45.38711],[11.83702,45.38769],[11.83787,45.38873],[11.83754,45.38888],[11.8359,45.38686],[11.83453,45.38723],[11.83321,45.38554],[11.83266,45.385],[11.83194,45.38541],[11.8311,45.38488],[11.83006,45.38538],[11.83087,45.38605],[11.83123,45.3867],[11.83083,45.38682],[11.83078,45.38752],[11.82983,45.38594],[11.82903,45.38651],[11.82741,45.38683],[11.8266,45.38683],[11.82692,45.38779],[11.82775,45.38783],[11.8291,45.3884],[11.83036,45.38947],[11.83005,45.38981],[11.82933,45.38984],[11.82853,45.3903],[11.82697,45.39148],[11.82552,45.39193],[11.82479,45.39265],[11.824,45.39271],[11.82289,45.39233],[11.82214,45.39115],[11.82181,45.39131],[11.82092,45.39079],[11.82056,45.39079],[11.82022,45.39135],[11.81893,45.39134],[11.81737,45.39175],[11.81712,45.3917],[11.81806,45.38922]]]},"properties":{"zona":"R2","linkzona":"PD00002871","fascia":"R","fascia_label":"Extraurbana","descr":"ZONA RURALE","semestre":"2025-S2","loc_min":null,"loc_max":null,"loc_mid":null,"nonres":true}},{"type":"Feature","geometry":{"type":"Polygon","coordinates":[[[11.89788,45.40628],[11.89744,45.40636],[11.8969,45.40481],[11.89717,45.40432],[11.89656,45.40414],[11.89597,45.4045],[11.89213,45.40366],[11.89225,45.40329],[11.89172,45.40289],[11.89097,45.40301],[11.89076,45.40336],[11.88838,45.40287],[11.88641,45.40245],[11.88392,45.39898],[11.88437,45.39839],[11.88338,45.39821],[11.88073,45.39454],[11.88019,45.39421],[11.87535,45.39284],[11.87556,45.39249],[11.87512,45.39217],[11.87451,45.39219],[11.87397,45.39244],[11.86832,45.3907],[11.86784,45.39085],[11.86733,45.39198],[11.86681,45.39189],[11.86729,45.38914],[11.86705,45.38843],[11.8676,45.38825],[11.86712,45.3875],[11.86664,45.38708],[11.8681,45.38628],[11.86913,45.38609],[11.87171,45.38595],[11.87168,45.38537],[11.88076,45.38489],[11.88308,45.38473],[11.89298,45.38416],[11.89309,45.38464],[11.89839,45.38434],[11.89968,45.38422],[11.89909,45.38518],[11.898,45.38905],[11.89949,45.39047],[11.89874,45.39117],[11.90098,45.39349],[11.9012,45.39311],[11.90192,45.39274],[11.90273,45.3936],[11.9013,45.39449],[11.90043,45.39512],[11.9,45.3957],[11.89962,45.39667],[11.89987,45.39735],[11.89935,45.39999],[11.90157,45.40029],[11.90125,45.40156],[11.90197,45.40202],[11.90176,45.40295],[11.90135,45.40319],[11.90073,45.40317],[11.90012,45.40341],[11.90086,45.40514],[11.90094,45.40558],[11.89853,45.40509],[11.89818,45.40507],[11.89775,45.40523],[11.89758,45.40553],[11.89788,45.40628]]]},"properties":{"zona":"C5","linkzona":"PD00002350","fascia":"C","fascia_label":"Semicentrale","descr":"MADONNA PELLEGRINA, S.RITA, NAZARETH,SANT`OSVALDO","semestre":"2025-S2","loc_min":7.4,"loc_max":9.8,"loc_mid":8.6,"sale_min":1500.0,"sale_max":1800.0,"sup":"L","tipologia":"Abitazioni civili","stato":"NORMALE","trend":9.6,"trend_from":"2023-S2"}},{"type":"Feature","geometry":{"type":"MultiPolygon","coordinates":[[[[11.90233,45.41214],[11.90503,45.41155],[11.90565,45.41188],[11.9087,45.41305],[11.90896,45.41305],[11.91195,45.4142],[11.91362,45.4147],[11.91442,45.41388],[11.91546,45.41312],[11.91568,45.41353],[11.91444,45.4146],[11.91275,45.41577],[11.9113,45.4163],[11.9077,45.41744],[11.9073,45.41744],[11.90344,45.4184],[11.90268,45.42028],[11.90104,45.42342],[11.90073,45.42378],[11.90039,45.42515],[11.89978,45.4253],[11.89778,45.42533],[11.8961,45.42468],[11.89262,45.42381],[11.89195,45.42375],[11.88762,45.4242],[11.88742,45.42412],[11.88525,45.42483],[11.88442,45.42531],[11.87926,45.4276],[11.87852,45.42784],[11.87685,45.42784],[11.87453,45.42752],[11.87184,45.4263],[11.87094,45.42546],[11.87024,45.42464],[11.86971,45.42377],[11.86965,45.42285],[11.8698,45.42226],[11.87029,45.42142],[11.8709,45.42081],[11.87183,45.42013],[11.87244,45.41997],[11.87427,45.41922],[11.87542,45.41884],[11.87727,45.41846],[11.87813,45.41843],[11.87866,45.41897],[11.88184,45.41845],[11.88292,45.41813],[11.88416,45.41797],[11.8844,45.41777],[11.88523,45.4179],[11.8877,45.418],[11.88949,45.41827],[11.89521,45.41938],[11.89567,45.41953],[11.8971,45.41887],[11.89739,45.41859],[11.89766,45.41783],[11.89734,45.41637],[11.89715,45.41504],[11.89681,45.4141],[11.89702,45.41347],[11.89998,45.41265],[11.90088,45.41322],[11.90236,45.41376],[11.90251,45.41367],[11.90233,45.41214]]],[[[11.8719,45.42637],[11.8719,45.42642],[11.87184,45.42633],[11.8719,45.42637]]]]},"properties":{"zona":"C3","linkzona":"PD00000020","fascia":"C","fascia_label":"Semicentrale","descr":"BORGOMAGNO, PRIMA ARCELLA, PESCAROTTO","semestre":"2025-S2","loc_min":5.8,"loc_max":7.0,"loc_mid":6.4,"sale_min":1050.0,"sale_max":1200.0,"sup":"L","tipologia":"Abitazioni civili","stato":"NORMALE","trend":17.4,"trend_from":"2023-S2"}},{"type":"Feature","geometry":{"type":"Polygon","coordinates":[[[11.92104,45.40657],[11.92115,45.40801],[11.92044,45.40881],[11.91988,45.40915],[11.91546,45.41312],[11.91442,45.41388],[11.91362,45.4147],[11.91195,45.4142],[11.90896,45.41305],[11.9087,45.41305],[11.90565,45.41188],[11.90503,45.41155],[11.90233,45.41214],[11.90199,45.40928],[11.90249,45.40897],[11.9022,45.40868],[11.90305,45.40843],[11.90654,45.40717],[11.9065,45.40699],[11.9083,45.40648],[11.90844,45.40607],[11.91051,45.40645],[11.91576,45.40649],[11.91866,45.40645],[11.92104,45.40657]]]},"properties":{"zona":"C4","linkzona":"PD00002090","fascia":"C","fascia_label":"Semicentrale","descr":"ZONA DIREZIONALE PADOVAUNO","semestre":"2025-S2","loc_min":null,"loc_max":null,"loc_mid":null,"nonres":true}},{"type":"Feature","geometry":{"type":"Polygon","coordinates":[[[11.9177,45.41892],[11.91723,45.41855],[11.91729,45.41821],[11.91592,45.41761],[11.91651,45.41658],[11.91601,45.41536],[11.91589,45.41424],[11.91612,45.4138],[11.91568,45.41353],[11.91546,45.41312],[11.91988,45.40915],[11.92044,45.40881],[11.92115,45.40801],[11.92104,45.40657],[11.92226,45.40657],[11.92506,45.40643],[11.92641,45.40666],[11.92858,45.4067],[11.92824,45.40627],[11.92641,45.40616],[11.92633,45.40596],[11.92495,45.40571],[11.92453,45.40544],[11.92366,45.40447],[11.92393,45.40404],[11.92289,45.40416],[11.92346,45.40271],[11.92375,45.40167],[11.9238,45.40079],[11.92334,45.39935],[11.92353,45.39917],[11.92282,45.39835],[11.92242,45.39732],[11.92178,45.39738],[11.92071,45.39606],[11.91967,45.39392],[11.91937,45.39306],[11.91891,45.39226],[11.91872,45.39148],[11.91893,45.39117],[11.91836,45.3893],[11.91874,45.38893],[11.91809,45.38745],[11.91824,45.38698],[11.91809,45.38637],[11.91761,45.38618],[11.91913,45.38538],[11.9197,45.38392],[11.92062,45.38295],[11.92002,45.38219],[11.92155,45.38156],[11.92222,45.38115],[11.92266,45.3804],[11.923,45.37879],[11.92532,45.37708],[11.92619,45.37676],[11.92776,45.37659],[11.92867,45.37633],[11.93039,45.37512],[11.93122,45.37444],[11.93183,45.37352],[11.9318,45.37244],[11.93163,45.37133],[11.93338,45.37136],[11.93453,45.37194],[11.93533,45.37257],[11.93554,45.37327],[11.93527,45.37375],[11.93626,45.37431],[11.93707,45.37424],[11.93911,45.37459],[11.94037,45.37259],[11.94045,45.37149],[11.94148,45.37132],[11.9419,45.37336],[11.94229,45.37338],[11.94248,45.37442],[11.94354,45.3743],[11.9439,45.37529],[11.9454,45.37483],[11.9449,45.37383],[11.94357,45.37157],[11.94277,45.37094],[11.94296,45.37077],[11.94727,45.36972],[11.94884,45.36925],[11.9498,45.36926],[11.95174,45.36956],[11.95299,45.36967],[11.95389,45.36989],[11.95537,45.37004],[11.95719,45.37008],[11.9576,45.37048],[11.95824,45.37164],[11.95914,45.37399],[11.96,45.37499],[11.95947,45.3758],[11.95875,45.37612],[11.95593,45.37679],[11.95474,45.37701],[11.95392,45.37735],[11.95524,45.37899],[11.95571,45.37856],[11.9562,45.37985],[11.95684,45.38218],[11.95732,45.38341],[11.95785,45.38335],[11.959,45.38535],[11.95881,45.38551],[11.95955,45.38653],[11.95831,45.38744],[11.95885,45.38778],[11.95962,45.38799],[11.95974,45.3888],[11.95945,45.38951],[11.95935,45.3906],[11.95996,45.39066],[11.9598,45.39157],[11.95915,45.3916],[11.95892,45.39246],[11.96013,45.39254],[11.95991,45.39378],[11.96102,45.39366],[11.9607,45.3954],[11.96189,45.39526],[11.96205,45.39649],[11.96258,45.39838],[11.96063,45.39869],[11.96051,45.39833],[11.95951,45.39858],[11.95924,45.39845],[11.95745,45.39872],[11.95735,45.39846],[11.95457,45.39894],[11.95387,45.39925],[11.95402,45.39967],[11.95183,45.40002],[11.95077,45.40036],[11.94794,45.40068],[11.94771,45.4],[11.94623,45.40032],[11.9454,45.39654],[11.94488,45.39615],[11.94342,45.39588],[11.9428,45.39594],[11.94074,45.39649],[11.93809,45.39891],[11.93502,45.39967],[11.93521,45.40003],[11.93459,45.4003],[11.93532,45.40165],[11.93536,45.4024],[11.93447,45.40247],[11.93488,45.40318],[11.93638,45.40285],[11.93677,45.40341],[11.93679,45.40357],[11.93539,45.40368],[11.9331,45.40427],[11.93197,45.40447],[11.93285,45.4069],[11.93517,45.40697],[11.93558,45.4085],[11.93665,45.41197],[11.93718,45.41261],[11.93826,45.41492],[11.93652,45.41512],[11.93593,45.41529],[11.936,45.4157],[11.93501,45.41587],[11.93396,45.41567],[11.93434,45.41726],[11.93697,45.41658],[11.93748,45.41776],[11.93771,45.41996],[11.93582,45.42056],[11.93501,45.42094],[11.9317,45.41986],[11.93076,45.4194],[11.92913,45.41898],[11.92765,45.41831],[11.92916,45.41624],[11.92444,45.41522],[11.9235,45.4155],[11.923,45.41587],[11.92298,45.41664],[11.92518,45.41752],[11.9248,45.4183],[11.92524,45.41872],[11.92452,45.41957],[11.92327,45.41915],[11.9229,45.41968],[11.92308,45.42047],[11.92168,45.42038],[11.91972,45.42058],[11.91909,45.4199],[11.9177,45.41892]]]},"properties":{"zona":"E2","linkzona":"PD00000028","fascia":"E","fascia_label":"Suburbana","descr":"ZONA INDUSTRIALE,ZIP","semestre":"2025-S2","loc_min":null,"loc_max":null,"loc_mid":null,"nonres":true}},{"type":"Feature","geometry":{"type":"Polygon","coordinates":[[[11.877,45.40473],[11.87779,45.40591],[11.87827,45.40692],[11.87843,45.40801],[11.87844,45.40996],[11.87887,45.41044],[11.87856,45.41107],[11.87806,45.41087],[11.87667,45.41163],[11.87638,45.4113],[11.87574,45.41147],[11.87369,45.41151],[11.87333,45.41184],[11.87242,45.41184],[11.87081,45.41148],[11.86978,45.41136],[11.86861,45.41051],[11.86826,45.40991],[11.86818,45.40831],[11.86838,45.40629],[11.86835,45.40563],[11.86858,45.40543],[11.86861,45.40334],[11.86977,45.40334],[11.87057,45.40238],[11.87225,45.4028],[11.87608,45.40357],[11.87669,45.40451],[11.877,45.40473]]]},"properties":{"zona":"B1","linkzona":"PD00000015","fascia":"B","fascia_label":"Centrale","descr":"ZONA ENTRO RIVIERE-VIA XX SETTEMBRE","semestre":"2025-S2","loc_min":8.5,"loc_max":11.0,"loc_mid":9.75,"sale_min":2350.0,"sale_max":3400.0,"sup":"L","tipologia":"Abitazioni civili","stato":"NORMALE","trend":0.0,"trend_from":"2023-S2"}},{"type":"Feature","geometry":{"type":"Polygon","coordinates":[[[11.9022,45.40868],[11.90249,45.40897],[11.90199,45.40928],[11.90129,45.40893],[11.90018,45.40934],[11.89992,45.40923],[11.89879,45.40968],[11.898,45.40909],[11.89637,45.40916],[11.89302,45.40958],[11.89287,45.40951],[11.89016,45.4099],[11.89017,45.41011],[11.88776,45.41044],[11.88596,45.41108],[11.88515,45.41123],[11.8828,45.41102],[11.88221,45.41068],[11.88402,45.40856],[11.88558,45.40722],[11.88725,45.40425],[11.88763,45.40407],[11.88838,45.40287],[11.89076,45.40336],[11.89097,45.40301],[11.89172,45.40289],[11.89225,45.40329],[11.89213,45.40366],[11.89597,45.4045],[11.89656,45.40414],[11.89717,45.40432],[11.8969,45.40481],[11.89744,45.40636],[11.89788,45.40628],[11.89776,45.40551],[11.89807,45.40515],[11.89872,45.40517],[11.90102,45.40567],[11.90131,45.40755],[11.90199,45.40858],[11.9022,45.40868]]]},"properties":{"zona":"C1","linkzona":"PD00000018","fascia":"C","fascia_label":"Semicentrale","descr":"PORTELLO","semestre":"2025-S2","loc_min":8.5,"loc_max":12.0,"loc_mid":10.25,"sale_min":1550.0,"sale_max":2200.0,"sup":"L","tipologia":"Abitazioni civili","stato":"NORMALE","trend":11.4,"trend_from":"2023-S2"}},{"type":"Feature","geometry":{"type":"Polygon","coordinates":[[[11.91197,45.38333],[11.91197,45.38349],[11.90798,45.38374],[11.90696,45.38401],[11.90461,45.38401],[11.90299,45.38451],[11.90201,45.38425],[11.89968,45.38422],[11.89839,45.38434],[11.89309,45.38464],[11.89298,45.38416],[11.88308,45.38473],[11.88076,45.38489],[11.87168,45.38537],[11.87171,45.38595],[11.86913,45.38609],[11.8681,45.38628],[11.86664,45.38708],[11.86712,45.3875],[11.8676,45.38825],[11.86705,45.38843],[11.86628,45.38766],[11.86266,45.38609],[11.86192,45.38591],[11.86015,45.38591],[11.86023,45.3855],[11.86143,45.38546],[11.86259,45.38577],[11.86331,45.3855],[11.86318,45.38518],[11.8615,45.38403],[11.86117,45.38391],[11.86099,45.38198],[11.86164,45.38194],[11.86171,45.38045],[11.86258,45.38036],[11.86251,45.3794],[11.86329,45.3795],[11.86426,45.3793],[11.86372,45.37752],[11.86384,45.37681],[11.863,45.37527],[11.8624,45.37337],[11.86147,45.37347],[11.85994,45.37125],[11.86025,45.36977],[11.86081,45.36862],[11.86152,45.36806],[11.86414,45.36758],[11.86422,45.36704],[11.86478,45.36661],[11.86469,45.36632],[11.86604,45.36583],[11.86649,45.36665],[11.86743,45.36674],[11.86785,45.36669],[11.86739,45.36563],[11.86764,45.36526],[11.86835,45.36521],[11.86843,45.36563],[11.86943,45.36529],[11.8692,45.36477],[11.87128,45.36522],[11.87214,45.36969],[11.87334,45.36928],[11.87396,45.37001],[11.8763,45.36965],[11.87738,45.36957],[11.87782,45.37044],[11.87842,45.37032],[11.87963,45.36982],[11.87993,45.36937],[11.8811,45.36909],[11.88092,45.36822],[11.88238,45.36814],[11.88266,45.36828],[11.88357,45.36817],[11.88386,45.36884],[11.88469,45.36871],[11.88443,45.36815],[11.88525,45.36795],[11.88567,45.36884],[11.88654,45.36881],[11.88718,45.36988],[11.88857,45.36971],[11.89024,45.37012],[11.89211,45.36999],[11.89447,45.37012],[11.89534,45.36987],[11.89551,45.37092],[11.89636,45.37082],[11.8966,45.37177],[11.89771,45.37164],[11.89751,45.37081],[11.89832,45.37076],[11.89854,45.37152],[11.89992,45.37162],[11.90029,45.37205],[11.9013,45.37166],[11.90247,45.37156],[11.9028,45.3717],[11.90464,45.37145],[11.90501,45.37244],[11.90538,45.37233],[11.90749,45.37346],[11.90902,45.37476],[11.90936,45.37472],[11.90858,45.37306],[11.90979,45.3729],[11.91057,45.3721],[11.91004,45.3717],[11.90985,45.37056],[11.911,45.37048],[11.91095,45.37015],[11.91213,45.37009],[11.91241,45.37101],[11.91185,45.3711],[11.91216,45.37219],[11.91292,45.3721],[11.91319,45.37155],[11.9129,45.37108],[11.91383,45.37095],[11.91402,45.37142],[11.91443,45.37151],[11.91423,45.37252],[11.91239,45.37374],[11.91259,45.37396],[11.90855,45.37569],[11.90862,45.37588],[11.90746,45.37685],[11.90645,45.37721],[11.90797,45.37882],[11.90756,45.37901],[11.90799,45.3797],[11.90951,45.38132],[11.90995,45.38127],[11.91197,45.38333]]]},"properties":{"zona":"D3","linkzona":"PD00002091","fascia":"D","fascia_label":"Periferica","descr":"BASSANELLO, GUIZZA, VOLTABAROZZO","semestre":"2025-S2","loc_min":5.5,"loc_max":7.6,"loc_mid":6.55,"sale_min":1250.0,"sale_max":1450.0,"sup":"L","tipologia":"Abitazioni civili","stato":"NORMALE","ott_min":5.6,"ott_max":7.7,"trend":10.1,"trend_from":"2023-S2"}},{"type":"Feature","geometry":{"type":"Polygon","coordinates":[[[11.90268,45.42028],[11.90344,45.4184],[11.9073,45.41744],[11.9077,45.41744],[11.9113,45.4163],[11.91275,45.41577],[11.91444,45.4146],[11.91568,45.41353],[11.91612,45.4138],[11.91589,45.41424],[11.91601,45.41536],[11.91651,45.41658],[11.91592,45.41761],[11.91729,45.41821],[11.91723,45.41855],[11.9177,45.41892],[11.91909,45.4199],[11.91972,45.42058],[11.92168,45.42038],[11.92308,45.42047],[11.9229,45.41968],[11.92327,45.41915],[11.92452,45.41957],[11.92524,45.41872],[11.9248,45.4183],[11.92518,45.41752],[11.92298,45.41664],[11.923,45.41587],[11.9235,45.4155],[11.92444,45.41522],[11.92916,45.41624],[11.92765,45.41831],[11.92913,45.41898],[11.93076,45.4194],[11.9317,45.41986],[11.93501,45.42094],[11.93582,45.42056],[11.93771,45.41996],[11.93864,45.41942],[11.94,45.4192],[11.94049,45.41935],[11.94128,45.41923],[11.94159,45.4205],[11.94211,45.42108],[11.94302,45.42182],[11.94426,45.42256],[11.94453,45.42252],[11.94534,45.42327],[11.94638,45.42269],[11.94749,45.42348],[11.94849,45.42282],[11.94993,45.42248],[11.95209,45.42283],[11.95417,45.42282],[11.95403,45.4237],[11.95284,45.42653],[11.95167,45.42742],[11.94989,45.42901],[11.9492,45.4295],[11.94763,45.42897],[11.94728,45.429],[11.94569,45.42873],[11.93763,45.42714],[11.93155,45.42598],[11.93118,45.42493],[11.93069,45.42489],[11.93048,45.42449],[11.93081,45.42424],[11.92953,45.42342],[11.92884,45.42376],[11.92917,45.42436],[11.92758,45.42522],[11.92585,45.42489],[11.92563,45.42504],[11.91877,45.42369],[11.91825,45.42368],[11.9168,45.42332],[11.91453,45.4229],[11.90825,45.42166],[11.9027,45.42062],[11.90268,45.42028]]]},"properties":{"zona":"D4","linkzona":"PD00002092","fascia":"D","fascia_label":"Periferica","descr":"PONTE DI BRENTA, SAN LAZZARO","semestre":"2025-S2","loc_min":4.8,"loc_max":6.5,"loc_mid":5.65,"sale_min":1000.0,"sale_max":1400.0,"sup":"L","tipologia":"Abitazioni civili","stato":"NORMALE","trend":0.0,"trend_from":"2023-S2"}},{"type":"Feature","geometry":{"type":"MultiPolygon","coordinates":[[[[11.86659,45.43976],[11.86615,45.44055],[11.86576,45.44043],[11.86622,45.43964],[11.86659,45.43976]]],[[[11.87096,45.443],[11.87113,45.44315],[11.87318,45.44305],[11.87334,45.44292],[11.87599,45.44263],[11.88,45.44185],[11.88026,45.44218],[11.8853,45.44114],[11.88546,45.44102],[11.88578,45.44103],[11.88771,45.44062],[11.88932,45.44017],[11.88977,45.44065],[11.89289,45.43958],[11.89314,45.43931],[11.89474,45.43892],[11.89881,45.43744],[11.90091,45.43674],[11.90291,45.43618],[11.90564,45.43506],[11.90624,45.43474],[11.90941,45.43346],[11.90999,45.43332],[11.91663,45.4306],[11.91772,45.43023],[11.91961,45.42934],[11.92107,45.42855],[11.92106,45.42803],[11.92613,45.42515],[11.92585,45.42489],[11.92758,45.42522],[11.92917,45.42436],[11.92884,45.42376],[11.92953,45.42342],[11.93081,45.42424],[11.93048,45.42449],[11.93069,45.42489],[11.93118,45.42493],[11.93155,45.42598],[11.93763,45.42714],[11.94569,45.42873],[11.94728,45.429],[11.94763,45.42897],[11.9492,45.4295],[11.94781,45.43052],[11.94542,45.43196],[11.9427,45.43409],[11.94115,45.43518],[11.93955,45.43606],[11.93749,45.43688],[11.935,45.43748],[11.93373,45.4375],[11.93292,45.43737],[11.93099,45.43684],[11.92944,45.4367],[11.92738,45.43683],[11.92608,45.43709],[11.92472,45.43727],[11.92241,45.4374],[11.92114,45.43806],[11.91948,45.43928],[11.91772,45.44024],[11.91622,45.44046],[11.91437,45.44036],[11.91085,45.43991],[11.9093,45.43996],[11.90821,45.44024],[11.90623,45.44133],[11.90856,45.44377],[11.90917,45.44426],[11.91036,45.44589],[11.91041,45.4467],[11.91015,45.4472],[11.90969,45.44757],[11.90809,45.44785],[11.90528,45.44772],[11.90308,45.44796],[11.90208,45.44791],[11.90119,45.44765],[11.90005,45.44703],[11.89904,45.44635],[11.8987,45.44556],[11.89577,45.44641],[11.89558,45.4467],[11.89565,45.44781],[11.89595,45.44853],[11.89644,45.45131],[11.8953,45.45152],[11.89437,45.45143],[11.89376,45.45118],[11.89155,45.44902],[11.89006,45.44803],[11.88959,45.44758],[11.88692,45.44817],[11.88617,45.44849],[11.88508,45.44939],[11.88279,45.45179],[11.88157,45.45295],[11.88076,45.45338],[11.87841,45.4541],[11.87743,45.45418],[11.87176,45.45442],[11.86987,45.45445],[11.86779,45.45429],[11.86732,45.45414],[11.8669,45.45346],[11.86532,45.45299],[11.86315,45.45277],[11.86162,45.45286],[11.86043,45.45317],[11.85935,45.45271],[11.86026,45.45211],[11.85928,45.45172],[11.85952,45.45129],[11.86025,45.45161],[11.86051,45.45116],[11.86098,45.45132],[11.86158,45.45048],[11.86048,45.44976],[11.86084,45.44948],[11.86217,45.45001],[11.86286,45.4496],[11.86315,45.4499],[11.8644,45.44946],[11.86451,45.44896],[11.86545,45.44884],[11.86633,45.4499],[11.86728,45.44924],[11.86956,45.44782],[11.86898,45.44729],[11.86885,45.44664],[11.87043,45.44631],[11.87008,45.44488],[11.87063,45.44436],[11.8712,45.44418],[11.87096,45.443]]]]},"properties":{"zona":"D6","linkzona":"PD00002819","fascia":"D","fascia_label":"Periferica","descr":"TORRE, PONTEVIGODARZERE, SACRO CUORE","semestre":"2025-S2","loc_min":4.9,"loc_max":6.6,"loc_mid":5.75,"sale_min":1050.0,"sale_max":1350.0,"sup":"L","tipologia":"Abitazioni civili","stato":"NORMALE","trend":5.5,"trend_from":"2023-S2"}},{"type":"Feature","geometry":{"type":"Polygon","coordinates":[[[11.83036,45.38947],[11.8291,45.3884],[11.82775,45.38783],[11.82692,45.38779],[11.8266,45.38683],[11.82741,45.38683],[11.82903,45.38651],[11.82983,45.38594],[11.83078,45.38752],[11.83083,45.38682],[11.83123,45.3867],[11.83087,45.38605],[11.83006,45.38538],[11.8311,45.38488],[11.83194,45.38541],[11.83266,45.385],[11.83321,45.38554],[11.83453,45.38723],[11.8359,45.38686],[11.83754,45.38888],[11.83787,45.38873],[11.83702,45.38769],[11.83752,45.38711],[11.83956,45.38642],[11.83977,45.38676],[11.84094,45.38646],[11.84122,45.38685],[11.84334,45.38628],[11.84347,45.3866],[11.84479,45.38641],[11.84669,45.38587],[11.84646,45.38527],[11.84691,45.38512],[11.84588,45.38352],[11.84511,45.3818],[11.84277,45.38246],[11.8424,45.38076],[11.84106,45.38079],[11.84077,45.37957],[11.84226,45.3795],[11.84186,45.37897],[11.84356,45.37827],[11.84336,45.37772],[11.84413,45.37725],[11.84459,45.37714],[11.84507,45.3767],[11.84617,45.37524],[11.84629,45.37444],[11.84562,45.374],[11.84497,45.37386],[11.84527,45.3734],[11.84499,45.37317],[11.84397,45.37358],[11.8434,45.37288],[11.84414,45.37252],[11.84134,45.3707],[11.8407,45.37162],[11.84023,45.37204],[11.83917,45.37228],[11.83897,45.37183],[11.83716,45.37207],[11.83532,45.37239],[11.8359,45.37347],[11.83488,45.37366],[11.83439,45.37254],[11.8332,45.37268],[11.83338,45.3731],[11.83235,45.37338],[11.83205,45.37281],[11.83165,45.37287],[11.82927,45.3739],[11.8282,45.37465],[11.82804,45.37518],[11.82723,45.3757],[11.82646,45.37506],[11.8262,45.3751],[11.82218,45.3702],[11.82188,45.36954],[11.82243,45.3693],[11.82258,45.36887],[11.82398,45.36855],[11.82448,45.3679],[11.82654,45.36755],[11.82726,45.36776],[11.82715,45.36715],[11.82833,45.3673],[11.82884,45.36708],[11.82988,45.36688],[11.82874,45.36526],[11.82892,45.36518],[11.82999,45.36666],[11.83077,45.36651],[11.83074,45.36596],[11.83181,45.36567],[11.83201,45.36592],[11.83359,45.36545],[11.83426,45.36581],[11.83481,45.36565],[11.83442,45.36493],[11.83661,45.36441],[11.83679,45.36464],[11.83696,45.36486],[11.83659,45.36505],[11.84071,45.36348],[11.84094,45.36348],[11.84336,45.36783],[11.84397,45.36874],[11.84695,45.37256],[11.84818,45.37397],[11.85035,45.3767],[11.85146,45.37782],[11.85296,45.3791],[11.85437,45.38011],[11.85811,45.38228],[11.85939,45.38317],[11.86113,45.38393],[11.8615,45.38403],[11.86318,45.38518],[11.86331,45.3855],[11.86259,45.38577],[11.86143,45.38546],[11.86023,45.3855],[11.86015,45.38591],[11.85731,45.38617],[11.85663,45.38629],[11.85485,45.38549],[11.85355,45.38537],[11.85196,45.38578],[11.85171,45.38534],[11.85085,45.3859],[11.85022,45.38671],[11.84904,45.38763],[11.84808,45.38796],[11.84784,45.38825],[11.84719,45.38836],[11.84424,45.38971],[11.83987,45.39151],[11.83832,45.39208],[11.83743,45.39205],[11.83679,45.39183],[11.83562,45.3912],[11.83444,45.39114],[11.83269,45.39134],[11.83226,45.39121],[11.83168,45.39067],[11.83124,45.39002],[11.83036,45.38947]]]},"properties":{"zona":"D2","linkzona":"PD00000024","fascia":"D","fascia_label":"Periferica","descr":"PALTANA, VOLTABRUSEGANA, MANDRIA","semestre":"2025-S2","loc_min":5.2,"loc_max":7.2,"loc_mid":6.2,"sale_min":1100.0,"sale_max":1450.0,"sup":"L","tipologia":"Abitazioni civili","stato":"NORMALE","trend":11.7,"trend_from":"2023-S2"}},{"type":"Feature","geometry":{"type":"Polygon","coordinates":[[[11.96258,45.39838],[11.96848,45.39736],[11.97271,45.39684],[11.97318,45.39856],[11.97371,45.40145],[11.97465,45.40152],[11.97551,45.40141],[11.97645,45.40366],[11.97506,45.4044],[11.97378,45.40473],[11.97222,45.40526],[11.97257,45.40619],[11.97083,45.40647],[11.97011,45.40594],[11.96959,45.40534],[11.96839,45.40572],[11.96401,45.4059],[11.96318,45.40577],[11.96057,45.40498],[11.96036,45.40455],[11.95946,45.40478],[11.95875,45.40355],[11.9576,45.40384],[11.95668,45.4039],[11.95553,45.40431],[11.95382,45.40455],[11.95087,45.40507],[11.95054,45.40458],[11.94961,45.40472],[11.94917,45.40296],[11.94859,45.40294],[11.94854,45.40335],[11.94694,45.40393],[11.94467,45.40455],[11.94494,45.40503],[11.94381,45.4054],[11.9429,45.4054],[11.94204,45.40523],[11.94098,45.40521],[11.93939,45.40419],[11.93871,45.40354],[11.93821,45.40343],[11.93679,45.40357],[11.93677,45.40341],[11.93638,45.40285],[11.93488,45.40318],[11.93447,45.40247],[11.93536,45.4024],[11.93532,45.40165],[11.93459,45.4003],[11.93521,45.40003],[11.93502,45.39967],[11.93809,45.39891],[11.94074,45.39649],[11.9428,45.39594],[11.94342,45.39588],[11.94488,45.39615],[11.9454,45.39654],[11.94623,45.40032],[11.94771,45.4],[11.94794,45.40068],[11.95077,45.40036],[11.95183,45.40002],[11.95402,45.39967],[11.95387,45.39925],[11.95457,45.39894],[11.95735,45.39846],[11.95745,45.39872],[11.95924,45.39845],[11.95951,45.39858],[11.96051,45.39833],[11.96063,45.39869],[11.96258,45.39838]]]},"properties":{"zona":"E1","linkzona":"PD00000027","fascia":"E","fascia_label":"Suburbana","descr":"CAMIN","semestre":"2025-S2","loc_min":5.2,"loc_max":7.6,"loc_mid":6.4,"sale_min":1050.0,"sale_max":1450.0,"sup":"L","tipologia":"Abitazioni civili","stato":"NORMALE","trend":25.5,"trend_from":"2023-S2"}},{"type":"Feature","geometry":{"type":"Polygon","coordinates":[[[11.86858,45.44161],[11.86803,45.44094],[11.86597,45.44125],[11.86615,45.44055],[11.86659,45.43976],[11.86622,45.43964],[11.86699,45.43834],[11.8671,45.43749],[11.86611,45.4366],[11.8648,45.43721],[11.86403,45.4373],[11.86386,45.4362],[11.86187,45.43628],[11.86149,45.43646],[11.85943,45.43617],[11.85954,45.43668],[11.85872,45.43679],[11.85912,45.4384],[11.85825,45.43847],[11.85743,45.43551],[11.85617,45.43385],[11.85481,45.43415],[11.85403,45.43309],[11.85501,45.43253],[11.85461,45.43222],[11.85416,45.4315],[11.85375,45.42903],[11.85194,45.42862],[11.84086,45.43332],[11.84114,45.43368],[11.84074,45.43429],[11.84022,45.43472],[11.83983,45.43454],[11.83886,45.43592],[11.83797,45.4355],[11.83915,45.4338],[11.83638,45.43497],[11.83682,45.43363],[11.83733,45.4331],[11.83911,45.43266],[11.83862,45.43228],[11.83816,45.43144],[11.83854,45.43107],[11.83797,45.43005],[11.83814,45.42915],[11.83791,45.42877],[11.83816,45.42773],[11.83857,45.42709],[11.83855,45.42651],[11.83898,45.42642],[11.83828,45.42482],[11.83857,45.42477],[11.83855,45.42393],[11.83828,45.42305],[11.83981,45.42267],[11.83948,45.42175],[11.83985,45.42168],[11.84057,45.42267],[11.84194,45.42205],[11.84443,45.42104],[11.84416,45.42062],[11.84512,45.42025],[11.84674,45.4204],[11.84582,45.41821],[11.84627,45.41809],[11.84659,45.41872],[11.84902,45.41817],[11.84944,45.41893],[11.85001,45.41918],[11.85191,45.41867],[11.85238,45.41903],[11.85479,45.41831],[11.8556,45.41962],[11.8561,45.42015],[11.85705,45.41917],[11.8572,45.4184],[11.85693,45.41683],[11.85855,45.4162],[11.86074,45.41908],[11.86117,45.41898],[11.86339,45.41991],[11.86477,45.42028],[11.86708,45.42066],[11.86843,45.42068],[11.87005,45.42049],[11.87167,45.42001],[11.87183,45.42013],[11.8709,45.42081],[11.87029,45.42142],[11.8698,45.42226],[11.86965,45.42285],[11.86971,45.42377],[11.87024,45.42464],[11.87094,45.42546],[11.87184,45.4263],[11.87184,45.42633],[11.8719,45.42642],[11.87429,45.42913],[11.87435,45.42949],[11.88038,45.4359],[11.88273,45.43844],[11.88294,45.43836],[11.88546,45.44102],[11.8853,45.44114],[11.88026,45.44218],[11.88,45.44185],[11.87599,45.44263],[11.87334,45.44292],[11.87318,45.44305],[11.87113,45.44315],[11.87096,45.443],[11.87089,45.44311],[11.86875,45.44303],[11.86858,45.44161]]]},"properties":{"zona":"D5","linkzona":"PD00002817","fascia":"D","fascia_label":"Periferica","descr":"S. IGNAZIO, MONTA` , ALTICHIERO","semestre":"2025-S2","loc_min":5.8,"loc_max":7.5,"loc_mid":6.65,"sale_min":1150.0,"sale_max":1500.0,"sup":"L","tipologia":"Abitazioni civili","stato":"NORMALE","trend":16.7,"trend_from":"2023-S2"}},{"type":"Feature","geometry":{"type":"Polygon","coordinates":[[[11.8719,45.42642],[11.8719,45.42637],[11.87184,45.42633],[11.87184,45.4263],[11.87453,45.42752],[11.87685,45.42784],[11.87852,45.42784],[11.87926,45.4276],[11.88442,45.42531],[11.88525,45.42483],[11.88742,45.42412],[11.88762,45.4242],[11.89195,45.42375],[11.89262,45.42381],[11.8961,45.42468],[11.89778,45.42533],[11.89978,45.4253],[11.90039,45.42515],[11.90073,45.42378],[11.90104,45.42342],[11.90268,45.42028],[11.9027,45.42062],[11.90825,45.42166],[11.91453,45.4229],[11.9168,45.42332],[11.91825,45.42368],[11.91877,45.42369],[11.92563,45.42504],[11.92585,45.42489],[11.92613,45.42515],[11.92106,45.42803],[11.92107,45.42855],[11.91961,45.42934],[11.91772,45.43023],[11.91663,45.4306],[11.90999,45.43332],[11.90941,45.43346],[11.90624,45.43474],[11.90564,45.43506],[11.90291,45.43618],[11.90091,45.43674],[11.89881,45.43744],[11.89474,45.43892],[11.89314,45.43931],[11.89289,45.43958],[11.88977,45.44065],[11.88932,45.44017],[11.88771,45.44062],[11.88578,45.44103],[11.88546,45.44102],[11.88294,45.43836],[11.88273,45.43844],[11.88038,45.4359],[11.87435,45.42949],[11.87429,45.42913],[11.8719,45.42642]]]},"properties":{"zona":"D7","linkzona":"PD00002830","fascia":"D","fascia_label":"Periferica","descr":"ARCELLA NORD, MORTISE","semestre":"2025-S2","loc_min":5.3,"loc_max":7.2,"loc_mid":6.25,"sale_min":1000.0,"sale_max":1250.0,"sup":"L","tipologia":"Abitazioni civili","stato":"NORMALE","trend":11.6,"trend_from":"2023-S2"}}]}