{"type":"FeatureCollection","features":[{"type":"Feature","geometry":{"type":"Polygon","coordinates":[[[13.83075,45.63514],[13.83068,45.63514],[13.83067,45.63511],[13.83058,45.635],[13.83041,45.63286],[13.82988,45.63061],[13.82972,45.62975],[13.82851,45.63021],[13.82859,45.6305],[13.82759,45.63063],[13.82758,45.63041],[13.82604,45.62958],[13.82589,45.62987],[13.82472,45.62964],[13.82427,45.62979],[13.82357,45.62952],[13.82448,45.62857],[13.82398,45.62765],[13.82353,45.62741],[13.82304,45.62695],[13.82226,45.62639],[13.8219,45.62549],[13.82351,45.62514],[13.82421,45.62519],[13.82434,45.62533],[13.82508,45.62533],[13.82505,45.62512],[13.82576,45.62471],[13.82612,45.62502],[13.82751,45.62448],[13.82808,45.62525],[13.8288,45.62518],[13.83014,45.62491],[13.83153,45.62481],[13.83228,45.62485],[13.83355,45.62515],[13.83395,45.62511],[13.83482,45.62536],[13.83531,45.62581],[13.83598,45.62585],[13.83638,45.62535],[13.83731,45.62573],[13.83745,45.62551],[13.83727,45.62513],[13.83775,45.62528],[13.83834,45.6263],[13.83872,45.62662],[13.83908,45.62718],[13.83915,45.62764],[13.83977,45.62824],[13.8401,45.62897],[13.84072,45.6294],[13.84109,45.63008],[13.84137,45.63026],[13.84159,45.63125],[13.84124,45.63166],[13.8411,45.63211],[13.8417,45.6333],[13.84459,45.63134],[13.85035,45.62886],[13.85244,45.62847],[13.85641,45.62903],[13.86088,45.62784],[13.86242,45.6278],[13.8625,45.62799],[13.86916,45.62899],[13.86987,45.62883],[13.87128,45.62833],[13.87156,45.62813],[13.8722,45.62836],[13.87524,45.62986],[13.87571,45.62974],[13.87628,45.6304],[13.87965,45.63211],[13.88368,45.63435],[13.89035,45.63815],[13.89069,45.63815],[13.8945,45.64027],[13.89495,45.64058],[13.89874,45.64331],[13.89572,45.64394],[13.89533,45.64452],[13.89477,45.64496],[13.89323,45.64498],[13.88676,45.64835],[13.87877,45.6526],[13.87672,45.65381],[13.87602,45.65413],[13.87361,45.65547],[13.87184,45.65643],[13.87116,45.65628],[13.87087,45.65723],[13.8675,45.65927],[13.86743,45.65918],[13.86472,45.66101],[13.86262,45.66238],[13.86233,45.66275],[13.8579,45.66573],[13.85607,45.66817],[13.85561,45.66883],[13.85492,45.66965],[13.85352,45.67161],[13.85287,45.67231],[13.85191,45.67292],[13.85133,45.6734],[13.84838,45.67693],[13.84692,45.67874],[13.84639,45.67923],[13.84496,45.68087],[13.84433,45.68132],[13.8426,45.68219],[13.84174,45.68282],[13.83902,45.68433],[13.8381,45.68505],[13.83665,45.68584],[13.83599,45.68631],[13.83444,45.68695],[13.83358,45.68719],[13.83336,45.68778],[13.83333,45.68841],[13.83253,45.68965],[13.83179,45.68995],[13.8318,45.69013],[13.83042,45.69114],[13.82984,45.69147],[13.82926,45.69243],[13.82903,45.69325],[13.82879,45.69351],[13.82838,45.69493],[13.82797,45.6956],[13.82732,45.69572],[13.82651,45.6954],[13.82637,45.69551],[13.82536,45.6955],[13.82506,45.69604],[13.82411,45.69615],[13.8236,45.69632],[13.81815,45.69846],[13.81825,45.6986],[13.81673,45.69924],[13.81508,45.69984],[13.8145,45.70014],[13.81263,45.70092],[13.81095,45.70171],[13.80933,45.70234],[13.80852,45.70258],[13.80725,45.70321],[13.80583,45.7038],[13.8052,45.70395],[13.80523,45.70453],[13.80559,45.70508],[13.80558,45.70568],[13.80496,45.70665],[13.80464,45.70686],[13.80391,45.7071],[13.80292,45.70719],[13.80235,45.70681],[13.80182,45.70629],[13.8014,45.70563],[13.80107,45.7049],[13.8005,45.70434],[13.79921,45.70428],[13.79763,45.70429],[13.79517,45.70456],[13.79361,45.70479],[13.79325,45.70475],[13.79231,45.70498],[13.78912,45.7055],[13.7824,45.70629],[13.77912,45.7064],[13.77699,45.70461],[13.77706,45.70453],[13.77614,45.70388],[13.77578,45.70351],[13.77502,45.70325],[13.77318,45.70248],[13.77233,45.70185],[13.76951,45.70023],[13.76907,45.70005],[13.76646,45.70094],[13.76448,45.70132],[13.76385,45.70118],[13.76207,45.70142],[13.76,45.70198],[13.7591,45.70235],[13.75856,45.70127],[13.75841,45.70136],[13.75885,45.7024],[13.75608,45.70349],[13.75556,45.70363],[13.75236,45.70427],[13.75164,45.70454],[13.74982,45.7055],[13.74855,45.70601],[13.74706,45.70624],[13.74596,45.70664],[13.74486,45.70687],[13.74244,45.70717],[13.74106,45.70705],[13.73973,45.70724],[13.73772,45.70869],[13.73715,45.70887],[13.73618,45.70953],[13.73575,45.7096],[13.73552,45.71015],[13.7352,45.71048],[13.73511,45.71115],[13.73398,45.71181],[13.7336,45.71221],[13.73316,45.71237],[13.73205,45.71243],[13.73138,45.71282],[13.73092,45.71263],[13.73033,45.7131],[13.73038,45.71357],[13.72996,45.71423],[13.7294,45.71454],[13.72799,45.71518],[13.72738,45.71528],[13.72455,45.71755],[13.72351,45.71803],[13.72297,45.7184],[13.72208,45.71915],[13.72167,45.71962],[13.72128,45.71985],[13.71981,45.7204],[13.71901,45.72064],[13.71811,45.72134],[13.71664,45.72198],[13.71544,45.72286],[13.71384,45.7238],[13.7129,45.72416],[13.71237,45.72447],[13.71108,45.72495],[13.70935,45.72585],[13.70823,45.72634],[13.70681,45.72717],[13.70581,45.72792],[13.70447,45.72856],[13.70391,45.72896],[13.70294,45.72942],[13.7021,45.73002],[13.70042,45.73104],[13.69995,45.73154],[13.69859,45.7327],[13.6983,45.73278],[13.69737,45.73368],[13.69622,45.73466],[13.69636,45.73478],[13.69429,45.73577],[13.69277,45.73637],[13.69073,45.73735],[13.68893,45.73844],[13.68834,45.73888],[13.68797,45.73893],[13.68514,45.74095],[13.68343,45.7419],[13.68252,45.74251],[13.68064,45.74363],[13.67904,45.74465],[13.67773,45.74495],[13.67708,45.74517],[13.67566,45.7461],[13.67493,45.74614],[13.67426,45.74634],[13.67396,45.74674],[13.6729,45.74573],[13.67147,45.74456],[13.67073,45.74402],[13.66998,45.74332],[13.67062,45.74304],[13.67267,45.74218],[13.67287,45.74231],[13.67264,45.7427],[13.67381,45.74228],[13.67484,45.74181],[13.67639,45.74067],[13.67748,45.73974],[13.67838,45.73906],[13.67921,45.7382],[13.68076,45.73726],[13.68173,45.73645],[13.68201,45.73613],[13.68421,45.73469],[13.68462,45.73433],[13.68608,45.73375],[13.68662,45.73309],[13.68857,45.73208],[13.68831,45.73183],[13.68766,45.73212],[13.68755,45.73179],[13.68897,45.73063],[13.69144,45.72855],[13.69229,45.72788],[13.69267,45.72789],[13.69422,45.72648],[13.69496,45.72571],[13.69704,45.723],[13.69799,45.72211],[13.69844,45.72183],[13.69897,45.72229],[13.69897,45.72253],[13.70097,45.72195],[13.70277,45.72041],[13.70394,45.71978],[13.70442,45.71927],[13.7053,45.71869],[13.70637,45.71813],[13.70778,45.71721],[13.70839,45.71612],[13.70885,45.7158],[13.70979,45.71544],[13.71031,45.71537],[13.71251,45.7145],[13.7135,45.71389],[13.71452,45.71358],[13.71498,45.71321],[13.71629,45.71261],[13.71572,45.71201],[13.71565,45.71178],[13.71602,45.71157],[13.71579,45.7113],[13.71631,45.71073],[13.71614,45.71047],[13.71689,45.71011],[13.71739,45.71002],[13.71843,45.71017],[13.71858,45.70991],[13.71852,45.70936],[13.71944,45.70878],[13.7191,45.70856],[13.71956,45.70803],[13.71875,45.70746],[13.71935,45.70711],[13.71912,45.70666],[13.71933,45.70655],[13.72004,45.70686],[13.72022,45.70654],[13.72088,45.70653],[13.72186,45.70575],[13.72236,45.70544],[13.72265,45.70552],[13.72329,45.70512],[13.72298,45.70486],[13.72308,45.70386],[13.72236,45.70329],[13.72178,45.70317],[13.72233,45.7028],[13.72267,45.70247],[13.7247,45.70139],[13.72659,45.70033],[13.72812,45.69956],[13.73136,45.69815],[13.73273,45.69771],[13.73453,45.69729],[13.73559,45.69691],[13.7363,45.69649],[13.73651,45.69662],[13.7378,45.69583],[13.73889,45.69676],[13.7393,45.69652],[13.73966,45.69674],[13.74059,45.69662],[13.74116,45.69667],[13.74172,45.69627],[13.74203,45.69656],[13.74288,45.69624],[13.7434,45.69575],[13.74379,45.69598],[13.74426,45.69551],[13.7438,45.69527],[13.74408,45.69476],[13.74357,45.69448],[13.7443,45.69341],[13.74433,45.6927],[13.74446,45.69226],[13.74488,45.69167],[13.74601,45.69111],[13.74648,45.69127],[13.74693,45.69172],[13.74787,45.69138],[13.74821,45.69138],[13.7492,45.69074],[13.7496,45.69062],[13.75051,45.69005],[13.75049,45.68969],[13.75153,45.68911],[13.75241,45.68851],[13.75306,45.68834],[13.75393,45.68786],[13.75446,45.68772],[13.75498,45.68781],[13.7556,45.68774],[13.75589,45.68791],[13.75637,45.68776],[13.75688,45.68742],[13.75671,45.6872],[13.75756,45.68627],[13.75888,45.68541],[13.75789,45.68555],[13.75693,45.68534],[13.75729,45.68505],[13.75797,45.68485],[13.75755,45.68404],[13.75805,45.68394],[13.75822,45.68415],[13.75956,45.68369],[13.75995,45.6833],[13.761,45.68285],[13.76107,45.68266],[13.76169,45.68261],[13.76233,45.68237],[13.7621,45.6821],[13.76226,45.6817],[13.76128,45.68122],[13.76106,45.68036],[13.76151,45.67995],[13.76187,45.68001],[13.76197,45.68062],[13.76222,45.68086],[13.76301,45.68077],[13.76363,45.68052],[13.7642,45.68059],[13.76516,45.67995],[13.76575,45.67968],[13.76643,45.68043],[13.76681,45.68055],[13.76782,45.68114],[13.7683,45.68156],[13.76907,45.68178],[13.7675,45.68282],[13.76677,45.68348],[13.76535,45.68419],[13.76712,45.68674],[13.76772,45.68763],[13.76838,45.68913],[13.7692,45.69129],[13.76914,45.69147],[13.76924,45.69242],[13.77002,45.69228],[13.77014,45.69244],[13.77077,45.6923],[13.77114,45.69237],[13.77126,45.69268],[13.77253,45.69254],[13.77319,45.69235],[13.77397,45.69234],[13.77458,45.693],[13.77509,45.69336],[13.77495,45.69382],[13.77553,45.69413],[13.7762,45.69475],[13.77582,45.69515],[13.7751,45.69626],[13.77482,45.69702],[13.77525,45.69704],[13.77535,45.69743],[13.777,45.69835],[13.77779,45.69873],[13.77815,45.69904],[13.7788,45.69845],[13.78083,45.69723],[13.78254,45.69625],[13.78281,45.69648],[13.78189,45.6971],[13.78151,45.69767],[13.78097,45.69811],[13.7807,45.69813],[13.78054,45.69866],[13.78129,45.69941],[13.78142,45.69978],[13.78117,45.7002],[13.78151,45.70062],[13.78098,45.70112],[13.78136,45.70167],[13.78239,45.70116],[13.78261,45.70155],[13.78339,45.70156],[13.7839,45.70136],[13.78477,45.70077],[13.78542,45.70068],[13.78592,45.70034],[13.78695,45.70025],[13.78755,45.69966],[13.78874,45.6989],[13.78917,45.69917],[13.79017,45.69932],[13.79032,45.69894],[13.79191,45.69872],[13.79189,45.6984],[13.79316,45.69822],[13.7941,45.69829],[13.79386,45.6987],[13.79423,45.6993],[13.79478,45.69906],[13.79525,45.69946],[13.7957,45.6994],[13.79622,45.6991],[13.79662,45.69905],[13.79695,45.69997],[13.79658,45.70073],[13.79656,45.70109],[13.79708,45.70161],[13.79772,45.70171],[13.798,45.70203],[13.79844,45.70184],[13.79889,45.70144],[13.79938,45.70137],[13.799,45.70077],[13.79903,45.69999],[13.79947,45.69888],[13.79871,45.69796],[13.79903,45.69763],[13.79986,45.6985],[13.80002,45.69834],[13.80207,45.69917],[13.80242,45.69937],[13.80369,45.69967],[13.80556,45.69986],[13.80641,45.69963],[13.80828,45.69853],[13.80848,45.69815],[13.80807,45.69785],[13.80823,45.69715],[13.80857,45.69642],[13.80864,45.69594],[13.80853,45.69543],[13.80729,45.69476],[13.80673,45.69389],[13.80686,45.69344],[13.80632,45.69274],[13.80636,45.69243],[13.80594,45.69179],[13.80192,45.69088],[13.79812,45.68999],[13.79855,45.68999],[13.8024,45.69088],[13.80312,45.69052],[13.80326,45.69026],[13.80305,45.68983],[13.80255,45.68939],[13.80307,45.68928],[13.80401,45.68927],[13.80486,45.68875],[13.80542,45.68856],[13.80579,45.68829],[13.80621,45.6882],[13.80688,45.68771],[13.80692,45.68745],[13.80735,45.68716],[13.80688,45.68665],[13.80626,45.68621],[13.80595,45.68561],[13.80567,45.68557],[13.8051,45.68488],[13.80406,45.6842],[13.80375,45.68419],[13.80253,45.68292],[13.80296,45.68271],[13.80248,45.68212],[13.80199,45.68232],[13.80116,45.6815],[13.79915,45.67967],[13.79901,45.67928],[13.79832,45.6786],[13.79801,45.67866],[13.7963,45.6795],[13.79352,45.68064],[13.79295,45.68028],[13.79106,45.68114],[13.79048,45.68089],[13.79014,45.68102],[13.7898,45.68082],[13.78874,45.68074],[13.78807,45.68035],[13.78699,45.67942],[13.78718,45.67907],[13.78761,45.6789],[13.78712,45.67853],[13.78678,45.67861],[13.7849,45.67948],[13.78418,45.67965],[13.78295,45.68008],[13.78236,45.67987],[13.78198,45.67943],[13.7836,45.67899],[13.78461,45.67838],[13.7856,45.67794],[13.78622,45.67758],[13.78706,45.67694],[13.78794,45.6761],[13.78945,45.67497],[13.79025,45.6754],[13.79317,45.67586],[13.79433,45.67516],[13.79749,45.67344],[13.79759,45.6732],[13.79737,45.67262],[13.79783,45.6721],[13.79719,45.67184],[13.79688,45.67152],[13.79734,45.67052],[13.79752,45.66993],[13.79844,45.66976],[13.79909,45.66951],[13.80002,45.66862],[13.80063,45.66857],[13.8008,45.66885],[13.80142,45.66894],[13.80169,45.66817],[13.80217,45.66766],[13.80168,45.66728],[13.80178,45.66699],[13.80277,45.66769],[13.80312,45.66757],[13.80355,45.66704],[13.80376,45.66625],[13.80418,45.66618],[13.80473,45.66584],[13.80485,45.66561],[13.805,45.66461],[13.80638,45.66493],[13.80689,45.66543],[13.80722,45.66525],[13.80784,45.66563],[13.80903,45.66508],[13.80992,45.66415],[13.81066,45.66323],[13.81202,45.66181],[13.81274,45.66126],[13.81342,45.6604],[13.81437,45.65943],[13.81565,45.65781],[13.81576,45.65785],[13.81682,45.65664],[13.8171,45.6561],[13.81659,45.65601],[13.81778,45.65484],[13.81865,45.65373],[13.82003,45.65298],[13.82193,45.65238],[13.82247,45.65235],[13.82213,45.65166],[13.82208,45.65119],[13.82222,45.65045],[13.82244,45.64986],[13.82239,45.64917],[13.82339,45.64834],[13.82291,45.64803],[13.82352,45.64741],[13.82427,45.64682],[13.82463,45.64631],[13.82449,45.64617],[13.82534,45.64551],[13.82514,45.64508],[13.82612,45.64401],[13.82462,45.6436],[13.824,45.64438],[13.82351,45.64465],[13.82302,45.64517],[13.82268,45.64582],[13.82228,45.64601],[13.82181,45.64648],[13.82207,45.64689],[13.82176,45.6471],[13.82102,45.64786],[13.82065,45.64765],[13.81997,45.64768],[13.81955,45.64736],[13.81916,45.64761],[13.81885,45.64756],[13.8178,45.64801],[13.81704,45.64801],[13.81636,45.64837],[13.81532,45.6487],[13.81449,45.64506],[13.81537,45.64466],[13.81666,45.64463],[13.81709,45.64453],[13.81765,45.64533],[13.81934,45.64482],[13.82048,45.6444],[13.82024,45.64409],[13.82433,45.64186],[13.82537,45.64168],[13.82738,45.64086],[13.82754,45.64072],[13.82675,45.64012],[13.82796,45.63918],[13.82829,45.63937],[13.82874,45.63924],[13.83106,45.6375],[13.83144,45.63697],[13.83132,45.63651],[13.83246,45.63601],[13.8339,45.63519],[13.83425,45.63493],[13.83386,45.63457],[13.83357,45.63455],[13.83261,45.63487],[13.83151,45.63509],[13.83075,45.63514]]]},"properties":{"zona":"R1","linkzona":"TS00000368","fascia":"R","fascia_label":"Extraurbana","descr":"REGIONE AGRARIA 19 - I BORGHI DELL`ALTIPIANO","semestre":"2025-S2","loc_min":6.0,"loc_max":8.5,"loc_mid":7.25,"sale_min":1650.0,"sale_max":2050.0,"sup":"L","tipologia":"Abitazioni civili","stato":"NORMALE"}},{"type":"Feature","geometry":{"type":"MultiPolygon","coordinates":[[[[13.78053,45.63169],[13.78055,45.63237],[13.78028,45.63307],[13.77943,45.63449],[13.77699,45.63347],[13.77828,45.63112],[13.77408,45.62977],[13.77427,45.62947],[13.77356,45.62919],[13.77401,45.6289],[13.77465,45.62781],[13.77573,45.62755],[13.77592,45.62726],[13.77578,45.62676],[13.77532,45.62627],[13.77527,45.62582],[13.77489,45.62593],[13.77409,45.62595],[13.77391,45.62571],[13.77244,45.62625],[13.77223,45.62608],[13.77204,45.62533],[13.7721,45.62505],[13.77545,45.62048],[13.77532,45.62036],[13.77791,45.61776],[13.77893,45.61668],[13.77997,45.61584],[13.7808,45.61536],[13.78182,45.61453],[13.78254,45.61419],[13.78394,45.61371],[13.78386,45.61344],[13.78326,45.61296],[13.78334,45.61279],[13.78258,45.61205],[13.78208,45.61201],[13.77727,45.61384],[13.77723,45.61379],[13.77405,45.61286],[13.77311,45.61256],[13.77311,45.61239],[13.77752,45.61365],[13.78082,45.61242],[13.777,45.61124],[13.77706,45.61109],[13.77812,45.61137],[13.78117,45.61227],[13.78247,45.61181],[13.78286,45.61192],[13.78368,45.61272],[13.78444,45.61333],[13.78493,45.6133],[13.78578,45.61384],[13.788,45.6127],[13.7883,45.61236],[13.78866,45.6126],[13.78964,45.61254],[13.7908,45.61279],[13.79116,45.61254],[13.79234,45.61228],[13.79305,45.61195],[13.7938,45.61182],[13.79424,45.61189],[13.79528,45.6118],[13.79655,45.61161],[13.79753,45.61085],[13.79855,45.61036],[13.799,45.61038],[13.79945,45.61],[13.80022,45.61002],[13.80119,45.61036],[13.80154,45.61059],[13.80192,45.61031],[13.80421,45.61109],[13.80398,45.61144],[13.80523,45.61191],[13.80593,45.6121],[13.80634,45.61182],[13.80691,45.61202],[13.80671,45.61235],[13.80893,45.61311],[13.8089,45.61319],[13.81363,45.61471],[13.81359,45.61439],[13.81212,45.61392],[13.81302,45.61254],[13.81269,45.61237],[13.8063,45.61032],[13.80418,45.60968],[13.80572,45.60735],[13.80636,45.60694],[13.80684,45.60688],[13.80875,45.60699],[13.8117,45.60774],[13.81272,45.60792],[13.81372,45.60794],[13.81373,45.60813],[13.81458,45.60812],[13.81584,45.60796],[13.81755,45.60756],[13.81894,45.60747],[13.81913,45.6082],[13.81957,45.60814],[13.82104,45.60913],[13.82025,45.6097],[13.82106,45.61034],[13.82492,45.61294],[13.82564,45.6125],[13.82606,45.61284],[13.82537,45.61324],[13.82537,45.61345],[13.82723,45.61425],[13.83005,45.6156],[13.83128,45.61628],[13.83179,45.61663],[13.83251,45.61728],[13.83317,45.61827],[13.83356,45.61866],[13.83423,45.61895],[13.83469,45.61937],[13.8348,45.62031],[13.83533,45.62076],[13.8355,45.62123],[13.83528,45.62149],[13.83558,45.62171],[13.83562,45.62206],[13.83597,45.62224],[13.83619,45.623],[13.83611,45.62349],[13.83651,45.62362],[13.8366,45.624],[13.83705,45.6244],[13.83727,45.62513],[13.83745,45.62551],[13.83731,45.62573],[13.83638,45.62535],[13.83598,45.62585],[13.83531,45.62581],[13.83482,45.62536],[13.83395,45.62511],[13.83355,45.62515],[13.83228,45.62485],[13.83153,45.62481],[13.83014,45.62491],[13.8288,45.62518],[13.82808,45.62525],[13.82751,45.62448],[13.82612,45.62502],[13.82576,45.62471],[13.82505,45.62512],[13.82508,45.62533],[13.82434,45.62533],[13.82421,45.62519],[13.82351,45.62514],[13.8219,45.62549],[13.82226,45.62639],[13.82304,45.62695],[13.82353,45.62741],[13.82398,45.62765],[13.82448,45.62857],[13.82357,45.62952],[13.82427,45.62979],[13.82472,45.62964],[13.82589,45.62987],[13.82604,45.62958],[13.82758,45.63041],[13.82759,45.63063],[13.82859,45.6305],[13.82851,45.63021],[13.82972,45.62975],[13.82988,45.63061],[13.83041,45.63286],[13.83058,45.635],[13.83067,45.63511],[13.83068,45.63514],[13.83075,45.63514],[13.83151,45.63509],[13.83261,45.63487],[13.83357,45.63455],[13.83386,45.63457],[13.83425,45.63493],[13.8339,45.63519],[13.83246,45.63601],[13.83132,45.63651],[13.8309,45.63647],[13.83105,45.63593],[13.83096,45.63534],[13.83071,45.63529],[13.82934,45.6356],[13.82825,45.63599],[13.82602,45.63644],[13.82484,45.63689],[13.82283,45.63729],[13.82276,45.63635],[13.82225,45.63635],[13.82233,45.63594],[13.82166,45.63599],[13.81973,45.63665],[13.81847,45.63686],[13.81756,45.63689],[13.81696,45.63737],[13.81614,45.63753],[13.81578,45.63717],[13.81416,45.63757],[13.81316,45.63761],[13.81118,45.63821],[13.8093,45.6383],[13.80855,45.63829],[13.808,45.63818],[13.80634,45.63826],[13.80453,45.63809],[13.8028,45.63771],[13.80186,45.63756],[13.79993,45.63739],[13.79893,45.63721],[13.7964,45.63705],[13.79433,45.63701],[13.79305,45.63701],[13.79167,45.63685],[13.78982,45.63705],[13.78976,45.63695],[13.78868,45.63708],[13.78778,45.63732],[13.78724,45.63787],[13.78637,45.63786],[13.78521,45.63768],[13.78611,45.63574],[13.78643,45.63533],[13.78746,45.63451],[13.78813,45.63417],[13.78904,45.63328],[13.79076,45.63329],[13.79126,45.63318],[13.79215,45.63262],[13.79247,45.63231],[13.79225,45.63161],[13.79243,45.63123],[13.79341,45.63041],[13.79373,45.63004],[13.79424,45.62832],[13.79475,45.62853],[13.79678,45.62619],[13.79725,45.62555],[13.79834,45.62556],[13.79678,45.62476],[13.79716,45.62444],[13.79788,45.62408],[13.7992,45.62369],[13.79812,45.62247],[13.79908,45.62199],[13.79828,45.6212],[13.7979,45.62071],[13.79789,45.61965],[13.79866,45.6193],[13.79827,45.61872],[13.79791,45.61886],[13.7977,45.61843],[13.79857,45.61786],[13.79786,45.61673],[13.79693,45.61678],[13.7966,45.61653],[13.7963,45.61674],[13.79443,45.61609],[13.7942,45.61592],[13.79321,45.61582],[13.79318,45.61607],[13.79218,45.61598],[13.79214,45.61616],[13.79099,45.61616],[13.79083,45.61592],[13.78975,45.61649],[13.79051,45.61733],[13.79058,45.61753],[13.79006,45.61771],[13.79071,45.6189],[13.78931,45.61989],[13.79009,45.62052],[13.78981,45.62113],[13.78923,45.62157],[13.78876,45.62146],[13.78791,45.62149],[13.78721,45.62128],[13.78549,45.62034],[13.7852,45.62001],[13.7833,45.62029],[13.78251,45.62066],[13.78142,45.6215],[13.78083,45.62212],[13.78063,45.62318],[13.77972,45.62348],[13.77939,45.62317],[13.77849,45.62372],[13.77819,45.62347],[13.77746,45.62406],[13.77726,45.62458],[13.77738,45.6249],[13.77776,45.62517],[13.77888,45.62545],[13.78009,45.62564],[13.78064,45.62606],[13.78153,45.62649],[13.78251,45.62684],[13.78135,45.62707],[13.78065,45.62713],[13.78109,45.62773],[13.78128,45.62876],[13.78107,45.6294],[13.78028,45.63028],[13.78019,45.63109],[13.78053,45.63169]]],[[[13.76459,45.63832],[13.76461,45.6384],[13.76119,45.63897],[13.75852,45.64019],[13.7564,45.64042],[13.75467,45.64086],[13.75302,45.64145],[13.75205,45.64143],[13.75115,45.64209],[13.75063,45.6428],[13.75066,45.64306],[13.75181,45.64433],[13.75232,45.64502],[13.75174,45.64531],[13.74871,45.64124],[13.74397,45.64063],[13.74409,45.64007],[13.74431,45.63922],[13.74435,45.63908],[13.74897,45.63968],[13.74988,45.63958],[13.75179,45.63891],[13.75189,45.63888],[13.75395,45.63815],[13.75385,45.63768],[13.74937,45.63712],[13.74971,45.63572],[13.74341,45.63505],[13.74338,45.63506],[13.7425,45.63891],[13.7424,45.6389],[13.74327,45.63501],[13.74342,45.63497],[13.74971,45.63565],[13.74974,45.63567],[13.75761,45.63666],[13.75857,45.63654],[13.76254,45.63512],[13.7628,45.63471],[13.76279,45.63361],[13.75514,45.6314],[13.75707,45.6281],[13.76618,45.63072],[13.7661,45.63383],[13.76648,45.63385],[13.76642,45.63526],[13.76653,45.63536],[13.7676,45.63533],[13.76779,45.63581],[13.76903,45.63579],[13.76899,45.6343],[13.76914,45.63431],[13.76918,45.63577],[13.76951,45.63577],[13.76948,45.63473],[13.77005,45.63472],[13.77011,45.63578],[13.77353,45.63573],[13.77373,45.63554],[13.77199,45.63343],[13.7722,45.63333],[13.7737,45.63516],[13.77435,45.63489],[13.7734,45.6337],[13.77441,45.63331],[13.77548,45.63463],[13.77613,45.63437],[13.77664,45.63403],[13.77698,45.63363],[13.77932,45.63463],[13.77946,45.63469],[13.77869,45.63559],[13.77689,45.63693],[13.77651,45.63735],[13.77513,45.63839],[13.77398,45.63865],[13.77275,45.63856],[13.77181,45.63894],[13.77085,45.63817],[13.77066,45.63828],[13.76987,45.6378],[13.76929,45.6377],[13.76838,45.63772],[13.76459,45.63832]]]]},"properties":{"zona":"D1","linkzona":"TS00000011","fascia":"D","fascia_label":"Periferica","descr":"PERIFERIA SUD - S.M.M. SUPERIORE - S.M.M. INFERIORE - ZONA INDUSTRIALE -...","semestre":"2025-S2","loc_min":5.2,"loc_max":6.8,"loc_mid":6.0,"sale_min":1650.0,"sale_max":1900.0,"sup":"L","tipologia":"Abitazioni civili","stato":"NORMALE","ott_min":6.8,"ott_max":9.3}},{"type":"Feature","geometry":{"type":"Polygon","coordinates":[[[13.77563,45.65383],[13.7753,45.65454],[13.77529,45.65486],[13.77484,45.655],[13.77503,45.65535],[13.7723,45.65614],[13.77218,45.65633],[13.77051,45.65596],[13.77017,45.6566],[13.76847,45.65609],[13.76758,45.65594],[13.76814,45.65489],[13.76644,45.65472],[13.76658,45.65396],[13.76855,45.65413],[13.76909,45.65312],[13.76852,45.65222],[13.76766,45.65162],[13.76521,45.65298],[13.76503,45.65281],[13.76742,45.65146],[13.76486,45.64983],[13.76472,45.64985],[13.76289,45.65128],[13.76206,45.65076],[13.76409,45.64918],[13.76301,45.64838],[13.76168,45.64938],[13.76147,45.64928],[13.7609,45.6497],[13.7596,45.64893],[13.76127,45.64765],[13.76024,45.64717],[13.75994,45.64739],[13.75936,45.64725],[13.76035,45.64645],[13.75994,45.64627],[13.759,45.64702],[13.75877,45.64689],[13.75974,45.64607],[13.75906,45.64576],[13.75875,45.64539],[13.75834,45.64495],[13.7578,45.64518],[13.75751,45.64486],[13.75918,45.64458],[13.75984,45.64439],[13.76255,45.64548],[13.76391,45.64595],[13.76503,45.64657],[13.76559,45.64681],[13.76604,45.64685],[13.76678,45.6463],[13.76697,45.6463],[13.76757,45.64712],[13.76858,45.64665],[13.76919,45.64683],[13.77026,45.64596],[13.77071,45.64573],[13.77223,45.64536],[13.77245,45.64544],[13.77294,45.6459],[13.77362,45.64612],[13.77381,45.6467],[13.77517,45.64747],[13.7759,45.64684],[13.77735,45.64756],[13.7776,45.64733],[13.77767,45.64753],[13.77824,45.6478],[13.77857,45.64747],[13.77906,45.64772],[13.77835,45.64846],[13.77859,45.64859],[13.77789,45.64957],[13.77779,45.64992],[13.77581,45.65387],[13.77563,45.65383]]]},"properties":{"zona":"B2","linkzona":"TS00000488","fascia":"B","fascia_label":"Centrale","descr":"CENTRO STORICO","semestre":"2025-S2","loc_min":8.0,"loc_max":11.3,"loc_mid":9.65,"sale_min":2250.0,"sale_max":3100.0,"sup":"L","tipologia":"Abitazioni civili","stato":"NORMALE"}},{"type":"Feature","geometry":{"type":"Polygon","coordinates":[[[13.78868,45.63708],[13.78921,45.63828],[13.78876,45.63862],[13.78714,45.63938],[13.78653,45.63959],[13.78591,45.64006],[13.78524,45.6404],[13.78469,45.6414],[13.78482,45.64159],[13.78469,45.64223],[13.78441,45.64229],[13.78326,45.64318],[13.78296,45.64315],[13.78191,45.64434],[13.78159,45.64479],[13.78051,45.64562],[13.77897,45.64581],[13.77687,45.64549],[13.77615,45.64618],[13.77705,45.64677],[13.7776,45.64733],[13.77735,45.64756],[13.7759,45.64684],[13.77517,45.64747],[13.77381,45.6467],[13.77362,45.64612],[13.77294,45.6459],[13.77245,45.64544],[13.77415,45.64519],[13.77531,45.6449],[13.77544,45.64507],[13.77714,45.64461],[13.77723,45.6443],[13.777,45.64404],[13.7762,45.64355],[13.77571,45.64346],[13.77546,45.64315],[13.77599,45.64278],[13.77626,45.64245],[13.7755,45.64193],[13.77509,45.64176],[13.7741,45.64189],[13.77337,45.64152],[13.77355,45.64104],[13.77221,45.64015],[13.77124,45.64002],[13.77022,45.63969],[13.77,45.64004],[13.76852,45.64017],[13.76826,45.64001],[13.76727,45.63998],[13.7671,45.63959],[13.76582,45.63986],[13.76424,45.64046],[13.76414,45.64032],[13.76589,45.63965],[13.76554,45.63924],[13.76575,45.63902],[13.76555,45.63871],[13.76508,45.63869],[13.76461,45.6384],[13.76459,45.63832],[13.76838,45.63772],[13.76929,45.6377],[13.76987,45.6378],[13.77066,45.63828],[13.77085,45.63817],[13.77181,45.63894],[13.77275,45.63856],[13.77398,45.63865],[13.77513,45.63839],[13.77651,45.63735],[13.77689,45.63693],[13.77869,45.63559],[13.77946,45.63469],[13.77932,45.63463],[13.77943,45.63449],[13.78028,45.63307],[13.78055,45.63237],[13.78053,45.63169],[13.78019,45.63109],[13.78028,45.63028],[13.78107,45.6294],[13.78128,45.62876],[13.78109,45.62773],[13.78065,45.62713],[13.78135,45.62707],[13.78251,45.62684],[13.78153,45.62649],[13.78064,45.62606],[13.78009,45.62564],[13.77888,45.62545],[13.77776,45.62517],[13.77738,45.6249],[13.77726,45.62458],[13.77746,45.62406],[13.77819,45.62347],[13.77849,45.62372],[13.77939,45.62317],[13.77972,45.62348],[13.78063,45.62318],[13.78083,45.62212],[13.78142,45.6215],[13.78251,45.62066],[13.7833,45.62029],[13.7852,45.62001],[13.78549,45.62034],[13.78721,45.62128],[13.78791,45.62149],[13.78876,45.62146],[13.78923,45.62157],[13.78981,45.62113],[13.79009,45.62052],[13.78931,45.61989],[13.79071,45.6189],[13.79006,45.61771],[13.79058,45.61753],[13.79051,45.61733],[13.78975,45.61649],[13.79083,45.61592],[13.79099,45.61616],[13.79214,45.61616],[13.79218,45.61598],[13.79318,45.61607],[13.79321,45.61582],[13.7942,45.61592],[13.79443,45.61609],[13.7963,45.61674],[13.7966,45.61653],[13.79693,45.61678],[13.79786,45.61673],[13.79857,45.61786],[13.7977,45.61843],[13.79791,45.61886],[13.79827,45.61872],[13.79866,45.6193],[13.79789,45.61965],[13.7979,45.62071],[13.79828,45.6212],[13.79908,45.62199],[13.79812,45.62247],[13.7992,45.62369],[13.79788,45.62408],[13.79716,45.62444],[13.79678,45.62476],[13.79834,45.62556],[13.79725,45.62555],[13.79678,45.62619],[13.79475,45.62853],[13.79424,45.62832],[13.79373,45.63004],[13.79341,45.63041],[13.79243,45.63123],[13.79225,45.63161],[13.79247,45.63231],[13.79215,45.63262],[13.79126,45.63318],[13.79076,45.63329],[13.78904,45.63328],[13.78813,45.63417],[13.78746,45.63451],[13.78643,45.63533],[13.78611,45.63574],[13.78521,45.63768],[13.78637,45.63786],[13.78724,45.63787],[13.78778,45.63732],[13.78868,45.63708]]]},"properties":{"zona":"C2","linkzona":"TS00000035","fascia":"C","fascia_label":"Semicentrale","descr":"SAN GIACOMO - CHIARBOLA - SERVOLA - MONTE SAN PANTALEONE","semestre":"2025-S2","loc_min":4.8,"loc_max":7.2,"loc_mid":6.0,"sale_min":1600.0,"sale_max":1950.0,"sup":"L","tipologia":"Abitazioni civili","stato":"NORMALE"}},{"type":"Feature","geometry":{"type":"Polygon","coordinates":[[[13.78198,45.67943],[13.78137,45.6796],[13.78159,45.67939],[13.77926,45.67898],[13.77847,45.67891],[13.77725,45.67867],[13.77719,45.67812],[13.77672,45.67758],[13.77639,45.67695],[13.77548,45.67703],[13.77454,45.67722],[13.77406,45.67744],[13.77356,45.67792],[13.7729,45.67736],[13.77223,45.67614],[13.77203,45.67523],[13.77125,45.67441],[13.77078,45.67404],[13.7704,45.67461],[13.76918,45.67402],[13.76903,45.67414],[13.76834,45.67371],[13.76822,45.6734],[13.76732,45.67249],[13.76509,45.67227],[13.76471,45.67193],[13.76451,45.67134],[13.76484,45.67104],[13.76469,45.67081],[13.76502,45.67009],[13.76465,45.66995],[13.76396,45.66934],[13.76502,45.66872],[13.76538,45.6686],[13.76619,45.66733],[13.76647,45.66658],[13.76778,45.66696],[13.76809,45.6669],[13.76891,45.66598],[13.76881,45.66648],[13.76943,45.66737],[13.76968,45.66841],[13.77011,45.66837],[13.77077,45.66793],[13.77092,45.66734],[13.77134,45.6671],[13.77239,45.66702],[13.7727,45.66712],[13.77336,45.66681],[13.77284,45.66651],[13.77249,45.66607],[13.77248,45.6658],[13.77346,45.66547],[13.77468,45.66603],[13.77537,45.66603],[13.77628,45.66571],[13.77693,45.66574],[13.77736,45.66591],[13.77838,45.6659],[13.77913,45.66575],[13.78016,45.66542],[13.78134,45.66534],[13.78224,45.66505],[13.78355,45.66497],[13.78425,45.66499],[13.78519,45.66482],[13.7862,45.66474],[13.78534,45.66425],[13.78529,45.66397],[13.78674,45.66394],[13.78742,45.66383],[13.78728,45.66354],[13.78783,45.6634],[13.78794,45.66368],[13.78868,45.66371],[13.78961,45.66395],[13.7915,45.66487],[13.792,45.66524],[13.79219,45.66589],[13.79276,45.66575],[13.79401,45.66511],[13.79418,45.66472],[13.79339,45.66367],[13.79277,45.66362],[13.79184,45.66319],[13.79105,45.66259],[13.79122,45.66236],[13.79051,45.6621],[13.79002,45.66206],[13.78972,45.66184],[13.79124,45.66104],[13.79052,45.66041],[13.7899,45.66004],[13.78929,45.65945],[13.78885,45.65883],[13.78781,45.65776],[13.78768,45.65723],[13.78807,45.65736],[13.78871,45.65717],[13.78904,45.65761],[13.78933,45.6574],[13.78935,45.65704],[13.78981,45.65669],[13.79089,45.65702],[13.79231,45.65764],[13.79206,45.65823],[13.79323,45.65982],[13.79313,45.66028],[13.79383,45.66039],[13.79449,45.66083],[13.79502,45.66074],[13.79505,45.66006],[13.79558,45.66011],[13.79655,45.66091],[13.79718,45.66011],[13.79908,45.66058],[13.8005,45.66162],[13.80075,45.66219],[13.80068,45.66271],[13.80109,45.66298],[13.80217,45.66302],[13.80285,45.66346],[13.8035,45.66321],[13.80388,45.66259],[13.805,45.662],[13.80641,45.66167],[13.80686,45.66133],[13.80744,45.66115],[13.80767,45.66133],[13.8088,45.66061],[13.80993,45.66026],[13.81036,45.66083],[13.81028,45.66112],[13.81091,45.66129],[13.81134,45.66099],[13.81236,45.66068],[13.81267,45.66082],[13.8119,45.66168],[13.81202,45.66181],[13.81066,45.66323],[13.80992,45.66415],[13.80903,45.66508],[13.80784,45.66563],[13.80722,45.66525],[13.80689,45.66543],[13.80638,45.66493],[13.805,45.66461],[13.80485,45.66561],[13.80473,45.66584],[13.80418,45.66618],[13.80376,45.66625],[13.80355,45.66704],[13.80312,45.66757],[13.80277,45.66769],[13.80178,45.66699],[13.80168,45.66728],[13.80217,45.66766],[13.80169,45.66817],[13.80142,45.66894],[13.8008,45.66885],[13.80063,45.66857],[13.80002,45.66862],[13.79909,45.66951],[13.79844,45.66976],[13.79752,45.66993],[13.79734,45.67052],[13.79688,45.67152],[13.79719,45.67184],[13.79783,45.6721],[13.79737,45.67262],[13.79759,45.6732],[13.79749,45.67344],[13.79433,45.67516],[13.79317,45.67586],[13.79025,45.6754],[13.78945,45.67497],[13.78794,45.6761],[13.78706,45.67694],[13.78622,45.67758],[13.7856,45.67794],[13.78461,45.67838],[13.7836,45.67899],[13.78198,45.67943]]]},"properties":{"zona":"C3","linkzona":"TS00000487","fascia":"C","fascia_label":"Semicentrale","descr":"COLOGNA - ROIANO - PARTE GRETTA","semestre":"2025-S2","loc_min":6.1,"loc_max":8.6,"loc_mid":7.35,"sale_min":1650.0,"sale_max":2100.0,"sup":"L","tipologia":"Abitazioni civili","stato":"NORMALE"}},{"type":"Feature","geometry":{"type":"Polygon","coordinates":[[[13.81202,45.66181],[13.8119,45.66168],[13.81267,45.66082],[13.81236,45.66068],[13.81134,45.66099],[13.81091,45.66129],[13.81028,45.66112],[13.81036,45.66083],[13.80993,45.66026],[13.8088,45.66061],[13.80767,45.66133],[13.80744,45.66115],[13.80686,45.66133],[13.80641,45.66167],[13.805,45.662],[13.80388,45.66259],[13.8035,45.66321],[13.80285,45.66346],[13.80217,45.66302],[13.80109,45.66298],[13.80068,45.66271],[13.80075,45.66219],[13.8005,45.66162],[13.79908,45.66058],[13.79718,45.66011],[13.79655,45.66091],[13.79558,45.66011],[13.79505,45.66006],[13.79502,45.66074],[13.79449,45.66083],[13.79383,45.66039],[13.79313,45.66028],[13.79323,45.65982],[13.79206,45.65823],[13.79231,45.65764],[13.79089,45.65702],[13.78981,45.65669],[13.78935,45.65704],[13.78912,45.65685],[13.7887,45.65592],[13.78937,45.65574],[13.79093,45.65571],[13.79289,45.6558],[13.79302,45.65632],[13.79363,45.6561],[13.79503,45.65605],[13.79542,45.65633],[13.79672,45.65622],[13.79693,45.6557],[13.79672,45.65519],[13.7975,45.65481],[13.79749,45.6545],[13.79669,45.65435],[13.79535,45.65424],[13.79354,45.65424],[13.79118,45.65415],[13.78965,45.65385],[13.78968,45.65375],[13.78861,45.6534],[13.78798,45.65331],[13.78681,45.65289],[13.78626,45.65261],[13.78427,45.652],[13.78364,45.65187],[13.7855,45.64973],[13.78611,45.64908],[13.78718,45.64813],[13.78836,45.64649],[13.78952,45.64473],[13.79474,45.64024],[13.79516,45.64006],[13.79499,45.63927],[13.79669,45.63845],[13.79534,45.63817],[13.79452,45.63809],[13.7922,45.63773],[13.79086,45.6378],[13.78963,45.6383],[13.78932,45.63867],[13.78876,45.63862],[13.78921,45.63828],[13.78868,45.63708],[13.78976,45.63695],[13.78982,45.63705],[13.79167,45.63685],[13.79305,45.63701],[13.79433,45.63701],[13.7964,45.63705],[13.79893,45.63721],[13.79993,45.63739],[13.80186,45.63756],[13.8028,45.63771],[13.80453,45.63809],[13.80634,45.63826],[13.808,45.63818],[13.80855,45.63829],[13.8093,45.6383],[13.81118,45.63821],[13.81316,45.63761],[13.81416,45.63757],[13.81578,45.63717],[13.81614,45.63753],[13.81696,45.63737],[13.81756,45.63689],[13.81847,45.63686],[13.81973,45.63665],[13.82166,45.63599],[13.82233,45.63594],[13.82225,45.63635],[13.82276,45.63635],[13.82283,45.63729],[13.82484,45.63689],[13.82602,45.63644],[13.82825,45.63599],[13.82934,45.6356],[13.83071,45.63529],[13.83096,45.63534],[13.83105,45.63593],[13.8309,45.63647],[13.83132,45.63651],[13.83144,45.63697],[13.83106,45.6375],[13.82874,45.63924],[13.82829,45.63937],[13.82796,45.63918],[13.82675,45.64012],[13.82754,45.64072],[13.82738,45.64086],[13.82537,45.64168],[13.82433,45.64186],[13.82024,45.64409],[13.82048,45.6444],[13.81934,45.64482],[13.81765,45.64533],[13.81709,45.64453],[13.81666,45.64463],[13.81537,45.64466],[13.81449,45.64506],[13.81532,45.6487],[13.81636,45.64837],[13.81704,45.64801],[13.8178,45.64801],[13.81885,45.64756],[13.81916,45.64761],[13.81955,45.64736],[13.81997,45.64768],[13.82065,45.64765],[13.82102,45.64786],[13.82176,45.6471],[13.82207,45.64689],[13.82181,45.64648],[13.82228,45.64601],[13.82268,45.64582],[13.82302,45.64517],[13.82351,45.64465],[13.824,45.64438],[13.82462,45.6436],[13.82612,45.64401],[13.82514,45.64508],[13.82534,45.64551],[13.82449,45.64617],[13.82463,45.64631],[13.82427,45.64682],[13.82352,45.64741],[13.82291,45.64803],[13.82339,45.64834],[13.82239,45.64917],[13.82244,45.64986],[13.82222,45.65045],[13.82208,45.65119],[13.82213,45.65166],[13.82247,45.65235],[13.82193,45.65238],[13.82003,45.65298],[13.81865,45.65373],[13.81778,45.65484],[13.81659,45.65601],[13.8171,45.6561],[13.81682,45.65664],[13.81576,45.65785],[13.81565,45.65781],[13.81437,45.65943],[13.81342,45.6604],[13.81274,45.66126],[13.81202,45.66181]]]},"properties":{"zona":"C4","linkzona":"TS00000485","fascia":"C","fascia_label":"Semicentrale","descr":"CHIADINO - GUARDIELLA - SAN GIOVANNI - ROZZOL","semestre":"2025-S2","loc_min":6.3,"loc_max":8.9,"loc_mid":7.6,"sale_min":1750.0,"sale_max":2200.0,"sup":"L","tipologia":"Abitazioni civili","stato":"NORMALE"}},{"type":"Feature","geometry":{"type":"Polygon","coordinates":[[[13.77346,45.66547],[13.77351,45.66533],[13.77247,45.66502],[13.77175,45.66466],[13.77245,45.66416],[13.77204,45.66354],[13.77174,45.66333],[13.77227,45.66233],[13.7727,45.66185],[13.77377,45.65959],[13.77435,45.65952],[13.77469,45.65971],[13.77506,45.65924],[13.77559,45.65881],[13.77718,45.65729],[13.77767,45.65742],[13.77815,45.65694],[13.77827,45.65661],[13.77904,45.65662],[13.78005,45.65642],[13.78116,45.65674],[13.78125,45.65686],[13.78244,45.65715],[13.78282,45.65733],[13.7835,45.65721],[13.78351,45.65755],[13.78422,45.65821],[13.78527,45.65789],[13.78479,45.65723],[13.78599,45.65702],[13.78657,45.65684],[13.7874,45.65702],[13.78768,45.65723],[13.78781,45.65776],[13.78885,45.65883],[13.78929,45.65945],[13.7899,45.66004],[13.79052,45.66041],[13.79124,45.66104],[13.78972,45.66184],[13.79002,45.66206],[13.79051,45.6621],[13.79122,45.66236],[13.79105,45.66259],[13.79184,45.66319],[13.79277,45.66362],[13.79339,45.66367],[13.79418,45.66472],[13.79401,45.66511],[13.79276,45.66575],[13.79219,45.66589],[13.792,45.66524],[13.7915,45.66487],[13.78961,45.66395],[13.78868,45.66371],[13.78794,45.66368],[13.78783,45.6634],[13.78728,45.66354],[13.78742,45.66383],[13.78674,45.66394],[13.78529,45.66397],[13.78534,45.66425],[13.7862,45.66474],[13.78519,45.66482],[13.78425,45.66499],[13.78355,45.66497],[13.78224,45.66505],[13.78134,45.66534],[13.78016,45.66542],[13.77913,45.66575],[13.77838,45.6659],[13.77736,45.66591],[13.77693,45.66574],[13.77628,45.66571],[13.77537,45.66603],[13.77468,45.66603],[13.77346,45.66547]]]},"properties":{"zona":"C5","linkzona":"TS00000486","fascia":"C","fascia_label":"Semicentrale","descr":"SCORCOLA","semestre":"2025-S2","loc_min":6.2,"loc_max":9.3,"loc_mid":7.75,"sale_min":1850.0,"sale_max":2750.0,"sup":"L","tipologia":"Abitazioni civili","stato":"NORMALE"}},{"type":"Feature","geometry":{"type":"Polygon","coordinates":[[[13.77563,45.65383],[13.77581,45.65387],[13.77779,45.64992],[13.77789,45.64957],[13.77859,45.64859],[13.77835,45.64846],[13.77906,45.64772],[13.77857,45.64747],[13.77824,45.6478],[13.77767,45.64753],[13.7776,45.64733],[13.77705,45.64677],[13.77615,45.64618],[13.77687,45.64549],[13.77897,45.64581],[13.78051,45.64562],[13.78159,45.64479],[13.78191,45.64434],[13.78296,45.64315],[13.78326,45.64318],[13.78441,45.64229],[13.78469,45.64223],[13.78482,45.64159],[13.78469,45.6414],[13.78524,45.6404],[13.78591,45.64006],[13.78653,45.63959],[13.78714,45.63938],[13.78876,45.63862],[13.78932,45.63867],[13.78963,45.6383],[13.79086,45.6378],[13.7922,45.63773],[13.79452,45.63809],[13.79534,45.63817],[13.79669,45.63845],[13.79499,45.63927],[13.79516,45.64006],[13.79474,45.64024],[13.78952,45.64473],[13.78836,45.64649],[13.78718,45.64813],[13.78611,45.64908],[13.7855,45.64973],[13.78364,45.65187],[13.78427,45.652],[13.78626,45.65261],[13.78681,45.65289],[13.78798,45.65331],[13.78861,45.6534],[13.78968,45.65375],[13.78965,45.65385],[13.79118,45.65415],[13.79354,45.65424],[13.79535,45.65424],[13.79669,45.65435],[13.79749,45.6545],[13.7975,45.65481],[13.79672,45.65519],[13.79693,45.6557],[13.79672,45.65622],[13.79542,45.65633],[13.79503,45.65605],[13.79363,45.6561],[13.79302,45.65632],[13.79289,45.6558],[13.79093,45.65571],[13.78937,45.65574],[13.7887,45.65592],[13.78912,45.65685],[13.78935,45.65704],[13.78933,45.6574],[13.78904,45.65761],[13.78871,45.65717],[13.78807,45.65736],[13.78768,45.65723],[13.7874,45.65702],[13.78657,45.65684],[13.78599,45.65702],[13.78479,45.65723],[13.78527,45.65789],[13.78422,45.65821],[13.78351,45.65755],[13.7835,45.65721],[13.78282,45.65733],[13.78244,45.65715],[13.78125,45.65686],[13.78116,45.65674],[13.78005,45.65642],[13.77904,45.65662],[13.77827,45.65661],[13.77815,45.65694],[13.77767,45.65742],[13.77718,45.65729],[13.77559,45.65881],[13.77506,45.65924],[13.77469,45.65971],[13.77435,45.65952],[13.77377,45.65959],[13.7727,45.66185],[13.77227,45.66233],[13.77174,45.66333],[13.77204,45.66354],[13.77245,45.66416],[13.77175,45.66466],[13.77247,45.66502],[13.77351,45.66533],[13.77346,45.66547],[13.77248,45.6658],[13.77249,45.66607],[13.77284,45.66651],[13.77336,45.66681],[13.7727,45.66712],[13.77239,45.66702],[13.77134,45.6671],[13.77092,45.66734],[13.77077,45.66793],[13.77011,45.66837],[13.76968,45.66841],[13.76943,45.66737],[13.76881,45.66648],[13.76891,45.66598],[13.76856,45.6652],[13.76812,45.665],[13.76701,45.66574],[13.76652,45.66564],[13.76637,45.66535],[13.76538,45.66566],[13.76394,45.66586],[13.76356,45.66602],[13.76255,45.66709],[13.76214,45.66678],[13.76064,45.66637],[13.76041,45.66677],[13.7589,45.66641],[13.75858,45.66633],[13.75655,45.66539],[13.7566,45.66093],[13.75937,45.66093],[13.76038,45.65921],[13.76057,45.65927],[13.75964,45.66093],[13.76184,45.66094],[13.7625,45.6598],[13.76485,45.66044],[13.76492,45.66039],[13.76643,45.65806],[13.76486,45.65761],[13.76203,45.65684],[13.76066,45.65922],[13.76046,45.65916],[13.76213,45.65627],[13.7624,45.65621],[13.76682,45.65741],[13.76757,45.65599],[13.76845,45.65613],[13.77017,45.6566],[13.77051,45.65596],[13.77218,45.65633],[13.7723,45.65614],[13.77503,45.65535],[13.77484,45.655],[13.77529,45.65486],[13.7753,45.65454],[13.77563,45.65383]]]},"properties":{"zona":"B1","linkzona":"TS00000009","fascia":"B","fascia_label":"Centrale","descr":"CENTRO URBANO","semestre":"2025-S2","loc_min":6.0,"loc_max":8.7,"loc_mid":7.35,"sale_min":1650.0,"sale_max":2100.0,"sup":"L","tipologia":"Abitazioni civili","stato":"NORMALE"}},{"type":"Feature","geometry":{"type":"Polygon","coordinates":[[[13.75875,45.64539],[13.75844,45.64573],[13.75787,45.64588],[13.75583,45.64685],[13.7561,45.648],[13.75584,45.64803],[13.75599,45.64879],[13.75654,45.64911],[13.7572,45.64919],[13.75739,45.64935],[13.75586,45.65008],[13.75467,45.64997],[13.75463,45.6491],[13.75428,45.64899],[13.75374,45.64773],[13.75269,45.64807],[13.7525,45.6479],[13.75312,45.64761],[13.75279,45.64718],[13.75245,45.6473],[13.75194,45.64664],[13.75227,45.64651],[13.75288,45.64704],[13.75304,45.64697],[13.75217,45.64594],[13.75108,45.64648],[13.75094,45.64606],[13.74844,45.64462],[13.74836,45.64417],[13.74873,45.64412],[13.7482,45.64125],[13.74792,45.64137],[13.74391,45.64091],[13.74397,45.64063],[13.74871,45.64124],[13.75174,45.64531],[13.75232,45.64502],[13.75181,45.64433],[13.75066,45.64306],[13.75063,45.6428],[13.75115,45.64209],[13.75205,45.64143],[13.75302,45.64145],[13.75467,45.64086],[13.7564,45.64042],[13.75852,45.64019],[13.76119,45.63897],[13.76461,45.6384],[13.76508,45.63869],[13.76555,45.63871],[13.76575,45.63902],[13.76554,45.63924],[13.76589,45.63965],[13.76414,45.64032],[13.76424,45.64046],[13.76582,45.63986],[13.7671,45.63959],[13.76727,45.63998],[13.76826,45.64001],[13.76852,45.64017],[13.77,45.64004],[13.77022,45.63969],[13.77124,45.64002],[13.77221,45.64015],[13.77355,45.64104],[13.77337,45.64152],[13.7741,45.64189],[13.77509,45.64176],[13.7755,45.64193],[13.77626,45.64245],[13.77599,45.64278],[13.77546,45.64315],[13.77571,45.64346],[13.7762,45.64355],[13.777,45.64404],[13.77723,45.6443],[13.77714,45.64461],[13.77544,45.64507],[13.77531,45.6449],[13.77415,45.64519],[13.77245,45.64544],[13.77223,45.64536],[13.77071,45.64573],[13.77026,45.64596],[13.76919,45.64683],[13.76858,45.64665],[13.76757,45.64712],[13.76697,45.6463],[13.76678,45.6463],[13.76604,45.64685],[13.76559,45.64681],[13.76503,45.64657],[13.76391,45.64595],[13.76255,45.64548],[13.75984,45.64439],[13.75918,45.64458],[13.75751,45.64486],[13.7578,45.64518],[13.75834,45.64495],[13.75875,45.64539]]]},"properties":{"zona":"C1","linkzona":"TS00000010","fascia":"C","fascia_label":"Semicentrale","descr":"SAN VITO","semestre":"2025-S2","loc_min":6.8,"loc_max":10.0,"loc_mid":8.4,"sale_min":1800.0,"sale_max":2500.0,"sup":"L","tipologia":"Abitazioni civili","stato":"NORMALE"}},{"type":"Feature","geometry":{"type":"MultiPolygon","coordinates":[[[[13.72233,45.7028],[13.72178,45.70317],[13.72057,45.7021],[13.72,45.70118],[13.72139,45.70112],[13.72247,45.70079],[13.72259,45.70067],[13.72373,45.70021],[13.72553,45.6993],[13.72781,45.69849],[13.72937,45.69788],[13.73125,45.69701],[13.73254,45.69666],[13.73344,45.6963],[13.73508,45.69526],[13.73715,45.69374],[13.73672,45.69357],[13.73669,45.69332],[13.73723,45.69318],[13.73777,45.6932],[13.73893,45.69233],[13.741,45.69069],[13.74107,45.69071],[13.74254,45.68957],[13.74605,45.68711],[13.74619,45.68647],[13.74639,45.68617],[13.74849,45.6847],[13.75062,45.68267],[13.74998,45.68238],[13.75068,45.68161],[13.7509,45.68171],[13.75167,45.68091],[13.75215,45.68111],[13.75283,45.68034],[13.75267,45.68026],[13.75331,45.67946],[13.75379,45.67917],[13.75375,45.67867],[13.75396,45.6782],[13.75351,45.67801],[13.75301,45.67755],[13.75268,45.67706],[13.7523,45.67685],[13.75245,45.67587],[13.75305,45.67526],[13.75614,45.6761],[13.75615,45.67591],[13.75317,45.67513],[13.75327,45.67485],[13.75381,45.67419],[13.75426,45.67386],[13.75547,45.67409],[13.75604,45.67384],[13.75655,45.67288],[13.75672,45.67199],[13.75685,45.67181],[13.75862,45.66864],[13.75889,45.66713],[13.7589,45.66641],[13.76041,45.66677],[13.76064,45.66637],[13.76214,45.66678],[13.76255,45.66709],[13.76356,45.66602],[13.76394,45.66586],[13.76538,45.66566],[13.76637,45.66535],[13.76652,45.66564],[13.76701,45.66574],[13.76812,45.665],[13.76856,45.6652],[13.76891,45.66598],[13.76809,45.6669],[13.76778,45.66696],[13.76647,45.66658],[13.76619,45.66733],[13.76538,45.6686],[13.76502,45.66872],[13.76396,45.66934],[13.76465,45.66995],[13.76502,45.67009],[13.76469,45.67081],[13.76484,45.67104],[13.76451,45.67134],[13.76471,45.67193],[13.76509,45.67227],[13.76732,45.67249],[13.76822,45.6734],[13.76834,45.67371],[13.76903,45.67414],[13.76918,45.67402],[13.7704,45.67461],[13.77078,45.67404],[13.77125,45.67441],[13.77203,45.67523],[13.77223,45.67614],[13.7729,45.67736],[13.77356,45.67792],[13.77406,45.67744],[13.77454,45.67722],[13.77548,45.67703],[13.77639,45.67695],[13.77672,45.67758],[13.77719,45.67812],[13.77725,45.67867],[13.77847,45.67891],[13.77926,45.67898],[13.78159,45.67939],[13.78137,45.6796],[13.78112,45.68006],[13.77723,45.68213],[13.77602,45.68269],[13.77614,45.68298],[13.77441,45.68362],[13.7722,45.68487],[13.77066,45.68551],[13.76997,45.68565],[13.76841,45.68612],[13.76732,45.68658],[13.76712,45.68674],[13.76535,45.68419],[13.76677,45.68348],[13.7675,45.68282],[13.76907,45.68178],[13.7683,45.68156],[13.76782,45.68114],[13.76681,45.68055],[13.76643,45.68043],[13.76575,45.67968],[13.76516,45.67995],[13.7642,45.68059],[13.76363,45.68052],[13.76301,45.68077],[13.76222,45.68086],[13.76197,45.68062],[13.76187,45.68001],[13.76151,45.67995],[13.76106,45.68036],[13.76128,45.68122],[13.76226,45.6817],[13.7621,45.6821],[13.76233,45.68237],[13.76169,45.68261],[13.76107,45.68266],[13.761,45.68285],[13.75995,45.6833],[13.75956,45.68369],[13.75822,45.68415],[13.75805,45.68394],[13.75755,45.68404],[13.75797,45.68485],[13.75729,45.68505],[13.75693,45.68534],[13.75789,45.68555],[13.75888,45.68541],[13.75756,45.68627],[13.75671,45.6872],[13.75688,45.68742],[13.75637,45.68776],[13.75589,45.68791],[13.7556,45.68774],[13.75498,45.68781],[13.75446,45.68772],[13.75393,45.68786],[13.75306,45.68834],[13.75241,45.68851],[13.75153,45.68911],[13.75049,45.68969],[13.75051,45.69005],[13.7496,45.69062],[13.7492,45.69074],[13.74821,45.69138],[13.74787,45.69138],[13.74693,45.69172],[13.74648,45.69127],[13.74601,45.69111],[13.74488,45.69167],[13.74446,45.69226],[13.74433,45.6927],[13.7443,45.69341],[13.74357,45.69448],[13.74408,45.69476],[13.7438,45.69527],[13.74426,45.69551],[13.74379,45.69598],[13.7434,45.69575],[13.74288,45.69624],[13.74203,45.69656],[13.74172,45.69627],[13.74116,45.69667],[13.74059,45.69662],[13.73966,45.69674],[13.7393,45.69652],[13.73889,45.69676],[13.7378,45.69583],[13.73651,45.69662],[13.7363,45.69649],[13.73559,45.69691],[13.73453,45.69729],[13.73273,45.69771],[13.73136,45.69815],[13.72812,45.69956],[13.72659,45.70033],[13.7247,45.70139],[13.72267,45.70247],[13.72233,45.7028]]],[[[13.67062,45.74304],[13.66995,45.74333],[13.66847,45.74183],[13.66896,45.7412],[13.66877,45.74101],[13.66953,45.74066],[13.67007,45.74079],[13.67142,45.74017],[13.67234,45.73962],[13.6735,45.73906],[13.67684,45.73727],[13.67746,45.73671],[13.6786,45.73594],[13.67914,45.73541],[13.68063,45.73432],[13.68165,45.73336],[13.68225,45.73253],[13.68532,45.73038],[13.68673,45.72963],[13.6873,45.72926],[13.68784,45.72849],[13.6887,45.72792],[13.689,45.72783],[13.69058,45.72666],[13.69048,45.72656],[13.69161,45.72572],[13.69233,45.72527],[13.69257,45.72496],[13.69283,45.72428],[13.69369,45.72295],[13.69463,45.72235],[13.69543,45.72176],[13.69615,45.72135],[13.69631,45.72113],[13.69699,45.72084],[13.69765,45.7202],[13.69788,45.71979],[13.69843,45.71927],[13.69942,45.71879],[13.70015,45.71825],[13.7011,45.71785],[13.70187,45.71715],[13.7029,45.71667],[13.7034,45.71628],[13.70418,45.71583],[13.70514,45.71514],[13.70541,45.7148],[13.70652,45.71408],[13.70925,45.71242],[13.70947,45.71211],[13.71086,45.71109],[13.71227,45.71018],[13.71278,45.70959],[13.71255,45.70941],[13.7132,45.70884],[13.71317,45.70829],[13.71348,45.7083],[13.71364,45.70794],[13.7136,45.70743],[13.71327,45.7064],[13.71194,45.70538],[13.71116,45.7053],[13.711,45.70467],[13.71139,45.70443],[13.71222,45.70369],[13.71222,45.70307],[13.71184,45.70282],[13.71194,45.70245],[13.71237,45.70236],[13.71317,45.70244],[13.71386,45.70205],[13.71454,45.70181],[13.71527,45.7017],[13.71584,45.70185],[13.71635,45.70227],[13.71724,45.70213],[13.71869,45.70144],[13.71866,45.7012],[13.71933,45.70102],[13.71996,45.7012],[13.72047,45.70204],[13.72191,45.70332],[13.72239,45.70333],[13.72304,45.70384],[13.72294,45.70439],[13.7227,45.70453],[13.72298,45.70486],[13.72329,45.70512],[13.72265,45.70552],[13.72236,45.70544],[13.72186,45.70575],[13.72088,45.70653],[13.72022,45.70654],[13.72004,45.70686],[13.71933,45.70655],[13.71912,45.70666],[13.71935,45.70711],[13.71875,45.70746],[13.71956,45.70803],[13.7191,45.70856],[13.71944,45.70878],[13.71852,45.70936],[13.71858,45.70991],[13.71843,45.71017],[13.71739,45.71002],[13.71689,45.71011],[13.71614,45.71047],[13.71631,45.71073],[13.71579,45.7113],[13.71602,45.71157],[13.71565,45.71178],[13.71572,45.71201],[13.71629,45.71261],[13.71498,45.71321],[13.71452,45.71358],[13.7135,45.71389],[13.71251,45.7145],[13.71031,45.71537],[13.70979,45.71544],[13.70885,45.7158],[13.70839,45.71612],[13.70778,45.71721],[13.70637,45.71813],[13.7053,45.71869],[13.70442,45.71927],[13.70394,45.71978],[13.70277,45.72041],[13.70097,45.72195],[13.69897,45.72253],[13.69897,45.72229],[13.69844,45.72183],[13.69799,45.72211],[13.69704,45.723],[13.69496,45.72571],[13.69422,45.72648],[13.69267,45.72789],[13.69229,45.72788],[13.69144,45.72855],[13.68897,45.73063],[13.68755,45.73179],[13.68766,45.73212],[13.68831,45.73183],[13.68857,45.73208],[13.68662,45.73309],[13.68608,45.73375],[13.68462,45.73433],[13.68421,45.73469],[13.68201,45.73613],[13.68173,45.73645],[13.68076,45.73726],[13.67921,45.7382],[13.67838,45.73906],[13.67748,45.73974],[13.67639,45.74067],[13.67484,45.74181],[13.67381,45.74228],[13.67264,45.7427],[13.67287,45.74231],[13.67267,45.74218],[13.67062,45.74304]]]]},"properties":{"zona":"D3","linkzona":"TS00000384","fascia":"D","fascia_label":"Periferica","descr":"PARTE GRETTA - BARCOLA - COSTIERA","semestre":"2025-S2","loc_min":7.6,"loc_max":11.3,"loc_mid":9.45,"sale_min":2000.0,"sale_max":2900.0,"sup":"L","tipologia":"Abitazioni civili","stato":"NORMALE"}},{"type":"Feature","geometry":{"type":"Polygon","coordinates":[[[13.76712,45.68674],[13.76732,45.68658],[13.76841,45.68612],[13.76997,45.68565],[13.77066,45.68551],[13.7722,45.68487],[13.77441,45.68362],[13.77614,45.68298],[13.77602,45.68269],[13.77723,45.68213],[13.78112,45.68006],[13.78137,45.6796],[13.78198,45.67943],[13.78236,45.67987],[13.78295,45.68008],[13.78418,45.67965],[13.7849,45.67948],[13.78678,45.67861],[13.78712,45.67853],[13.78761,45.6789],[13.78718,45.67907],[13.78699,45.67942],[13.78807,45.68035],[13.78874,45.68074],[13.7898,45.68082],[13.79014,45.68102],[13.79048,45.68089],[13.79106,45.68114],[13.79295,45.68028],[13.79352,45.68064],[13.7963,45.6795],[13.79801,45.67866],[13.79832,45.6786],[13.79901,45.67928],[13.79915,45.67967],[13.80116,45.6815],[13.80199,45.68232],[13.80248,45.68212],[13.80296,45.68271],[13.80253,45.68292],[13.80375,45.68419],[13.80406,45.6842],[13.8051,45.68488],[13.80567,45.68557],[13.80595,45.68561],[13.80626,45.68621],[13.80688,45.68665],[13.80735,45.68716],[13.80692,45.68745],[13.80688,45.68771],[13.80621,45.6882],[13.80579,45.68829],[13.80542,45.68856],[13.80486,45.68875],[13.80401,45.68927],[13.80307,45.68928],[13.80255,45.68939],[13.80305,45.68983],[13.80326,45.69026],[13.80312,45.69052],[13.8024,45.69088],[13.79855,45.68999],[13.79812,45.68999],[13.80192,45.69088],[13.80594,45.69179],[13.80636,45.69243],[13.80632,45.69274],[13.80686,45.69344],[13.80673,45.69389],[13.80729,45.69476],[13.80853,45.69543],[13.80864,45.69594],[13.80857,45.69642],[13.80823,45.69715],[13.80807,45.69785],[13.80848,45.69815],[13.80828,45.69853],[13.80641,45.69963],[13.80556,45.69986],[13.80369,45.69967],[13.80242,45.69937],[13.80207,45.69917],[13.80002,45.69834],[13.79986,45.6985],[13.79903,45.69763],[13.79871,45.69796],[13.79947,45.69888],[13.79903,45.69999],[13.799,45.70077],[13.79938,45.70137],[13.79889,45.70144],[13.79844,45.70184],[13.798,45.70203],[13.79772,45.70171],[13.79708,45.70161],[13.79656,45.70109],[13.79658,45.70073],[13.79695,45.69997],[13.79662,45.69905],[13.79622,45.6991],[13.7957,45.6994],[13.79525,45.69946],[13.79478,45.69906],[13.79423,45.6993],[13.79386,45.6987],[13.7941,45.69829],[13.79316,45.69822],[13.79189,45.6984],[13.79191,45.69872],[13.79032,45.69894],[13.79017,45.69932],[13.78917,45.69917],[13.78874,45.6989],[13.78755,45.69966],[13.78695,45.70025],[13.78592,45.70034],[13.78542,45.70068],[13.78477,45.70077],[13.7839,45.70136],[13.78339,45.70156],[13.78261,45.70155],[13.78239,45.70116],[13.78136,45.70167],[13.78098,45.70112],[13.78151,45.70062],[13.78117,45.7002],[13.78142,45.69978],[13.78129,45.69941],[13.78054,45.69866],[13.7807,45.69813],[13.78097,45.69811],[13.78151,45.69767],[13.78189,45.6971],[13.78281,45.69648],[13.78254,45.69625],[13.78083,45.69723],[13.7788,45.69845],[13.77815,45.69904],[13.77779,45.69873],[13.777,45.69835],[13.77535,45.69743],[13.77525,45.69704],[13.77482,45.69702],[13.7751,45.69626],[13.77582,45.69515],[13.7762,45.69475],[13.77553,45.69413],[13.77495,45.69382],[13.77509,45.69336],[13.77458,45.693],[13.77397,45.69234],[13.77319,45.69235],[13.77253,45.69254],[13.77126,45.69268],[13.77114,45.69237],[13.77077,45.6923],[13.77014,45.69244],[13.77002,45.69228],[13.76924,45.69242],[13.76914,45.69147],[13.7692,45.69129],[13.76838,45.68913],[13.76772,45.68763],[13.76712,45.68674]]]},"properties":{"zona":"D2","linkzona":"TS00000036","fascia":"D","fascia_label":"Periferica","descr":"OPICINA","semestre":"2025-S2","loc_min":6.2,"loc_max":8.8,"loc_mid":7.5,"sale_min":1800.0,"sale_max":2350.0,"sup":"L","tipologia":"Abitazioni civili","stato":"NORMALE"}}]}