{"type":"FeatureCollection","features":[{"type":"Feature","geometry":{"type":"Polygon","coordinates":[[[11.33958,44.52878],[11.33869,44.52809],[11.33836,44.52704],[11.33791,44.52664],[11.33725,44.52517],[11.33681,44.5248],[11.33651,44.52393],[11.33556,44.52292],[11.33515,44.52143],[11.33441,44.52016],[11.33431,44.51936],[11.33395,44.51813],[11.33386,44.51694],[11.33631,44.51702],[11.33653,44.51631],[11.33772,44.51466],[11.33938,44.51342],[11.34155,44.51311],[11.34156,44.51274],[11.34697,44.51201],[11.34726,44.51103],[11.34815,44.5109],[11.34883,44.51172],[11.35058,44.51153],[11.3515,44.5123],[11.35221,44.51225],[11.35316,44.51248],[11.35336,44.51224],[11.35562,44.51279],[11.35684,44.51248],[11.35714,44.51302],[11.35769,44.514],[11.35837,44.51422],[11.35897,44.51493],[11.35935,44.51575],[11.35963,44.51584],[11.36125,44.51547],[11.36325,44.51522],[11.36385,44.51558],[11.36478,44.51544],[11.36537,44.51568],[11.36626,44.5149],[11.36642,44.51529],[11.3685,44.51505],[11.36996,44.5162],[11.37032,44.51677],[11.37059,44.51777],[11.37043,44.51845],[11.37002,44.51921],[11.37015,44.51955],[11.36625,44.52137],[11.36574,44.52147],[11.36459,44.52131],[11.36456,44.52215],[11.36392,44.52249],[11.36467,44.52416],[11.36406,44.5232],[11.36328,44.52357],[11.36312,44.52404],[11.36232,44.52412],[11.36126,44.52455],[11.3604,44.52417],[11.35938,44.52454],[11.35679,44.52519],[11.35543,44.52608],[11.35593,44.52693],[11.35615,44.52767],[11.35438,44.52774],[11.35305,44.52804],[11.35128,44.52859],[11.35073,44.52804],[11.34702,44.52922],[11.34495,44.52968],[11.3414,44.53029],[11.34145,44.53039],[11.34078,44.5304],[11.33958,44.52878]]]},"properties":{"zona":"D8","linkzona":"BO00001365","fascia":"D","fascia_label":"Periferica","descr":"BOLOGNINA ARCOVEGGIO","semestre":"2025-S2","loc_min":8.5,"loc_max":10.5,"loc_mid":9.5,"sale_min":2200.0,"sale_max":2550.0,"sup":"L","tipologia":"Abitazioni civili","stato":"NORMALE","trend":11.8,"trend_from":"2023-S2"}},{"type":"Feature","geometry":{"type":"Polygon","coordinates":[[[11.30841,44.48601],[11.30798,44.48528],[11.30801,44.48506],[11.31134,44.4843],[11.30997,44.48346],[11.31039,44.48318],[11.31,44.48268],[11.3105,44.48252],[11.30994,44.48136],[11.31044,44.48098],[11.31108,44.4813],[11.31035,44.47885],[11.3104,44.47845],[11.31123,44.47816],[11.31147,44.47898],[11.31356,44.47863],[11.31353,44.47806],[11.31299,44.47721],[11.31321,44.47662],[11.31407,44.47627],[11.31484,44.47625],[11.31509,44.47676],[11.31556,44.4768],[11.31589,44.47623],[11.3175,44.47575],[11.31848,44.47656],[11.32018,44.477],[11.32135,44.47812],[11.32394,44.47885],[11.3251,44.47782],[11.32645,44.47827],[11.32919,44.47863],[11.32991,44.47806],[11.3322,44.4781],[11.33285,44.478],[11.33256,44.4769],[11.33349,44.47629],[11.33368,44.4757],[11.33315,44.47568],[11.33181,44.47471],[11.33154,44.47381],[11.33196,44.47353],[11.3305,44.47235],[11.33122,44.472],[11.33055,44.47146],[11.33012,44.47087],[11.33081,44.47033],[11.33079,44.46992],[11.3314,44.46869],[11.332,44.46803],[11.33305,44.46854],[11.33512,44.46875],[11.33586,44.46971],[11.33753,44.46941],[11.33715,44.46836],[11.33811,44.46764],[11.33885,44.46763],[11.33987,44.46739],[11.33944,44.46707],[11.34041,44.46659],[11.3415,44.46741],[11.34211,44.46714],[11.34234,44.46647],[11.34235,44.46559],[11.34206,44.46513],[11.34262,44.4646],[11.34273,44.46368],[11.34351,44.46273],[11.34367,44.46169],[11.34357,44.46123],[11.3442,44.46063],[11.34539,44.46054],[11.34578,44.46082],[11.34697,44.46057],[11.34717,44.46001],[11.34678,44.4599],[11.34701,44.45894],[11.34749,44.45906],[11.34913,44.45867],[11.35098,44.45883],[11.35332,44.45844],[11.35564,44.45844],[11.35581,44.45735],[11.35703,44.45589],[11.35785,44.4562],[11.35807,44.45677],[11.35848,44.45683],[11.36109,44.45675],[11.35998,44.45552],[11.36033,44.45506],[11.3596,44.45443],[11.3596,44.45385],[11.36056,44.45305],[11.35998,44.45267],[11.35914,44.45181],[11.35952,44.4516],[11.35763,44.44933],[11.35756,44.44895],[11.3577,44.44669],[11.35826,44.44681],[11.35885,44.44792],[11.3599,44.44872],[11.36108,44.44978],[11.36194,44.45078],[11.36237,44.45104],[11.36315,44.45177],[11.36541,44.45302],[11.3666,44.45403],[11.36819,44.45521],[11.36897,44.45602],[11.3697,44.45742],[11.37082,44.46264],[11.37089,44.46312],[11.37077,44.46695],[11.37083,44.46829],[11.37109,44.46937],[11.37098,44.4705],[11.37043,44.4715],[11.3698,44.47216],[11.3696,44.47263],[11.36933,44.4732],[11.36828,44.47396],[11.36734,44.47369],[11.36669,44.47317],[11.36629,44.47352],[11.36555,44.47329],[11.36463,44.47422],[11.36385,44.4738],[11.36312,44.47312],[11.36276,44.47217],[11.36065,44.47246],[11.35895,44.47221],[11.35876,44.47255],[11.35773,44.47358],[11.3579,44.47424],[11.35691,44.47548],[11.35664,44.47686],[11.35308,44.47793],[11.35301,44.47897],[11.35229,44.4798],[11.3504,44.47904],[11.3497,44.47971],[11.34808,44.48047],[11.34676,44.48065],[11.34579,44.48108],[11.34509,44.48104],[11.34446,44.4806],[11.34358,44.48031],[11.34281,44.47936],[11.34196,44.48011],[11.34125,44.48015],[11.34,44.48052],[11.34005,44.48226],[11.34058,44.48242],[11.34048,44.4834],[11.33984,44.48327],[11.33948,44.48266],[11.33899,44.48279],[11.3388,44.48329],[11.33731,44.48196],[11.33682,44.4812],[11.33532,44.4811],[11.33441,44.48132],[11.33468,44.48162],[11.33419,44.48203],[11.33537,44.48296],[11.33453,44.48342],[11.33407,44.48399],[11.33284,44.48406],[11.33204,44.48357],[11.33155,44.48391],[11.33189,44.48589],[11.33139,44.48638],[11.32959,44.4865],[11.32954,44.4861],[11.32895,44.4846],[11.32853,44.48462],[11.32682,44.48511],[11.32803,44.48681],[11.32764,44.48702],[11.32814,44.48821],[11.32893,44.49046],[11.32348,44.49021],[11.32066,44.4896],[11.31777,44.48887],[11.31634,44.48891],[11.31422,44.49002],[11.31175,44.49013],[11.31169,44.48867],[11.30966,44.48727],[11.30841,44.48601]]]},"properties":{"zona":"D17","linkzona":"BO00002525","fascia":"D","fascia_label":"Periferica","descr":"PEDECOLLINARE E SEMICOLLINARE","semestre":"2025-S2","loc_min":10.0,"loc_max":14.7,"loc_mid":12.35,"sale_min":2400.0,"sale_max":3800.0,"sup":"L","tipologia":"Abitazioni civili","stato":"NORMALE","trend":5.1,"trend_from":"2023-S2"}},{"type":"Feature","geometry":{"type":"Polygon","coordinates":[[[11.26731,44.53183],[11.26754,44.53237],[11.26705,44.53261],[11.26745,44.53317],[11.2666,44.53378],[11.26632,44.53422],[11.26698,44.53514],[11.26689,44.5353],[11.26698,44.53532],[11.26094,44.54317],[11.2587,44.54604],[11.25125,44.55577],[11.25024,44.55411],[11.24503,44.55574],[11.24379,44.55394],[11.24274,44.5521],[11.23994,44.54786],[11.23982,44.54725],[11.23875,44.54602],[11.23771,44.54442],[11.23612,44.5413],[11.23529,44.54039],[11.23447,44.53834],[11.23375,44.53712],[11.2329,44.5359],[11.23218,44.53451],[11.23093,44.53301],[11.23043,44.532],[11.22979,44.53109],[11.22962,44.5306],[11.23013,44.52871],[11.22989,44.52715],[11.23,44.52688],[11.23139,44.52532],[11.23199,44.52445],[11.23281,44.52422],[11.23575,44.5243],[11.23768,44.52417],[11.23935,44.52378],[11.24031,44.52323],[11.24096,44.52237],[11.24124,44.52097],[11.24085,44.5193],[11.24054,44.51866],[11.23969,44.51772],[11.23949,44.51728],[11.23927,44.51555],[11.23839,44.51392],[11.23834,44.51325],[11.23804,44.51244],[11.23768,44.51212],[11.23677,44.51204],[11.2357,44.51221],[11.23502,44.51215],[11.23403,44.51165],[11.23248,44.50898],[11.23701,44.50738],[11.23591,44.50572],[11.23704,44.50531],[11.23572,44.50329],[11.23817,44.50275],[11.23902,44.50263],[11.24047,44.50185],[11.24221,44.50127],[11.24483,44.50111],[11.24679,44.50116],[11.24837,44.50152],[11.25006,44.50118],[11.24859,44.49876],[11.24758,44.49645],[11.25139,44.49711],[11.25345,44.49731],[11.25547,44.49738],[11.25694,44.49758],[11.25613,44.495],[11.25515,44.4934],[11.26176,44.49147],[11.26298,44.49127],[11.26401,44.49404],[11.26648,44.49373],[11.26687,44.49469],[11.26801,44.49456],[11.2685,44.49591],[11.26879,44.49601],[11.27076,44.49754],[11.27089,44.49813],[11.27028,44.49834],[11.27078,44.4993],[11.26979,44.49958],[11.27003,44.5001],[11.27148,44.50041],[11.27189,44.50301],[11.27216,44.50428],[11.27283,44.50621],[11.27344,44.50747],[11.27402,44.50898],[11.27423,44.50982],[11.27278,44.51048],[11.27315,44.51098],[11.2724,44.51133],[11.26975,44.5118],[11.26925,44.51114],[11.26881,44.51128],[11.26943,44.51259],[11.26743,44.51358],[11.26538,44.51384],[11.26449,44.51407],[11.26217,44.51403],[11.26228,44.51442],[11.26343,44.51643],[11.26432,44.51767],[11.26223,44.52082],[11.2618,44.52135],[11.26064,44.52218],[11.26112,44.52252],[11.26211,44.52218],[11.26425,44.52529],[11.26496,44.52546],[11.26574,44.52682],[11.26712,44.52883],[11.26541,44.5293],[11.26731,44.53183]]]},"properties":{"zona":"R1","linkzona":"BO00003079","fascia":"R","fascia_label":"Extraurbana","descr":"AGRICOLA NORD OVEST","semestre":"2025-S2","loc_min":null,"loc_max":null,"loc_mid":null}},{"type":"Feature","geometry":{"type":"Polygon","coordinates":[[[11.32893,44.49046],[11.32949,44.49041],[11.32958,44.49086],[11.32847,44.49435],[11.32857,44.49442],[11.32839,44.49474],[11.32112,44.4955],[11.31935,44.49531],[11.31719,44.4952],[11.31477,44.49468],[11.31384,44.49468],[11.31252,44.49434],[11.31086,44.49415],[11.3115,44.49022],[11.31175,44.49013],[11.31422,44.49002],[11.31634,44.48891],[11.31777,44.48887],[11.32066,44.4896],[11.32348,44.49021],[11.32893,44.49046]]]},"properties":{"zona":"D21","linkzona":"BO00003083","fascia":"D","fascia_label":"Periferica","descr":"ANDREA COSTA - SARAGOZZA","semestre":"2025-S2","loc_min":9.7,"loc_max":12.0,"loc_mid":10.85,"sale_min":2900.0,"sale_max":3400.0,"sup":"L","tipologia":"Abitazioni civili","stato":"NORMALE","trend":0.9,"trend_from":"2023-S2"}},{"type":"Feature","geometry":{"type":"Polygon","coordinates":[[[11.32246,44.53688],[11.322,44.53699],[11.31701,44.53736],[11.31571,44.53418],[11.31495,44.53456],[11.3137,44.53492],[11.30859,44.53638],[11.3079,44.53587],[11.30754,44.53538],[11.30759,44.53484],[11.30855,44.5324],[11.30958,44.53124],[11.30926,44.53],[11.30861,44.52908],[11.30812,44.52953],[11.3075,44.52671],[11.30739,44.52614],[11.30574,44.52443],[11.30185,44.52233],[11.29958,44.51994],[11.29882,44.51784],[11.29834,44.51682],[11.30273,44.51543],[11.30302,44.51525],[11.30636,44.51442],[11.30741,44.51452],[11.30846,44.51388],[11.31071,44.5133],[11.31105,44.51304],[11.31152,44.51324],[11.31656,44.51194],[11.32029,44.51092],[11.32522,44.50945],[11.3274,44.50849],[11.32547,44.50973],[11.32801,44.50854],[11.32953,44.50814],[11.33363,44.50777],[11.33451,44.50779],[11.33554,44.50804],[11.33572,44.50831],[11.33599,44.50964],[11.33584,44.51052],[11.33621,44.51195],[11.33595,44.51251],[11.33238,44.51302],[11.33338,44.51492],[11.33345,44.51561],[11.33386,44.51694],[11.33395,44.51813],[11.33431,44.51936],[11.33441,44.52016],[11.33515,44.52143],[11.33556,44.52292],[11.33651,44.52393],[11.33681,44.5248],[11.33725,44.52517],[11.33791,44.52664],[11.33836,44.52704],[11.33869,44.52809],[11.33958,44.52878],[11.34078,44.5304],[11.33742,44.53113],[11.33491,44.53153],[11.33317,44.52987],[11.33361,44.52872],[11.33348,44.52824],[11.3326,44.52728],[11.33196,44.52739],[11.32715,44.52791],[11.32476,44.52658],[11.32392,44.52698],[11.32427,44.52835],[11.32357,44.52868],[11.32379,44.52983],[11.32439,44.53119],[11.32402,44.53251],[11.32543,44.53392],[11.32343,44.53606],[11.32246,44.53688]]]},"properties":{"zona":"D9","linkzona":"BO00001366","fascia":"D","fascia_label":"Periferica","descr":"MARCO POLO- PESCAROLA","semestre":"2025-S2","loc_min":9.0,"loc_max":12.5,"loc_mid":10.75,"sale_min":2150.0,"sale_max":2700.0,"sup":"L","tipologia":"Abitazioni civili","stato":"NORMALE","trend":13.2,"trend_from":"2023-S2"}},{"type":"Feature","geometry":{"type":"Polygon","coordinates":[[[11.29775,44.4819],[11.29693,44.48229],[11.29671,44.48305],[11.29645,44.48309],[11.29473,44.48268],[11.29444,44.48195],[11.29354,44.48183],[11.29257,44.482],[11.29118,44.4827],[11.291,44.48211],[11.29011,44.48135],[11.28946,44.48116],[11.29022,44.48061],[11.29068,44.48007],[11.29035,44.47978],[11.29092,44.47925],[11.29166,44.47928],[11.29131,44.47873],[11.2902,44.47752],[11.29109,44.47719],[11.29183,44.47624],[11.29161,44.47598],[11.29034,44.47649],[11.28979,44.47637],[11.28841,44.47651],[11.28811,44.47607],[11.28803,44.47542],[11.28867,44.47499],[11.28937,44.47486],[11.28998,44.47452],[11.29074,44.47348],[11.29009,44.47353],[11.29073,44.47218],[11.28965,44.47213],[11.28956,44.47073],[11.29033,44.46982],[11.29149,44.4703],[11.29173,44.47084],[11.29237,44.47014],[11.29283,44.46888],[11.29128,44.46884],[11.29066,44.46832],[11.29166,44.46798],[11.29069,44.46765],[11.29051,44.46635],[11.28938,44.4665],[11.28918,44.46622],[11.28937,44.46504],[11.28972,44.46427],[11.29041,44.46338],[11.29205,44.46214],[11.29191,44.46138],[11.29223,44.46067],[11.29121,44.46027],[11.29006,44.46003],[11.28862,44.45946],[11.28671,44.45921],[11.28644,44.45859],[11.28636,44.45741],[11.28587,44.45533],[11.28515,44.45465],[11.28466,44.4534],[11.28371,44.45175],[11.2836,44.45097],[11.28376,44.45038],[11.28125,44.44356],[11.28168,44.44187],[11.28257,44.43912],[11.28319,44.43906],[11.28412,44.43777],[11.28408,44.43471],[11.28397,44.43218],[11.28343,44.43114],[11.2831,44.42889],[11.28262,44.42754],[11.28266,44.4265],[11.2824,44.42591],[11.28872,44.42687],[11.28955,44.42722],[11.29199,44.42691],[11.29244,44.42706],[11.29281,44.42754],[11.29338,44.42757],[11.29374,44.42878],[11.29358,44.42961],[11.29367,44.43049],[11.29224,44.4332],[11.29249,44.43368],[11.29413,44.43327],[11.29484,44.43344],[11.29601,44.43323],[11.29674,44.43287],[11.29824,44.43147],[11.29968,44.43105],[11.3005,44.43053],[11.301,44.42971],[11.30038,44.42889],[11.3005,44.42836],[11.30179,44.42787],[11.30201,44.42754],[11.30302,44.42708],[11.30359,44.42698],[11.30452,44.42647],[11.30494,44.42651],[11.30597,44.42606],[11.31346,44.42115],[11.314,44.42145],[11.31766,44.42122],[11.31875,44.42141],[11.31941,44.42193],[11.32168,44.42264],[11.3235,44.42287],[11.32488,44.42272],[11.32594,44.42336],[11.32853,44.42416],[11.32983,44.42485],[11.33186,44.42536],[11.33313,44.4258],[11.33363,44.42624],[11.335,44.4269],[11.33697,44.42769],[11.3373,44.42839],[11.33723,44.42925],[11.33743,44.42993],[11.33725,44.43051],[11.33766,44.43153],[11.33559,44.43186],[11.33473,44.43221],[11.33425,44.43211],[11.33359,44.43236],[11.33205,44.43229],[11.33152,44.43286],[11.33167,44.43311],[11.33136,44.43383],[11.33146,44.43459],[11.3321,44.43569],[11.33329,44.43726],[11.33414,44.43766],[11.33445,44.4388],[11.3355,44.43861],[11.33573,44.43821],[11.33706,44.43778],[11.33836,44.43719],[11.33988,44.43599],[11.34065,44.4356],[11.3418,44.43619],[11.34259,44.43605],[11.34452,44.43609],[11.34622,44.4365],[11.3459,44.43836],[11.34644,44.43958],[11.34601,44.4395],[11.34478,44.44073],[11.34525,44.44109],[11.34643,44.44122],[11.3477,44.44263],[11.34915,44.44257],[11.35112,44.44217],[11.35245,44.44232],[11.35273,44.44283],[11.355,44.44358],[11.35584,44.44477],[11.35628,44.44508],[11.35737,44.44518],[11.35775,44.44576],[11.3577,44.44669],[11.35756,44.44895],[11.35763,44.44933],[11.35952,44.4516],[11.35914,44.45181],[11.35998,44.45267],[11.36056,44.45305],[11.3596,44.45385],[11.3596,44.45443],[11.36033,44.45506],[11.35998,44.45552],[11.36109,44.45675],[11.35848,44.45683],[11.35807,44.45677],[11.35785,44.4562],[11.35703,44.45589],[11.35581,44.45735],[11.35564,44.45844],[11.35332,44.45844],[11.35098,44.45883],[11.34913,44.45867],[11.34749,44.45906],[11.34701,44.45894],[11.34678,44.4599],[11.34717,44.46001],[11.34697,44.46057],[11.34578,44.46082],[11.34539,44.46054],[11.3442,44.46063],[11.34357,44.46123],[11.34367,44.46169],[11.34351,44.46273],[11.34273,44.46368],[11.34262,44.4646],[11.34206,44.46513],[11.34235,44.46559],[11.34234,44.46647],[11.34211,44.46714],[11.3415,44.46741],[11.34041,44.46659],[11.33944,44.46707],[11.33987,44.46739],[11.33885,44.46763],[11.33811,44.46764],[11.33715,44.46836],[11.33753,44.46941],[11.33586,44.46971],[11.33512,44.46875],[11.33305,44.46854],[11.332,44.46803],[11.3314,44.46869],[11.33079,44.46992],[11.33081,44.47033],[11.33012,44.47087],[11.33055,44.47146],[11.33122,44.472],[11.3305,44.47235],[11.33196,44.47353],[11.33154,44.47381],[11.33181,44.47471],[11.33315,44.47568],[11.33368,44.4757],[11.33349,44.47629],[11.33256,44.4769],[11.33285,44.478],[11.3322,44.4781],[11.32991,44.47806],[11.32919,44.47863],[11.32645,44.47827],[11.3251,44.47782],[11.32394,44.47885],[11.32135,44.47812],[11.32018,44.477],[11.31848,44.47656],[11.3175,44.47575],[11.31589,44.47623],[11.31556,44.4768],[11.31509,44.47676],[11.31484,44.47625],[11.31407,44.47627],[11.31321,44.47662],[11.31299,44.47721],[11.31353,44.47806],[11.31356,44.47863],[11.31147,44.47898],[11.31123,44.47816],[11.3104,44.47845],[11.31035,44.47885],[11.31108,44.4813],[11.31044,44.48098],[11.30994,44.48136],[11.3105,44.48252],[11.31,44.48268],[11.31039,44.48318],[11.30997,44.48346],[11.31134,44.4843],[11.30801,44.48506],[11.30798,44.48528],[11.30802,44.48485],[11.30776,44.48359],[11.30673,44.48366],[11.30554,44.48349],[11.30534,44.48401],[11.30341,44.48367],[11.30278,44.48492],[11.30206,44.48559],[11.30047,44.48423],[11.30029,44.48367],[11.29867,44.48331],[11.29821,44.48293],[11.29866,44.48226],[11.29775,44.4819]]]},"properties":{"zona":"R4","linkzona":"BO00003082","fascia":"R","fascia_label":"Extraurbana","descr":"AGRICOLA SUD","semestre":"2025-S2","loc_min":null,"loc_max":null,"loc_mid":null,"sale_min":2100.0,"sale_max":3200.0}},{"type":"Feature","geometry":{"type":"Polygon","coordinates":[[[11.35618,44.48445],[11.35848,44.48605],[11.35801,44.48573],[11.3577,44.48861],[11.35677,44.48842],[11.35686,44.48743],[11.35363,44.48709],[11.35332,44.48713],[11.35173,44.48858],[11.35052,44.48988],[11.34898,44.49117],[11.34853,44.49134],[11.34673,44.49151],[11.34642,44.49167],[11.34319,44.49147],[11.34298,44.49133],[11.34274,44.48993],[11.34341,44.48982],[11.34297,44.48857],[11.34249,44.48774],[11.3431,44.48772],[11.34325,44.48721],[11.3426,44.48612],[11.34889,44.48535],[11.35031,44.48511],[11.35566,44.48447],[11.35618,44.48445]]]},"properties":{"zona":"C6","linkzona":"BO00002664","fascia":"C","fascia_label":"Semicentrale","descr":"QUARTIRE GALVANI: SANTO STEFANO - P.ZZA DI PORTA S. STEFANO - VIALI GO...","semestre":"2025-S2","loc_min":12.1,"loc_max":16.6,"loc_mid":14.35,"sale_min":3300.0,"sale_max":4500.0,"sup":"L","tipologia":"Abitazioni di tipo economico","stato":"NORMALE","trend":14.8,"trend_from":"2023-S2"}},{"type":"Feature","geometry":{"type":"Polygon","coordinates":[[[11.33586,44.49328],[11.33582,44.49321],[11.33587,44.49328],[11.33649,44.49435],[11.33709,44.496],[11.33675,44.49599],[11.33208,44.49761],[11.33096,44.49796],[11.33064,44.49778],[11.32819,44.49742],[11.32746,44.49752],[11.32839,44.49474],[11.32857,44.49442],[11.32847,44.49474],[11.33479,44.49355],[11.33554,44.49338],[11.33586,44.49328]]]},"properties":{"zona":"C9","linkzona":"BO00002685","fascia":"C","fascia_label":"Semicentrale","descr":"QUARTIERE MALPIGHI: S.FELICE - GRADA - VICINI - S.ISAIA - S.FRANCESCO ...","semestre":"2025-S2","loc_min":11.0,"loc_max":16.6,"loc_mid":13.8,"sale_min":2500.0,"sale_max":3500.0,"sup":"L","tipologia":"Abitazioni civili","stato":"NORMALE","trend":20.0,"trend_from":"2023-S2"}},{"type":"Feature","geometry":{"type":"Polygon","coordinates":[[[11.34832,44.49415],[11.348,44.49367],[11.34926,44.49316],[11.35156,44.49232],[11.35192,44.4942],[11.35208,44.49424],[11.35196,44.49477],[11.3506,44.49607],[11.3502,44.4961],[11.34754,44.4951],[11.34702,44.49454],[11.34847,44.49456],[11.34832,44.49415]]]},"properties":{"zona":"B7","linkzona":"BO00003125","fascia":"B","fascia_label":"Centrale","descr":"ZAMBONI - CASTELTIALTO- ALDROVANDI - SAN VITALE","semestre":"2025-S2","loc_min":11.2,"loc_max":14.2,"loc_mid":12.7,"sale_min":3100.0,"sale_max":3900.0,"sup":"L","tipologia":"Abitazioni civili","stato":"NORMALE","trend":8.1,"trend_from":"2023-S2"}},{"type":"Feature","geometry":{"type":"Polygon","coordinates":[[[11.36668,44.52768],[11.36656,44.52735],[11.36467,44.52416],[11.36392,44.52249],[11.36456,44.52215],[11.36459,44.52131],[11.36574,44.52147],[11.36625,44.52137],[11.37015,44.51955],[11.37002,44.51921],[11.37043,44.51845],[11.37059,44.51777],[11.37032,44.51677],[11.36996,44.5162],[11.3685,44.51505],[11.36941,44.51477],[11.37035,44.51535],[11.37075,44.51527],[11.37223,44.51403],[11.37254,44.51402],[11.37374,44.51321],[11.37467,44.51245],[11.37379,44.51143],[11.37509,44.51072],[11.3762,44.51012],[11.37807,44.5108],[11.37853,44.51017],[11.37895,44.51095],[11.37933,44.51103],[11.37922,44.51168],[11.37831,44.51286],[11.37944,44.51256],[11.3798,44.51184],[11.38069,44.51093],[11.38125,44.51007],[11.38332,44.51099],[11.38415,44.51155],[11.3853,44.51202],[11.3867,44.51295],[11.38973,44.51477],[11.39223,44.51608],[11.39233,44.5166],[11.39279,44.51698],[11.3939,44.51693],[11.3947,44.51732],[11.39385,44.51797],[11.3946,44.51869],[11.39295,44.5199],[11.39497,44.52176],[11.39517,44.52167],[11.39666,44.52323],[11.39732,44.52233],[11.39734,44.52158],[11.39891,44.52084],[11.39991,44.52191],[11.40137,44.52136],[11.40181,44.52189],[11.4021,44.52267],[11.40209,44.52322],[11.40408,44.52265],[11.4051,44.52205],[11.40657,44.52271],[11.40828,44.52335],[11.40955,44.5237],[11.41113,44.52448],[11.41434,44.52571],[11.40744,44.52858],[11.40903,44.53059],[11.41041,44.53286],[11.41479,44.5399],[11.41484,44.54003],[11.40608,44.5428],[11.40439,44.54039],[11.40129,44.54124],[11.40056,44.54019],[11.39868,44.54101],[11.39921,44.54178],[11.39538,44.54305],[11.39443,44.54152],[11.39076,44.54275],[11.38986,44.54133],[11.38855,44.54151],[11.389,44.54252],[11.38991,44.54408],[11.39092,44.54561],[11.38102,44.5482],[11.38076,44.54855],[11.37598,44.5499],[11.37683,44.55137],[11.37122,44.55281],[11.37092,44.55199],[11.37052,44.55162],[11.37028,44.55062],[11.36977,44.54948],[11.36879,44.54807],[11.36845,44.54674],[11.36776,44.54563],[11.36708,44.54496],[11.36614,44.54338],[11.36518,44.542],[11.36494,44.54097],[11.36448,44.54008],[11.36291,44.5384],[11.36179,44.53793],[11.36054,44.53681],[11.36253,44.53607],[11.36171,44.53478],[11.3628,44.53269],[11.36343,44.53221],[11.3642,44.53195],[11.36723,44.53152],[11.36709,44.53048],[11.36677,44.52945],[11.36642,44.52884],[11.36684,44.52849],[11.36668,44.52768]]]},"properties":{"zona":"R3","linkzona":"BO00003081","fascia":"R","fascia_label":"Extraurbana","descr":"AGRICOLA NORD EST","semestre":"2025-S2","loc_min":null,"loc_max":null,"loc_mid":null,"sale_min":1650.0,"sale_max":2450.0}},{"type":"Feature","geometry":{"type":"Polygon","coordinates":[[[11.35057,44.4961],[11.3506,44.49607],[11.35196,44.49477],[11.35208,44.49424],[11.35404,44.49413],[11.35698,44.4941],[11.35716,44.49372],[11.35662,44.49823],[11.35129,44.49954],[11.35051,44.49812],[11.35062,44.49706],[11.35112,44.49647],[11.35072,44.49624],[11.35057,44.4961]]]},"properties":{"zona":"C4","linkzona":"BO00002625","fascia":"C","fascia_label":"Semicentrale","descr":"CENTOTRECENTO IRNERIO P.ZZA DI PORTA SAN DONATO V.LE FILOPANTI SAN VIT...","semestre":"2025-S2","loc_min":9.5,"loc_max":13.5,"loc_mid":11.5,"sale_min":2700.0,"sale_max":3000.0,"sup":"L","tipologia":"Abitazioni civili","stato":"NORMALE","trend":4.5,"trend_from":"2023-S2"}},{"type":"Feature","geometry":{"type":"Polygon","coordinates":[[[11.3577,44.48861],[11.35759,44.48976],[11.35716,44.49372],[11.35698,44.4941],[11.35404,44.49413],[11.35208,44.49424],[11.35192,44.4942],[11.35156,44.49232],[11.34926,44.49316],[11.34904,44.49243],[11.34797,44.49234],[11.34849,44.49145],[11.34642,44.49167],[11.34673,44.49151],[11.34853,44.49134],[11.34898,44.49117],[11.35052,44.48988],[11.35173,44.48858],[11.35332,44.48713],[11.35363,44.48709],[11.35686,44.48743],[11.35677,44.48842],[11.3577,44.48861]]]},"properties":{"zona":"C5","linkzona":"BO00002644","fascia":"C","fascia_label":"Semicentrale","descr":"SAN VITALE - VIALE ERCOLANI - PIAZZA CARDUCCI - DANTE - SANTO STEFANO ...","semestre":"2025-S2","loc_min":11.9,"loc_max":16.5,"loc_mid":14.2,"sale_min":3300.0,"sale_max":4200.0,"sup":"L","tipologia":"Abitazioni civili","stato":"NORMALE","trend":9.2,"trend_from":"2023-S2"}},{"type":"Feature","geometry":{"type":"Polygon","coordinates":[[[11.34249,44.48774],[11.34249,44.48786],[11.33995,44.48848],[11.33979,44.4881],[11.3397,44.48682],[11.33936,44.4865],[11.3426,44.48612],[11.34325,44.48721],[11.3431,44.48772],[11.34249,44.48774]]]},"properties":{"zona":"C7","linkzona":"BO00002665","fascia":"C","fascia_label":"Semicentrale","descr":"QUARTIERE GALVANI MURA DI PORTA CASTIGLIONE: D`AZEGLIO - TOVAGLIE SAVE...","semestre":"2025-S2","loc_min":12.0,"loc_max":16.5,"loc_mid":14.25,"sale_min":3100.0,"sale_max":3900.0,"sup":"L","tipologia":"Abitazioni civili","stato":"NORMALE","trend":23.9,"trend_from":"2023-S2"}},{"type":"Feature","geometry":{"type":"Polygon","coordinates":[[[11.32949,44.49041],[11.33047,44.48988],[11.33197,44.48937],[11.33936,44.4865],[11.3397,44.48682],[11.33979,44.4881],[11.33995,44.48848],[11.34249,44.48786],[11.34249,44.48774],[11.34297,44.48857],[11.34341,44.48982],[11.34274,44.48993],[11.34298,44.49133],[11.34021,44.49135],[11.33835,44.49184],[11.33582,44.49321],[11.33586,44.49328],[11.33554,44.49338],[11.33479,44.49355],[11.32847,44.49474],[11.32857,44.49442],[11.32847,44.49435],[11.32958,44.49086],[11.32949,44.49041]]]},"properties":{"zona":"C8","linkzona":"BO00002666","fascia":"C","fascia_label":"Semicentrale","descr":"QUARTIERE MALPIGHI SARAGOZZA: SANT`ISAIA - VIALI PEPOLI ALDINI - D`AZE...","semestre":"2025-S2","loc_min":10.7,"loc_max":14.8,"loc_mid":12.75,"sale_min":3100.0,"sale_max":4200.0,"sup":"L","tipologia":"Abitazioni civili","stato":"NORMALE","trend":-3.8,"trend_from":"2023-S2"}},{"type":"Feature","geometry":{"type":"Polygon","coordinates":[[[11.3434,44.50125],[11.34352,44.50144],[11.33947,44.50231],[11.33977,44.50184],[11.33944,44.5014],[11.33843,44.49919],[11.3385,44.49905],[11.34123,44.49883],[11.34224,44.49892],[11.34302,44.50033],[11.3434,44.50125]]]},"properties":{"zona":"C10","linkzona":"BO00002686","fascia":"C","fascia_label":"Semicentrale","descr":"QUARTIERE MARCONI PORTO: MILLE - GALLIERA - RIVA RENO - MARCONI","semestre":"2025-S2","loc_min":10.5,"loc_max":15.0,"loc_mid":12.75,"sale_min":2400.0,"sale_max":3500.0,"sup":"L","tipologia":"Abitazioni civili","stato":"NORMALE","trend":13.3,"trend_from":"2023-S2"}},{"type":"Feature","geometry":{"type":"Polygon","coordinates":[[[11.34298,44.49133],[11.34319,44.49147],[11.34642,44.49167],[11.34849,44.49145],[11.34797,44.49234],[11.34904,44.49243],[11.34926,44.49316],[11.348,44.49367],[11.34832,44.49415],[11.34847,44.49456],[11.34702,44.49454],[11.34754,44.4951],[11.3502,44.4961],[11.3506,44.49607],[11.35057,44.4961],[11.35072,44.49624],[11.35002,44.49682],[11.34934,44.49698],[11.34822,44.49785],[11.34644,44.49876],[11.34732,44.50054],[11.34456,44.50121],[11.34352,44.50144],[11.3434,44.50125],[11.34302,44.50033],[11.34224,44.49892],[11.34123,44.49883],[11.3385,44.49905],[11.33828,44.49884],[11.33728,44.49667],[11.33709,44.496],[11.33649,44.49435],[11.33587,44.49328],[11.33582,44.49321],[11.33835,44.49184],[11.34021,44.49135],[11.34298,44.49133]]]},"properties":{"zona":"B1","linkzona":"BO00000028","fascia":"B","fascia_label":"Centrale","descr":"CENTRO STORICO","semestre":"2025-S2","loc_min":10.5,"loc_max":14.9,"loc_mid":12.7,"sale_min":3000.0,"sale_max":4100.0,"sup":"L","tipologia":"Abitazioni civili","stato":"NORMALE","trend":1.6,"trend_from":"2023-S2"}},{"type":"Feature","geometry":{"type":"Polygon","coordinates":[[[11.34352,44.50144],[11.34456,44.50121],[11.34514,44.5034],[11.34524,44.50462],[11.34505,44.50488],[11.33972,44.50567],[11.3382,44.50512],[11.33365,44.50275],[11.33071,44.50131],[11.32693,44.49939],[11.32746,44.49752],[11.32819,44.49742],[11.33064,44.49778],[11.33096,44.49796],[11.33208,44.49761],[11.33675,44.49599],[11.33709,44.496],[11.33728,44.49667],[11.33828,44.49884],[11.3385,44.49905],[11.33843,44.49919],[11.33944,44.5014],[11.33977,44.50184],[11.33947,44.50231],[11.34352,44.50144]]]},"properties":{"zona":"C11","linkzona":"BO00003054","fascia":"C","fascia_label":"Semicentrale","descr":"QUARTIERE MARCONI: S. FELICE - GRADA - VICINI - PIETRAMELLARA - INDIP...","semestre":"2025-S2","loc_min":9.4,"loc_max":13.7,"loc_mid":11.55,"sale_min":2650.0,"sale_max":3100.0,"sup":"L","tipologia":"Abitazioni civili","stato":"NORMALE","trend":2.7,"trend_from":"2023-S2"}},{"type":"Feature","geometry":{"type":"Polygon","coordinates":[[[11.35072,44.49624],[11.35112,44.49647],[11.35062,44.49706],[11.35051,44.49812],[11.35129,44.49954],[11.35662,44.49823],[11.35659,44.49855],[11.35623,44.50103],[11.35224,44.50254],[11.35035,44.50333],[11.3483,44.50417],[11.34551,44.50486],[11.34505,44.50488],[11.34524,44.50462],[11.34514,44.5034],[11.34456,44.50121],[11.34732,44.50054],[11.34644,44.49876],[11.34822,44.49785],[11.34934,44.49698],[11.35002,44.49682],[11.35072,44.49624]]]},"properties":{"zona":"C3","linkzona":"BO00002624","fascia":"C","fascia_label":"Semicentrale","descr":"IRNERIO CENTOTRECENTO MOLINE RIGHI P.ZZA OTTO AGOSTO INDIPENDENZA V.LI...","semestre":"2025-S2","loc_min":9.5,"loc_max":13.5,"loc_mid":11.5,"sale_min":2500.0,"sale_max":2900.0,"sup":"L","tipologia":"Abitazioni civili","stato":"NORMALE","trend":0.0,"trend_from":"2023-S2"}},{"type":"Feature","geometry":{"type":"Polygon","coordinates":[[[11.35716,44.49372],[11.35759,44.48976],[11.3577,44.48999],[11.35898,44.48941],[11.36238,44.48815],[11.36241,44.48809],[11.36488,44.49225],[11.36434,44.49221],[11.36157,44.49289],[11.36206,44.49386],[11.36184,44.49423],[11.36148,44.49601],[11.36087,44.49788],[11.3614,44.49862],[11.36093,44.49888],[11.35976,44.49992],[11.35659,44.49855],[11.35662,44.49823],[11.35716,44.49372]]]},"properties":{"zona":"D23","linkzona":"BO00003087","fascia":"D","fascia_label":"Periferica","descr":"V.LE FILOPANTI - MASSARENTI - ZANOLINI - STAZIONE S. VITALE","semestre":"2025-S2","loc_min":9.5,"loc_max":13.5,"loc_mid":11.5,"sale_min":2400.0,"sale_max":3200.0,"sup":"L","tipologia":"Abitazioni civili","stato":"NORMALE","trend":27.8,"trend_from":"2023-S2"}},{"type":"Feature","geometry":{"type":"Polygon","coordinates":[[[11.36237,44.45104],[11.36339,44.45049],[11.36538,44.44971],[11.36706,44.44933],[11.36799,44.44847],[11.36926,44.44781],[11.3713,44.44852],[11.37265,44.44916],[11.37321,44.44929],[11.37349,44.45069],[11.37318,44.45145],[11.37263,44.45194],[11.37271,44.45258],[11.37414,44.45288],[11.37468,44.45364],[11.37468,44.45416],[11.37403,44.45584],[11.37435,44.45689],[11.37416,44.45811],[11.37443,44.45862],[11.37501,44.45903],[11.37739,44.45944],[11.37837,44.45986],[11.3793,44.46004],[11.38203,44.45899],[11.38262,44.45938],[11.38344,44.46018],[11.38484,44.46063],[11.38538,44.46066],[11.38633,44.46214],[11.38718,44.46189],[11.38673,44.4606],[11.38806,44.46052],[11.38815,44.46036],[11.38961,44.46062],[11.39082,44.46161],[11.39148,44.46198],[11.39307,44.46175],[11.39368,44.4626],[11.39358,44.46281],[11.39508,44.46374],[11.39754,44.46199],[11.39769,44.46199],[11.40034,44.46086],[11.40064,44.46129],[11.40109,44.46126],[11.40242,44.46298],[11.40135,44.4635],[11.40059,44.46407],[11.39906,44.46489],[11.39717,44.46618],[11.39527,44.46737],[11.39442,44.46801],[11.39291,44.46859],[11.39306,44.46895],[11.39286,44.46963],[11.39246,44.46996],[11.38731,44.4719],[11.38637,44.47199],[11.38635,44.4723],[11.38572,44.47263],[11.38074,44.47453],[11.37938,44.47494],[11.37869,44.47486],[11.37867,44.47486],[11.37704,44.47533],[11.37686,44.47563],[11.37653,44.47557],[11.37645,44.47557],[11.37705,44.47528],[11.37676,44.47455],[11.37667,44.47324],[11.37616,44.47098],[11.37493,44.47145],[11.37406,44.47198],[11.37304,44.47096],[11.37258,44.47105],[11.37152,44.47184],[11.3706,44.47221],[11.37065,44.47249],[11.36986,44.47266],[11.3696,44.47263],[11.3698,44.47216],[11.37043,44.4715],[11.37098,44.4705],[11.37109,44.46937],[11.37083,44.46829],[11.37077,44.46695],[11.37089,44.46312],[11.37082,44.46264],[11.3697,44.45742],[11.36897,44.45602],[11.36819,44.45521],[11.3666,44.45403],[11.36541,44.45302],[11.36315,44.45177],[11.36237,44.45104]]]},"properties":{"zona":"D3","linkzona":"BO00001361","fascia":"D","fascia_label":"Periferica","descr":"SAN RUFFILLO EST","semestre":"2025-S2","loc_min":9.0,"loc_max":14.0,"loc_mid":11.5,"sale_min":2550.0,"sale_max":3300.0,"sup":"L","tipologia":"Abitazioni civili","stato":"NORMALE","trend":9.5,"trend_from":"2023-S2"}},{"type":"Feature","geometry":{"type":"Polygon","coordinates":[[[11.36744,44.49272],[11.36611,44.49258],[11.36488,44.49225],[11.36241,44.48809],[11.36248,44.48818],[11.36732,44.48633],[11.37095,44.48498],[11.37148,44.48552],[11.37303,44.48584],[11.37339,44.48497],[11.37281,44.48432],[11.37248,44.48437],[11.37121,44.48199],[11.37094,44.48134],[11.36991,44.47995],[11.37079,44.4795],[11.37074,44.47926],[11.36956,44.47766],[11.37218,44.47666],[11.37257,44.47645],[11.37474,44.47661],[11.37622,44.47621],[11.37653,44.47557],[11.37686,44.47563],[11.37665,44.48072],[11.37602,44.48077],[11.37594,44.48246],[11.37616,44.48298],[11.37593,44.48355],[11.37582,44.48664],[11.37548,44.48731],[11.37543,44.48855],[11.37576,44.48858],[11.37567,44.49093],[11.37535,44.49258],[11.37507,44.49334],[11.37298,44.49339],[11.36937,44.49276],[11.36744,44.49272]]]},"properties":{"zona":"D2","linkzona":"BO00000014","fascia":"D","fascia_label":"Periferica","descr":"SAN VITALE","semestre":"2025-S2","loc_min":9.0,"loc_max":11.0,"loc_mid":10.0,"sale_min":2400.0,"sale_max":3000.0,"sup":"L","tipologia":"Abitazioni civili","stato":"NORMALE","trend":14.3,"trend_from":"2023-S2"}},{"type":"Feature","geometry":{"type":"Polygon","coordinates":[[[11.37867,44.47486],[11.37869,44.47486],[11.37938,44.47494],[11.38074,44.47453],[11.38572,44.47263],[11.38635,44.4723],[11.38637,44.47199],[11.38731,44.4719],[11.39246,44.46996],[11.39286,44.46963],[11.39306,44.46895],[11.39291,44.46859],[11.39442,44.46801],[11.39486,44.46812],[11.39685,44.46817],[11.39788,44.46852],[11.39835,44.46885],[11.39901,44.47001],[11.39997,44.47119],[11.4007,44.47187],[11.40199,44.47361],[11.40353,44.47512],[11.40472,44.476],[11.40575,44.4766],[11.40715,44.47708],[11.40813,44.47763],[11.40904,44.47853],[11.40947,44.47919],[11.41166,44.48061],[11.41271,44.48113],[11.41375,44.48126],[11.41447,44.48155],[11.41476,44.48188],[11.41553,44.4835],[11.41611,44.48383],[11.41615,44.484],[11.41368,44.48487],[11.4156,44.48764],[11.41252,44.48863],[11.41305,44.48941],[11.41188,44.48984],[11.41127,44.48904],[11.40859,44.4899],[11.4066,44.48714],[11.4038,44.48802],[11.40252,44.48834],[11.39873,44.48954],[11.39834,44.48976],[11.3952,44.49086],[11.39363,44.49126],[11.39483,44.49416],[11.39126,44.49368],[11.39141,44.49395],[11.3895,44.49606],[11.38732,44.49634],[11.38624,44.49636],[11.38442,44.49661],[11.38411,44.49573],[11.38207,44.49544],[11.37488,44.49412],[11.3753,44.49353],[11.37507,44.49334],[11.37535,44.49258],[11.37567,44.49093],[11.37576,44.48858],[11.37543,44.48855],[11.37548,44.48731],[11.37582,44.48664],[11.37593,44.48355],[11.37616,44.48298],[11.37594,44.48246],[11.37602,44.48077],[11.37665,44.48072],[11.37686,44.47563],[11.37704,44.47533],[11.37867,44.47486]]]},"properties":{"zona":"D4","linkzona":"BO00001362","fascia":"D","fascia_label":"Periferica","descr":"MAZZINI - FOSSOLO","semestre":"2025-S2","loc_min":9.5,"loc_max":13.5,"loc_mid":11.5,"sale_min":2400.0,"sale_max":3100.0,"sup":"L","tipologia":"Abitazioni civili","stato":"NORMALE","trend":7.0,"trend_from":"2023-S2"}},{"type":"Feature","geometry":{"type":"MultiPolygon","coordinates":[[[[11.35714,44.51302],[11.35708,44.51277],[11.35896,44.51216],[11.36044,44.5104],[11.36095,44.51005],[11.36058,44.50914],[11.36131,44.50876],[11.36222,44.50918],[11.36418,44.50734],[11.36468,44.50743],[11.36616,44.50713],[11.36675,44.50827],[11.36721,44.50848],[11.36755,44.50908],[11.36861,44.50903],[11.36887,44.5093],[11.37023,44.50893],[11.37035,44.51041],[11.37082,44.51158],[11.37271,44.51008],[11.37314,44.51049],[11.37423,44.5099],[11.37509,44.51072],[11.37379,44.51143],[11.37467,44.51245],[11.37374,44.51321],[11.37254,44.51402],[11.37223,44.51403],[11.37075,44.51527],[11.37035,44.51535],[11.36941,44.51477],[11.3685,44.51505],[11.36642,44.51529],[11.36626,44.5149],[11.36537,44.51568],[11.36478,44.51544],[11.36385,44.51558],[11.36325,44.51522],[11.36125,44.51547],[11.35963,44.51584],[11.35935,44.51575],[11.35897,44.51493],[11.35837,44.51422],[11.35769,44.514],[11.35714,44.51302]]],[[[11.3762,44.51012],[11.37474,44.50955],[11.37499,44.50916],[11.37815,44.51037],[11.37853,44.51017],[11.37807,44.5108],[11.3762,44.51012]]]]},"properties":{"zona":"D6","linkzona":"BO00001376","fascia":"D","fascia_label":"Periferica","descr":"FIERA","semestre":"2025-S2","loc_min":null,"loc_max":null,"loc_mid":null,"nonres":true}},{"type":"Feature","geometry":{"type":"MultiPolygon","coordinates":[[[[11.31175,44.49013],[11.3115,44.49022],[11.31086,44.49415],[11.31064,44.49567],[11.31096,44.49602],[11.31172,44.49809],[11.30724,44.49834],[11.3064,44.49871],[11.30746,44.50071],[11.30806,44.5021],[11.30761,44.50232],[11.30653,44.50115],[11.3062,44.50102],[11.30623,44.50022],[11.30593,44.4998],[11.30449,44.49972],[11.30421,44.49953],[11.30229,44.49964],[11.3022,44.49926],[11.29986,44.49802],[11.29834,44.49703],[11.29836,44.49671],[11.29612,44.49486],[11.29515,44.49413],[11.2935,44.49324],[11.29328,44.49277],[11.29269,44.49254],[11.29007,44.49182],[11.28938,44.49075],[11.28944,44.49033],[11.29043,44.48895],[11.29395,44.4897],[11.29464,44.48984],[11.29504,44.48783],[11.29491,44.4877],[11.29675,44.48574],[11.29661,44.48517],[11.29686,44.48353],[11.29671,44.48305],[11.29693,44.48229],[11.29775,44.4819],[11.29866,44.48226],[11.29821,44.48293],[11.29867,44.48331],[11.30029,44.48367],[11.30047,44.48423],[11.30206,44.48559],[11.30278,44.48492],[11.30341,44.48367],[11.30534,44.48401],[11.30554,44.48349],[11.30673,44.48366],[11.30776,44.48359],[11.30802,44.48485],[11.30798,44.48528],[11.30841,44.48601],[11.30966,44.48727],[11.31169,44.48867],[11.31175,44.49013]]],[[[11.28409,44.48972],[11.28409,44.48971],[11.28464,44.48961],[11.28582,44.48826],[11.28608,44.48837],[11.28812,44.48813],[11.2893,44.4887],[11.29032,44.48892],[11.28931,44.49042],[11.28877,44.49076],[11.28758,44.49116],[11.28704,44.49114],[11.28536,44.49067],[11.28409,44.48972]]]]},"properties":{"zona":"D19","linkzona":"BO00003084","fascia":"D","fascia_label":"Periferica","descr":"STADIO FUNIVIA","semestre":"2025-S2","loc_min":9.5,"loc_max":14.3,"loc_mid":11.9,"sale_min":2350.0,"sale_max":3200.0,"sup":"L","tipologia":"Abitazioni civili","stato":"NORMALE","trend":22.1,"trend_from":"2023-S2"}},{"type":"Feature","geometry":{"type":"Polygon","coordinates":[[[11.34078,44.5304],[11.34145,44.53039],[11.34184,44.53072],[11.34236,44.53185],[11.3421,44.53192],[11.34226,44.53295],[11.33999,44.53401],[11.34109,44.53474],[11.34228,44.53618],[11.34252,44.53673],[11.34366,44.53839],[11.34424,44.53942],[11.34336,44.53972],[11.34028,44.54047],[11.34023,44.54048],[11.33847,44.54091],[11.33542,44.54143],[11.34143,44.54316],[11.34515,44.54413],[11.34653,44.54595],[11.34752,44.54762],[11.34687,44.54772],[11.34726,44.54873],[11.34768,44.54868],[11.34782,44.55186],[11.34749,44.55227],[11.34378,44.55336],[11.34332,44.5525],[11.34176,44.55165],[11.33964,44.55034],[11.3392,44.54986],[11.33915,44.54931],[11.33832,44.54826],[11.33738,44.54775],[11.33729,44.54712],[11.33667,44.54613],[11.33636,44.54361],[11.33587,44.54304],[11.33298,44.54429],[11.33488,44.54648],[11.33383,44.5467],[11.33137,44.54742],[11.32914,44.54735],[11.32737,44.54719],[11.32686,44.54682],[11.32539,44.5472],[11.32405,44.54736],[11.3233,44.54668],[11.32239,44.54645],[11.32098,44.54536],[11.32043,44.54524],[11.31123,44.54821],[11.31159,44.54705],[11.31215,44.54611],[11.31293,44.54525],[11.31327,44.54466],[11.31339,44.54279],[11.31293,44.5414],[11.31152,44.53987],[11.31042,44.53913],[11.30924,44.53752],[11.3086,44.53639],[11.3137,44.53492],[11.31495,44.53456],[11.31571,44.53418],[11.31701,44.53736],[11.322,44.53699],[11.32246,44.53688],[11.32343,44.53606],[11.32543,44.53392],[11.32402,44.53251],[11.32439,44.53119],[11.32379,44.52983],[11.32357,44.52868],[11.32427,44.52835],[11.32392,44.52698],[11.32476,44.52658],[11.32715,44.52791],[11.33196,44.52739],[11.3326,44.52728],[11.33348,44.52824],[11.33361,44.52872],[11.33317,44.52987],[11.33491,44.53153],[11.33742,44.53113],[11.34078,44.5304]]]},"properties":{"zona":"R2","linkzona":"BO00003080","fascia":"R","fascia_label":"Extraurbana","descr":"AGRICOLA NORD","semestre":"2025-S2","loc_min":null,"loc_max":null,"loc_mid":null}},{"type":"Feature","geometry":{"type":"Polygon","coordinates":[[[11.29882,44.51784],[11.29741,44.51694],[11.29804,44.51649],[11.29646,44.51533],[11.29444,44.51362],[11.29286,44.51136],[11.29214,44.51149],[11.29155,44.51082],[11.29174,44.5105],[11.29064,44.50835],[11.29098,44.50816],[11.28864,44.50531],[11.29085,44.50458],[11.28855,44.50485],[11.28813,44.50429],[11.28573,44.50255],[11.28441,44.50188],[11.27966,44.49889],[11.28029,44.49872],[11.27799,44.49815],[11.2765,44.49707],[11.27596,44.49608],[11.27605,44.4948],[11.27629,44.49366],[11.277,44.49285],[11.2782,44.4918],[11.27862,44.49102],[11.2815,44.48871],[11.28238,44.48917],[11.28299,44.4898],[11.28409,44.48971],[11.28409,44.48972],[11.28536,44.49067],[11.28704,44.49114],[11.28758,44.49116],[11.28877,44.49076],[11.28931,44.49042],[11.29032,44.48892],[11.29395,44.4897],[11.29043,44.48895],[11.28944,44.49033],[11.28938,44.49075],[11.29007,44.49182],[11.29269,44.49254],[11.29328,44.49277],[11.2935,44.49324],[11.29515,44.49413],[11.29612,44.49486],[11.29836,44.49671],[11.29834,44.49703],[11.29986,44.49802],[11.3022,44.49926],[11.30229,44.49964],[11.30421,44.49953],[11.30449,44.49972],[11.30593,44.4998],[11.30623,44.50022],[11.3062,44.50102],[11.30653,44.50115],[11.30761,44.50232],[11.30806,44.5021],[11.30746,44.50071],[11.3064,44.49871],[11.30724,44.49834],[11.31172,44.49809],[11.31096,44.49602],[11.31064,44.49567],[11.31215,44.49598],[11.31333,44.49602],[11.31547,44.49628],[11.31622,44.49745],[11.31612,44.49755],[11.31904,44.50215],[11.31876,44.50261],[11.32056,44.50523],[11.31969,44.50632],[11.31919,44.50728],[11.31836,44.50813],[11.31713,44.50911],[11.31536,44.51025],[11.31427,44.51046],[11.31224,44.51121],[11.31083,44.51121],[11.31087,44.51227],[11.31105,44.51304],[11.31071,44.5133],[11.30846,44.51388],[11.30741,44.51452],[11.30636,44.51442],[11.30302,44.51525],[11.30273,44.51543],[11.29834,44.51682],[11.29882,44.51784]]]},"properties":{"zona":"D20","linkzona":"BO00003085","fascia":"D","fascia_label":"Periferica","descr":"SAFFI SANTA VIOLA BARCA","semestre":"2025-S2","loc_min":10.0,"loc_max":17.0,"loc_mid":13.5,"sale_min":2400.0,"sale_max":3000.0,"sup":"L","tipologia":"Abitazioni civili","stato":"NORMALE","trend":25.6,"trend_from":"2023-S2"}},{"type":"Feature","geometry":{"type":"Polygon","coordinates":[[[11.3792,44.50928],[11.37973,44.50917],[11.38038,44.50831],[11.38208,44.50702],[11.38292,44.50706],[11.3831,44.50616],[11.38226,44.50599],[11.38169,44.50567],[11.38175,44.50537],[11.38097,44.50516],[11.38054,44.50421],[11.3805,44.5032],[11.38124,44.50332],[11.38495,44.50212],[11.38616,44.50201],[11.3878,44.50161],[11.38657,44.49935],[11.3872,44.49865],[11.38624,44.49636],[11.38732,44.49634],[11.3895,44.49606],[11.39141,44.49395],[11.39126,44.49368],[11.39483,44.49416],[11.39363,44.49126],[11.3952,44.49086],[11.39834,44.48976],[11.39873,44.48954],[11.40252,44.48834],[11.4038,44.48802],[11.4066,44.48714],[11.40859,44.4899],[11.41127,44.48904],[11.41188,44.48984],[11.41305,44.48941],[11.41252,44.48863],[11.4156,44.48764],[11.41368,44.48487],[11.41615,44.484],[11.41611,44.48383],[11.41771,44.48409],[11.41868,44.48408],[11.42071,44.48389],[11.4226,44.48391],[11.42432,44.48409],[11.42545,44.48451],[11.4257,44.48483],[11.42507,44.48511],[11.4242,44.48576],[11.42443,44.48668],[11.42599,44.48748],[11.42721,44.48925],[11.42463,44.49016],[11.42409,44.48892],[11.41996,44.48968],[11.41724,44.4906],[11.4185,44.49244],[11.41841,44.49249],[11.42168,44.49616],[11.41925,44.49672],[11.42053,44.49843],[11.42244,44.49844],[11.42314,44.50121],[11.42514,44.50065],[11.42554,44.50127],[11.42742,44.50607],[11.42815,44.50579],[11.4288,44.50646],[11.43206,44.51064],[11.43368,44.51316],[11.42699,44.51537],[11.43035,44.51964],[11.42754,44.52076],[11.42645,44.51907],[11.42467,44.51963],[11.42468,44.51995],[11.42423,44.52077],[11.4244,44.52166],[11.42532,44.52282],[11.42514,44.52295],[11.42257,44.52365],[11.42145,44.52402],[11.42127,44.52443],[11.42152,44.52519],[11.42083,44.52607],[11.42098,44.52687],[11.42033,44.52782],[11.42089,44.5283],[11.42029,44.52865],[11.41991,44.52942],[11.41947,44.52872],[11.41592,44.52651],[11.41434,44.52571],[11.41113,44.52448],[11.40955,44.5237],[11.40828,44.52335],[11.40657,44.52271],[11.4051,44.52205],[11.40408,44.52265],[11.40209,44.52322],[11.4021,44.52267],[11.40181,44.52189],[11.40137,44.52136],[11.39991,44.52191],[11.39891,44.52084],[11.39734,44.52158],[11.39732,44.52233],[11.39666,44.52323],[11.39517,44.52167],[11.39497,44.52176],[11.39295,44.5199],[11.3946,44.51869],[11.39385,44.51797],[11.3947,44.51732],[11.3939,44.51693],[11.39279,44.51698],[11.39233,44.5166],[11.39223,44.51608],[11.38973,44.51477],[11.3867,44.51295],[11.3853,44.51202],[11.38415,44.51155],[11.38332,44.51099],[11.38125,44.51007],[11.38069,44.51093],[11.3798,44.51184],[11.37994,44.51068],[11.37971,44.50996],[11.3792,44.50928]]]},"properties":{"zona":"E1","linkzona":"BO00001369","fascia":"E","fascia_label":"Suburbana","descr":"ROVERI - PILASTRO","semestre":"2025-S2","loc_min":null,"loc_max":null,"loc_mid":null}},{"type":"Feature","geometry":{"type":"MultiPolygon","coordinates":[[[[11.37853,44.51017],[11.37815,44.51037],[11.37499,44.50916],[11.37474,44.50955],[11.3762,44.51012],[11.37509,44.51072],[11.37423,44.5099],[11.37314,44.51049],[11.37271,44.51008],[11.37082,44.51158],[11.37035,44.51041],[11.37023,44.50893],[11.36887,44.5093],[11.36861,44.50903],[11.36755,44.50908],[11.36721,44.50848],[11.36675,44.50827],[11.36616,44.50713],[11.36468,44.50743],[11.36418,44.50734],[11.36222,44.50918],[11.36131,44.50876],[11.36058,44.50914],[11.36095,44.51005],[11.36044,44.5104],[11.35896,44.51216],[11.35708,44.51277],[11.35714,44.51302],[11.35542,44.50978],[11.3543,44.50794],[11.35545,44.50777],[11.35448,44.50567],[11.35345,44.50364],[11.35113,44.50443],[11.35035,44.50333],[11.35224,44.50254],[11.35623,44.50103],[11.35659,44.49855],[11.35976,44.49992],[11.36093,44.49888],[11.3614,44.49862],[11.36087,44.49788],[11.36148,44.49601],[11.36184,44.49423],[11.36206,44.49386],[11.36157,44.49289],[11.36434,44.49221],[11.36488,44.49225],[11.36611,44.49258],[11.36744,44.49272],[11.36937,44.49276],[11.37298,44.49339],[11.37507,44.49334],[11.3753,44.49353],[11.37488,44.49412],[11.38207,44.49544],[11.38411,44.49573],[11.38442,44.49661],[11.38624,44.49636],[11.3872,44.49865],[11.38657,44.49935],[11.3878,44.50161],[11.38616,44.50201],[11.38495,44.50212],[11.38124,44.50332],[11.3805,44.5032],[11.38054,44.50421],[11.38097,44.50516],[11.38175,44.50537],[11.38169,44.50567],[11.38226,44.50599],[11.3831,44.50616],[11.38292,44.50706],[11.38208,44.50702],[11.38038,44.50831],[11.37973,44.50917],[11.3792,44.50928],[11.37971,44.50996],[11.37994,44.51068],[11.3798,44.51184],[11.37944,44.51256],[11.37831,44.51286],[11.37922,44.51168],[11.37933,44.51103],[11.37895,44.51095],[11.37853,44.51017]]],[[[11.37645,44.47557],[11.37493,44.47613],[11.3746,44.47609],[11.37286,44.47424],[11.36986,44.47266],[11.37065,44.47249],[11.3706,44.47221],[11.37152,44.47184],[11.37258,44.47105],[11.37304,44.47096],[11.37406,44.47198],[11.37493,44.47145],[11.37616,44.47098],[11.37667,44.47324],[11.37676,44.47455],[11.37705,44.47528],[11.37645,44.47557]]]]},"properties":{"zona":"D5","linkzona":"BO00001363","fascia":"D","fascia_label":"Periferica","descr":"SAN DONATO","semestre":"2025-S2","loc_min":9.0,"loc_max":11.0,"loc_mid":10.0,"sale_min":2250.0,"sale_max":2600.0,"sup":"L","tipologia":"Abitazioni civili","stato":"NORMALE","trend":17.6,"trend_from":"2023-S2"}},{"type":"Feature","geometry":{"type":"Polygon","coordinates":[[[11.3696,44.47263],[11.36986,44.47266],[11.37286,44.47424],[11.3746,44.47609],[11.37493,44.47613],[11.37645,44.47557],[11.37653,44.47557],[11.37622,44.47621],[11.37474,44.47661],[11.37257,44.47645],[11.37218,44.47666],[11.36956,44.47766],[11.37074,44.47926],[11.37079,44.4795],[11.36991,44.47995],[11.37094,44.48134],[11.37121,44.48199],[11.37248,44.48437],[11.37281,44.48432],[11.37339,44.48497],[11.37303,44.48584],[11.37148,44.48552],[11.37095,44.48498],[11.36732,44.48633],[11.36248,44.48818],[11.36241,44.48809],[11.36238,44.48815],[11.35898,44.48941],[11.3577,44.48999],[11.35759,44.48976],[11.3577,44.48861],[11.35801,44.48573],[11.35848,44.48605],[11.36041,44.48535],[11.36113,44.48498],[11.36059,44.48441],[11.36111,44.48341],[11.36117,44.48277],[11.36006,44.48213],[11.36084,44.48167],[11.36298,44.48066],[11.36457,44.47944],[11.36667,44.47691],[11.36684,44.47651],[11.36585,44.47587],[11.36642,44.47517],[11.36717,44.47455],[11.36675,44.47411],[11.36734,44.47369],[11.36828,44.47396],[11.36933,44.4732],[11.3696,44.47263]]]},"properties":{"zona":"D24","linkzona":"BO00003088","fascia":"D","fascia_label":"Periferica","descr":"MURRI","semestre":"2025-S2","loc_min":9.5,"loc_max":14.0,"loc_mid":11.75,"sale_min":2800.0,"sale_max":3300.0,"sup":"L","tipologia":"Abitazioni civili","stato":"NORMALE","trend":17.5,"trend_from":"2023-S2"}},{"type":"Feature","geometry":{"type":"MultiPolygon","coordinates":[[[[11.26176,44.49147],[11.26816,44.49006],[11.26866,44.49121],[11.2694,44.49121],[11.27153,44.49079],[11.27222,44.49079],[11.27308,44.49019],[11.27637,44.49102],[11.27844,44.49129],[11.27815,44.49175],[11.27634,44.49331],[11.27629,44.49366],[11.27605,44.4948],[11.27596,44.49608],[11.2765,44.49707],[11.27799,44.49815],[11.28029,44.49872],[11.27966,44.49889],[11.28441,44.50188],[11.28573,44.50255],[11.28864,44.50531],[11.29098,44.50816],[11.29064,44.50835],[11.29174,44.5105],[11.29155,44.51082],[11.29214,44.51149],[11.29286,44.51136],[11.29444,44.51362],[11.29646,44.51533],[11.29804,44.51649],[11.29741,44.51694],[11.29882,44.51784],[11.29958,44.51994],[11.30185,44.52233],[11.30574,44.52443],[11.30739,44.52614],[11.3075,44.52671],[11.30805,44.52951],[11.30788,44.52978],[11.30476,44.53245],[11.30065,44.53367],[11.29079,44.53561],[11.29297,44.53898],[11.28962,44.54253],[11.28815,44.54356],[11.28678,44.54469],[11.28279,44.54696],[11.2829,44.54764],[11.2817,44.54859],[11.28028,44.54647],[11.27861,44.54702],[11.27887,44.54744],[11.27775,44.54776],[11.27694,44.54637],[11.27811,44.54593],[11.27708,44.54415],[11.27797,44.54379],[11.27569,44.54037],[11.2747,44.54071],[11.27363,44.53916],[11.27318,44.53925],[11.27019,44.53524],[11.27067,44.53494],[11.26915,44.5325],[11.26698,44.53531],[11.26689,44.5353],[11.26698,44.53514],[11.26632,44.53422],[11.2666,44.53378],[11.26745,44.53317],[11.26705,44.53261],[11.26754,44.53237],[11.26731,44.53183],[11.26541,44.5293],[11.26712,44.52883],[11.26574,44.52682],[11.26496,44.52546],[11.26425,44.52529],[11.26211,44.52218],[11.26112,44.52252],[11.26064,44.52218],[11.2618,44.52135],[11.26223,44.52082],[11.26432,44.51767],[11.26343,44.51643],[11.26228,44.51442],[11.26217,44.51403],[11.26449,44.51407],[11.26538,44.51384],[11.26743,44.51358],[11.26943,44.51259],[11.26881,44.51128],[11.26925,44.51114],[11.26975,44.5118],[11.2724,44.51133],[11.27315,44.51098],[11.27278,44.51048],[11.27423,44.50982],[11.27402,44.50898],[11.27344,44.50747],[11.27283,44.50621],[11.27216,44.50428],[11.27189,44.50301],[11.27148,44.50041],[11.27003,44.5001],[11.26979,44.49958],[11.27078,44.4993],[11.27028,44.49834],[11.27089,44.49813],[11.27076,44.49754],[11.26879,44.49601],[11.2685,44.49591],[11.26801,44.49456],[11.26687,44.49469],[11.26648,44.49373],[11.26401,44.49404],[11.26298,44.49127],[11.26176,44.49147]]],[[[11.3405,44.541],[11.34023,44.54048],[11.34028,44.54047],[11.3405,44.541]]]]},"properties":{"zona":"E5","linkzona":"BO00001373","fascia":"E","fascia_label":"Suburbana","descr":"BORGO PANIGALE- BIRRA- CASTELDEBOLE","semestre":"2025-S2","loc_min":8.5,"loc_max":11.5,"loc_mid":10.0,"sale_min":2200.0,"sale_max":2550.0,"sup":"L","tipologia":"Abitazioni civili","stato":"NORMALE","trend":31.6,"trend_from":"2023-S2"}},{"type":"Feature","geometry":{"type":"Polygon","coordinates":[[[11.32839,44.49474],[11.32746,44.49752],[11.32693,44.49939],[11.33071,44.50131],[11.33365,44.50275],[11.3382,44.50512],[11.33972,44.50567],[11.34505,44.50488],[11.34551,44.50486],[11.3483,44.50417],[11.35035,44.50333],[11.35113,44.50443],[11.35345,44.50364],[11.35448,44.50567],[11.35545,44.50777],[11.3543,44.50794],[11.35197,44.50826],[11.35096,44.50652],[11.35033,44.50637],[11.34625,44.5069],[11.3461,44.50697],[11.3359,44.50832],[11.33572,44.50831],[11.33554,44.50804],[11.33451,44.50779],[11.33363,44.50777],[11.32953,44.50814],[11.32801,44.50854],[11.32547,44.50973],[11.3274,44.50849],[11.32522,44.50945],[11.32029,44.51092],[11.31656,44.51194],[11.31152,44.51324],[11.31105,44.51304],[11.31087,44.51227],[11.31083,44.51121],[11.31224,44.51121],[11.31427,44.51046],[11.31536,44.51025],[11.31713,44.50911],[11.31836,44.50813],[11.31919,44.50728],[11.31969,44.50632],[11.32056,44.50523],[11.31876,44.50261],[11.31904,44.50215],[11.31612,44.49755],[11.31622,44.49745],[11.31547,44.49628],[11.31333,44.49602],[11.31215,44.49598],[11.31064,44.49567],[11.31086,44.49415],[11.31252,44.49434],[11.31384,44.49468],[11.31477,44.49468],[11.31719,44.4952],[11.31935,44.49531],[11.32112,44.4955],[11.32839,44.49474]]]},"properties":{"zona":"D25","linkzona":"BO00003104","fascia":"D","fascia_label":"Periferica","descr":"STAZIONE  - VIALE FILOPANTI - VIA DEL CHIU`","semestre":"2025-S2","loc_min":7.7,"loc_max":11.5,"loc_mid":9.6,"sale_min":2700.0,"sale_max":3300.0,"sup":"L","tipologia":"Abitazioni civili","stato":"NORMALE","trend":6.7,"trend_from":"2023-S2"}},{"type":"Feature","geometry":{"type":"Polygon","coordinates":[[[11.33386,44.51694],[11.33345,44.51561],[11.33338,44.51492],[11.33238,44.51302],[11.33595,44.51251],[11.33621,44.51195],[11.33584,44.51052],[11.33599,44.50964],[11.33572,44.50831],[11.3359,44.50832],[11.3461,44.50697],[11.34625,44.5069],[11.35033,44.50637],[11.35096,44.50652],[11.35197,44.50826],[11.3543,44.50794],[11.35542,44.50978],[11.35714,44.51302],[11.35684,44.51248],[11.35562,44.51279],[11.35336,44.51224],[11.35316,44.51248],[11.35221,44.51225],[11.3515,44.5123],[11.35058,44.51153],[11.34883,44.51172],[11.34815,44.5109],[11.34726,44.51103],[11.34697,44.51201],[11.34156,44.51274],[11.34155,44.51311],[11.33938,44.51342],[11.33772,44.51466],[11.33653,44.51631],[11.33631,44.51702],[11.33386,44.51694]]]},"properties":{"zona":"D7","linkzona":"BO00001364","fascia":"D","fascia_label":"Periferica","descr":"MATTEOTTI - P.ZZA UNITA`","semestre":"2025-S2","loc_min":10.0,"loc_max":16.5,"loc_mid":13.25,"sale_min":2500.0,"sale_max":3100.0,"sup":"L","tipologia":"Abitazioni civili","stato":"NORMALE","trend":17.8,"trend_from":"2023-S2"}},{"type":"Feature","geometry":{"type":"Polygon","coordinates":[[[11.36734,44.47369],[11.36675,44.47411],[11.36717,44.47455],[11.36642,44.47517],[11.36585,44.47587],[11.36684,44.47651],[11.36667,44.47691],[11.36457,44.47944],[11.36298,44.48066],[11.36084,44.48167],[11.36006,44.48213],[11.36117,44.48277],[11.36111,44.48341],[11.36059,44.48441],[11.36113,44.48498],[11.36041,44.48535],[11.35848,44.48605],[11.35618,44.48445],[11.35566,44.48447],[11.35031,44.48511],[11.34889,44.48535],[11.3426,44.48612],[11.33936,44.4865],[11.33197,44.48937],[11.33047,44.48988],[11.32949,44.49041],[11.32893,44.49046],[11.32814,44.48821],[11.32764,44.48702],[11.32803,44.48681],[11.32682,44.48511],[11.32853,44.48462],[11.32895,44.4846],[11.32954,44.4861],[11.32959,44.4865],[11.33139,44.48638],[11.33189,44.48589],[11.33155,44.48391],[11.33204,44.48357],[11.33284,44.48406],[11.33407,44.48399],[11.33453,44.48342],[11.33537,44.48296],[11.33419,44.48203],[11.33468,44.48162],[11.33441,44.48132],[11.33532,44.4811],[11.33682,44.4812],[11.33731,44.48196],[11.3388,44.48329],[11.33899,44.48279],[11.33948,44.48266],[11.33984,44.48327],[11.34048,44.4834],[11.34058,44.48242],[11.34005,44.48226],[11.34,44.48052],[11.34125,44.48015],[11.34196,44.48011],[11.34281,44.47936],[11.34358,44.48031],[11.34446,44.4806],[11.34509,44.48104],[11.34579,44.48108],[11.34676,44.48065],[11.34808,44.48047],[11.3497,44.47971],[11.3504,44.47904],[11.35229,44.4798],[11.35301,44.47897],[11.35308,44.47793],[11.35664,44.47686],[11.35691,44.47548],[11.3579,44.47424],[11.35773,44.47358],[11.35876,44.47255],[11.35895,44.47221],[11.36065,44.47246],[11.36276,44.47217],[11.36312,44.47312],[11.36385,44.4738],[11.36463,44.47422],[11.36555,44.47329],[11.36629,44.47352],[11.36669,44.47317],[11.36734,44.47369]]]},"properties":{"zona":"D16","linkzona":"BO00002524","fascia":"D","fascia_label":"Periferica","descr":"PEDECOLLINARE","semestre":"2025-S2","loc_min":10.5,"loc_max":15.0,"loc_mid":12.75,"sale_min":2950.0,"sale_max":3900.0,"sup":"L","tipologia":"Abitazioni civili","stato":"NORMALE","trend":2.0,"trend_from":"2023-S2"}},{"type":"Feature","geometry":{"type":"Polygon","coordinates":[[[11.34023,44.54048],[11.3405,44.541],[11.34028,44.54047],[11.34336,44.53972],[11.34424,44.53942],[11.34366,44.53839],[11.34252,44.53673],[11.34228,44.53618],[11.34109,44.53474],[11.33999,44.53401],[11.34226,44.53295],[11.3421,44.53192],[11.34236,44.53185],[11.34184,44.53072],[11.34145,44.53039],[11.3414,44.53029],[11.34495,44.52968],[11.34702,44.52922],[11.35073,44.52804],[11.35128,44.52859],[11.35305,44.52804],[11.35438,44.52774],[11.35615,44.52767],[11.35593,44.52693],[11.35543,44.52608],[11.35679,44.52519],[11.35938,44.52454],[11.3604,44.52417],[11.36126,44.52455],[11.36232,44.52412],[11.36312,44.52404],[11.36328,44.52357],[11.36406,44.5232],[11.36467,44.52416],[11.36656,44.52735],[11.36668,44.52768],[11.36684,44.52849],[11.36642,44.52884],[11.36677,44.52945],[11.36709,44.53048],[11.36723,44.53152],[11.3642,44.53195],[11.36343,44.53221],[11.3628,44.53269],[11.36171,44.53478],[11.36253,44.53607],[11.36054,44.53681],[11.36179,44.53793],[11.36291,44.5384],[11.36448,44.54008],[11.36494,44.54097],[11.36518,44.542],[11.36614,44.54338],[11.36708,44.54496],[11.36776,44.54563],[11.36845,44.54674],[11.36879,44.54807],[11.36977,44.54948],[11.37028,44.55062],[11.37052,44.55162],[11.37047,44.55168],[11.3644,44.5526],[11.36584,44.55564],[11.36413,44.55621],[11.36331,44.55575],[11.36183,44.55544],[11.36102,44.55446],[11.36036,44.55418],[11.35975,44.55344],[11.35855,44.55255],[11.35726,44.5519],[11.35495,44.55251],[11.35313,44.55305],[11.3524,44.55163],[11.35167,44.55202],[11.35013,44.55228],[11.34791,44.55218],[11.34749,44.55227],[11.34782,44.55186],[11.34768,44.54868],[11.34726,44.54873],[11.34687,44.54772],[11.34752,44.54762],[11.34653,44.54595],[11.34515,44.54413],[11.34143,44.54316],[11.33542,44.54143],[11.33847,44.54091],[11.34023,44.54048]]]},"properties":{"zona":"D22","linkzona":"BO00003086","fascia":"D","fascia_label":"Periferica","descr":"CORTICELLA","semestre":"2025-S2","loc_min":9.2,"loc_max":13.8,"loc_mid":11.5,"sale_min":2150.0,"sale_max":2550.0,"sup":"L","tipologia":"Abitazioni civili","stato":"NORMALE","trend":31.4,"trend_from":"2023-S2"}}]}