{"type":"FeatureCollection","features":[{"type":"Feature","geometry":{"type":"Polygon","coordinates":[[[10.34991,43.7041],[10.35048,43.70026],[10.35088,43.69712],[10.35104,43.69409],[10.35189,43.69318],[10.35342,43.69398],[10.35462,43.69449],[10.35581,43.69545],[10.35756,43.69729],[10.35891,43.69882],[10.35998,43.69975],[10.3618,43.70107],[10.36359,43.70212],[10.36683,43.70371],[10.36815,43.70426],[10.37127,43.70568],[10.37227,43.7061],[10.37339,43.70672],[10.37713,43.70847],[10.37913,43.70925],[10.38125,43.70988],[10.38229,43.70999],[10.38824,43.71136],[10.38919,43.71179],[10.3885,43.713],[10.38741,43.71532],[10.38704,43.71639],[10.38701,43.71794],[10.38727,43.71984],[10.38717,43.7199],[10.38737,43.72157],[10.38692,43.72126],[10.38668,43.72254],[10.38663,43.7243],[10.38642,43.72514],[10.38512,43.72631],[10.38495,43.72666],[10.38035,43.73076],[10.37292,43.72987],[10.36766,43.72928],[10.36881,43.72211],[10.36771,43.72196],[10.3566,43.72058],[10.35405,43.72107],[10.35238,43.71435],[10.35165,43.7113],[10.3504,43.70635],[10.34991,43.7041]]]},"properties":{"zona":"D6","linkzona":"PI00000791","fascia":"D","fascia_label":"Periferica","descr":"ZONA BARBARICINA","semestre":"2025-S2","loc_min":6.2,"loc_max":9.0,"loc_mid":7.6,"sale_min":1500.0,"sale_max":2350.0,"sup":"L","tipologia":"Abitazioni civili","stato":"NORMALE"}},{"type":"Feature","geometry":{"type":"Polygon","coordinates":[[[10.42163,43.70745],[10.42034,43.70767],[10.42003,43.70817],[10.41866,43.70757],[10.4182,43.70811],[10.41727,43.70775],[10.41578,43.70824],[10.4153,43.70856],[10.4141,43.70882],[10.41375,43.70826],[10.41193,43.70745],[10.4117,43.70723],[10.4132,43.70648],[10.4157,43.70588],[10.41851,43.70555],[10.42055,43.70547],[10.42057,43.70573],[10.42137,43.70716],[10.42163,43.70745]]]},"properties":{"zona":"D4","linkzona":"PI00000692","fascia":"D","fascia_label":"Periferica","descr":"ZONE: PIAGGE, S. MICHELE","semestre":"2025-S2","loc_min":6.7,"loc_max":9.7,"loc_mid":8.2,"sale_min":1700.0,"sale_max":2500.0,"sup":"L","tipologia":"Abitazioni civili","stato":"NORMALE"}},{"type":"Feature","geometry":{"type":"Polygon","coordinates":[[[10.38924,43.71345],[10.389,43.71338],[10.3892,43.71297],[10.39021,43.7134],[10.39099,43.7125],[10.39135,43.71261],[10.3921,43.71281],[10.39262,43.71255],[10.39298,43.71312],[10.3943,43.71331],[10.39531,43.71387],[10.3957,43.71463],[10.39724,43.7148],[10.39798,43.71529],[10.39826,43.71517],[10.39955,43.71558],[10.40055,43.71555],[10.4014,43.71502],[10.4019,43.71507],[10.40332,43.71459],[10.4034,43.71403],[10.40376,43.71387],[10.40439,43.71415],[10.40502,43.71352],[10.4064,43.7132],[10.40719,43.71253],[10.40627,43.71064],[10.40795,43.71106],[10.40923,43.71101],[10.40917,43.70995],[10.40957,43.71016],[10.40957,43.71079],[10.41017,43.71128],[10.41014,43.71232],[10.40978,43.71243],[10.41016,43.71317],[10.41002,43.71332],[10.40996,43.71334],[10.40979,43.71334],[10.40926,43.71406],[10.40875,43.71409],[10.40848,43.71455],[10.40868,43.71513],[10.40773,43.71541],[10.40695,43.71507],[10.40629,43.71537],[10.40605,43.71581],[10.40552,43.71552],[10.40465,43.71591],[10.40204,43.71658],[10.4007,43.71658],[10.40079,43.71698],[10.39979,43.71697],[10.39827,43.71713],[10.39704,43.71672],[10.39523,43.71683],[10.39517,43.7162],[10.39465,43.71632],[10.3939,43.71556],[10.39335,43.71528],[10.39284,43.71537],[10.39258,43.71576],[10.39152,43.71602],[10.39112,43.71411],[10.38924,43.71345]]]},"properties":{"zona":"B2","linkzona":"PI00000015","fascia":"B","fascia_label":"Centrale","descr":"LUNGARNI: MEDICEO, PACINOTTI, GALILEI, GAMBACORTI, BUOZZI, SIMONELLI, SONN...","semestre":"2025-S2","loc_min":8.9,"loc_max":11.9,"loc_mid":10.4,"sale_min":2100.0,"sale_max":2950.0,"sup":"L","tipologia":"Abitazioni civili","stato":"NORMALE"}},{"type":"Feature","geometry":{"type":"Polygon","coordinates":[[[10.42423,43.73722],[10.41547,43.73748],[10.41161,43.73757],[10.41105,43.73768],[10.40163,43.73931],[10.40014,43.7396],[10.39674,43.73959],[10.39088,43.73943],[10.38306,43.7386],[10.3819,43.73838],[10.38343,43.73629],[10.38402,43.73529],[10.38568,43.73287],[10.38649,43.73215],[10.38691,43.73158],[10.38756,43.73046],[10.38847,43.72937],[10.3895,43.72771],[10.38971,43.72761],[10.39327,43.72754],[10.39322,43.7281],[10.39744,43.73158],[10.39749,43.73168],[10.40046,43.73415],[10.40065,43.73426],[10.40508,43.73795],[10.40637,43.73754],[10.4086,43.73664],[10.40883,43.73587],[10.40928,43.7355],[10.41043,43.73517],[10.41147,43.73455],[10.41196,43.73404],[10.41309,43.73323],[10.41494,43.73247],[10.41738,43.73237],[10.41927,43.73161],[10.42062,43.73103],[10.42104,43.73103],[10.42299,43.73492],[10.42423,43.73722]]]},"properties":{"zona":"D2","linkzona":"PI00000242","fascia":"D","fascia_label":"Periferica","descr":"ZONE: I PASSI, GAGNO","semestre":"2025-S2","loc_min":5.9,"loc_max":9.1,"loc_mid":7.5,"sale_min":1250.0,"sale_max":1850.0,"sup":"L","tipologia":"Abitazioni civili","stato":"NORMALE"}},{"type":"Feature","geometry":{"type":"Polygon","coordinates":[[[10.42468,43.68386],[10.42732,43.68044],[10.42758,43.67997],[10.42587,43.67741],[10.42169,43.67821],[10.42165,43.67814],[10.42403,43.67393],[10.42417,43.67353],[10.4239,43.67312],[10.4223,43.67163],[10.41885,43.66853],[10.41783,43.66646],[10.41722,43.66277],[10.41643,43.65811],[10.41615,43.65619],[10.42326,43.65275],[10.42361,43.64891],[10.42799,43.65226],[10.42814,43.65221],[10.43076,43.65426],[10.43365,43.65643],[10.43403,43.65616],[10.4364,43.652],[10.43825,43.64878],[10.4408,43.65068],[10.43903,43.65539],[10.4386,43.65637],[10.43821,43.65775],[10.43818,43.65869],[10.43861,43.65993],[10.43904,43.66022],[10.43779,43.66217],[10.43861,43.66421],[10.44081,43.66797],[10.4423,43.67138],[10.44253,43.6721],[10.44256,43.67279],[10.44139,43.67336],[10.44479,43.67886],[10.446,43.68048],[10.45279,43.68983],[10.45024,43.69029],[10.44834,43.69059],[10.44553,43.69122],[10.445,43.69144],[10.43648,43.69356],[10.43387,43.68967],[10.43147,43.69053],[10.42982,43.691],[10.4282,43.69126],[10.42818,43.69012],[10.4261,43.68811],[10.42308,43.68508],[10.42307,43.68483],[10.42401,43.68444],[10.42468,43.68386]]]},"properties":{"zona":"E1","linkzona":"PI00000006","fascia":"E","fascia_label":"Suburbana","descr":"Z.I.A. OSPEDALETTO E MONTACCHIELLO","semestre":"2025-S2","loc_min":4.9,"loc_max":6.6,"loc_mid":5.75,"sale_min":1250.0,"sale_max":1800.0,"sup":"L","tipologia":"Abitazioni civili","stato":"NORMALE"}},{"type":"Feature","geometry":{"type":"Polygon","coordinates":[[[10.37143,43.70545],[10.37127,43.70568],[10.36815,43.70426],[10.36683,43.70371],[10.36359,43.70212],[10.3618,43.70107],[10.35998,43.69975],[10.35891,43.69882],[10.35756,43.69729],[10.35581,43.69545],[10.35462,43.69449],[10.35342,43.69398],[10.35189,43.69318],[10.34738,43.69037],[10.34664,43.69002],[10.3443,43.68866],[10.34275,43.68788],[10.34193,43.6872],[10.34095,43.68682],[10.33775,43.68494],[10.33738,43.68466],[10.33397,43.68262],[10.33253,43.68159],[10.33023,43.68007],[10.32844,43.6791],[10.32934,43.6787],[10.33427,43.67996],[10.3359,43.67997],[10.33951,43.68016],[10.34129,43.68015],[10.34166,43.67693],[10.34181,43.67691],[10.34245,43.67408],[10.3427,43.67409],[10.34419,43.66892],[10.34829,43.67072],[10.34859,43.6692],[10.34874,43.66919],[10.35293,43.67041],[10.35211,43.67234],[10.35196,43.67446],[10.35202,43.67498],[10.35447,43.67676],[10.35755,43.67749],[10.36001,43.67778],[10.36224,43.67827],[10.36384,43.6785],[10.36634,43.67818],[10.36703,43.67837],[10.37117,43.67969],[10.37185,43.68019],[10.3733,43.68161],[10.37373,43.68118],[10.37439,43.68101],[10.37549,43.68336],[10.37945,43.69191],[10.37967,43.69352],[10.3802,43.69849],[10.37839,43.69742],[10.37616,43.69562],[10.3761,43.69547],[10.3745,43.69577],[10.36942,43.6959],[10.36936,43.69595],[10.36991,43.69932],[10.36905,43.69929],[10.36939,43.70014],[10.37064,43.70188],[10.3712,43.70236],[10.37268,43.70329],[10.37401,43.70433],[10.37465,43.70498],[10.37536,43.70608],[10.3749,43.70607],[10.37382,43.70567],[10.37371,43.70625],[10.37156,43.70526],[10.37143,43.70545]]]},"properties":{"zona":"E4","linkzona":"PI00000712","fascia":"E","fascia_label":"Suburbana","descr":"FRAZIONI: LA VETTOLA, S. PIERO","semestre":"2025-S2","loc_min":4.8,"loc_max":6.8,"loc_mid":5.8,"sale_min":1300.0,"sale_max":2000.0,"sup":"L","tipologia":"Abitazioni civili","stato":"NORMALE"}},{"type":"Feature","geometry":{"type":"Polygon","coordinates":[[[10.34991,43.7041],[10.3504,43.70635],[10.35165,43.7113],[10.35238,43.71435],[10.35405,43.72107],[10.3566,43.72058],[10.36771,43.72196],[10.36881,43.72211],[10.36766,43.72928],[10.37292,43.72987],[10.38035,43.73076],[10.38691,43.73158],[10.38649,43.73215],[10.38568,43.73287],[10.38402,43.73529],[10.38343,43.73629],[10.3819,43.73838],[10.38045,43.73825],[10.36643,43.73655],[10.36639,43.73657],[10.35647,43.73536],[10.35483,43.73514],[10.34911,43.73387],[10.34358,43.73268],[10.34186,43.73229],[10.34001,43.73215],[10.33932,43.73228],[10.33794,43.73283],[10.3372,43.73299],[10.33518,43.73305],[10.32965,43.73314],[10.32912,43.73253],[10.32883,43.73173],[10.32877,43.73068],[10.32845,43.72986],[10.32748,43.72955],[10.32385,43.72976],[10.32043,43.73062],[10.31775,43.73164],[10.31577,43.73259],[10.31504,43.73302],[10.31329,43.73431],[10.31182,43.73557],[10.3105,43.73757],[10.30898,43.7388],[10.30729,43.73966],[10.30626,43.74044],[10.30449,43.74346],[10.3046,43.74489],[10.30418,43.74541],[10.30291,43.74751],[10.30221,43.74831],[10.30094,43.74944],[10.29928,43.75064],[10.29843,43.75082],[10.2972,43.75045],[10.2962,43.75046],[10.29393,43.7501],[10.29262,43.74997],[10.29123,43.75],[10.29029,43.74977],[10.28924,43.74878],[10.28879,43.74852],[10.28767,43.74818],[10.28656,43.74822],[10.285,43.74809],[10.28202,43.7474],[10.28138,43.74732],[10.27876,43.74759],[10.27794,43.74799],[10.27467,43.75119],[10.27442,43.75081],[10.27485,43.74914],[10.2749,43.74791],[10.27511,43.74671],[10.27568,43.74558],[10.27523,43.74836],[10.27468,43.75003],[10.2752,43.75035],[10.27564,43.74857],[10.27575,43.74694],[10.27625,43.74422],[10.27692,43.74158],[10.27721,43.74074],[10.27732,43.73993],[10.27776,43.73813],[10.2779,43.73628],[10.27772,43.73539],[10.27731,43.73467],[10.27683,43.73438],[10.27511,43.73441],[10.27552,43.73396],[10.27626,43.73214],[10.27633,43.73154],[10.27686,43.7302],[10.27758,43.72794],[10.27775,43.72717],[10.27834,43.72545],[10.27839,43.72485],[10.27876,43.72388],[10.27884,43.72283],[10.27871,43.72219],[10.27815,43.72103],[10.27756,43.72009],[10.27618,43.71888],[10.27671,43.71835],[10.27628,43.71728],[10.27576,43.71687],[10.27618,43.71668],[10.27602,43.71559],[10.27596,43.71414],[10.27642,43.71139],[10.27648,43.70942],[10.27637,43.70812],[10.2768,43.70406],[10.27681,43.70117],[10.27689,43.69999],[10.2766,43.69902],[10.27659,43.69825],[10.2769,43.69684],[10.27728,43.69676],[10.27798,43.69798],[10.27854,43.69946],[10.27921,43.70068],[10.28125,43.69881],[10.28109,43.69814],[10.28154,43.69743],[10.28169,43.69642],[10.28204,43.69545],[10.28178,43.69469],[10.28202,43.69433],[10.27817,43.69349],[10.27858,43.6904],[10.27831,43.6882],[10.2783,43.68612],[10.28238,43.68527],[10.28198,43.68457],[10.2819,43.68397],[10.28139,43.68262],[10.28095,43.68188],[10.28044,43.68146],[10.27964,43.68125],[10.27887,43.68155],[10.27813,43.68056],[10.27648,43.68064],[10.27556,43.68107],[10.27411,43.68117],[10.2734,43.6811],[10.27398,43.68108],[10.27322,43.67939],[10.27459,43.67937],[10.27574,43.67926],[10.27797,43.67948],[10.27825,43.6794],[10.2821,43.67962],[10.28453,43.67963],[10.28953,43.67975],[10.29436,43.67944],[10.29855,43.67873],[10.30046,43.67827],[10.30369,43.67762],[10.3058,43.67708],[10.30454,43.6761],[10.30477,43.67554],[10.30623,43.67349],[10.30276,43.67082],[10.30055,43.66975],[10.3009,43.66966],[10.30264,43.66883],[10.30301,43.66899],[10.30443,43.66746],[10.30421,43.66731],[10.30758,43.66421],[10.30623,43.66271],[10.30607,43.66214],[10.30633,43.66076],[10.30899,43.65305],[10.31081,43.64767],[10.31213,43.64391],[10.31387,43.63877],[10.31395,43.63871],[10.31075,43.63727],[10.30549,43.63484],[10.30571,43.63437],[10.30595,43.6297],[10.30601,43.62928],[10.3093,43.62037],[10.31037,43.61767],[10.31215,43.61042],[10.31337,43.60552],[10.3132,43.60544],[10.31425,43.60128],[10.31422,43.60111],[10.3158,43.5946],[10.31544,43.59452],[10.31563,43.59369],[10.31604,43.59371],[10.31652,43.59165],[10.31686,43.59077],[10.31774,43.58954],[10.32122,43.59058],[10.3242,43.59141],[10.32666,43.59218],[10.32751,43.59234],[10.32989,43.59297],[10.33141,43.59345],[10.33442,43.59429],[10.33649,43.59507],[10.34051,43.59631],[10.34057,43.59627],[10.34685,43.59822],[10.35266,43.59957],[10.35754,43.60065],[10.36606,43.60248],[10.36539,43.60414],[10.3678,43.60482],[10.37706,43.60917],[10.38765,43.61285],[10.40298,43.61814],[10.40794,43.61989],[10.40915,43.62034],[10.41035,43.62166],[10.41077,43.6239],[10.41142,43.62796],[10.41238,43.62905],[10.42443,43.63823],[10.42444,43.63829],[10.43187,43.64391],[10.43824,43.64877],[10.4364,43.652],[10.43403,43.65616],[10.43365,43.65643],[10.43076,43.65426],[10.42814,43.65221],[10.42799,43.65226],[10.42361,43.64891],[10.42326,43.65275],[10.41615,43.65619],[10.41643,43.65811],[10.41722,43.66277],[10.41783,43.66646],[10.41885,43.66853],[10.4223,43.67163],[10.4239,43.67312],[10.42417,43.67353],[10.42403,43.67393],[10.42165,43.67814],[10.42169,43.67821],[10.42587,43.67741],[10.42758,43.67997],[10.42732,43.68044],[10.42468,43.68386],[10.42401,43.68444],[10.42307,43.68483],[10.42103,43.68556],[10.4203,43.68605],[10.41956,43.68611],[10.41781,43.6867],[10.41625,43.68711],[10.41357,43.6876],[10.41281,43.68635],[10.41235,43.68582],[10.41048,43.68622],[10.40896,43.68288],[10.40898,43.68184],[10.40806,43.68091],[10.40605,43.67657],[10.40488,43.67594],[10.40291,43.67551],[10.4029,43.67565],[10.39676,43.67755],[10.39383,43.67811],[10.38981,43.67873],[10.38778,43.67912],[10.38094,43.68212],[10.37851,43.68322],[10.37805,43.68334],[10.37549,43.68336],[10.37439,43.68101],[10.37373,43.68118],[10.3733,43.68161],[10.37185,43.68019],[10.37117,43.67969],[10.36703,43.67837],[10.36634,43.67818],[10.36384,43.6785],[10.36224,43.67827],[10.36001,43.67778],[10.35755,43.67749],[10.35447,43.67676],[10.35202,43.67498],[10.35196,43.67446],[10.35211,43.67234],[10.35293,43.67041],[10.34874,43.66919],[10.34859,43.6692],[10.34829,43.67072],[10.34419,43.66892],[10.3427,43.67409],[10.34245,43.67408],[10.34181,43.67691],[10.34166,43.67693],[10.34129,43.68015],[10.33951,43.68016],[10.3359,43.67997],[10.33427,43.67996],[10.32934,43.6787],[10.32844,43.6791],[10.33023,43.68007],[10.33253,43.68159],[10.33397,43.68262],[10.33738,43.68466],[10.33775,43.68494],[10.34095,43.68682],[10.34193,43.6872],[10.34275,43.68788],[10.3443,43.68866],[10.34664,43.69002],[10.34738,43.69037],[10.35189,43.69318],[10.35104,43.69409],[10.35088,43.69712],[10.35048,43.70026],[10.34991,43.7041]]]},"properties":{"zona":"R1","linkzona":"PI00000694","fascia":"R","fascia_label":"Extraurbana","descr":"FRAZIONI: S.ROSSORE, COLTANO, TOMBOLO, LE RENE","semestre":"2025-S2","loc_min":null,"loc_max":null,"loc_mid":null,"sale_min":1350.0,"sale_max":2000.0}},{"type":"Feature","geometry":{"type":"Polygon","coordinates":[[[10.45024,43.69029],[10.4528,43.68984],[10.45501,43.69291],[10.45526,43.69356],[10.45523,43.69551],[10.45331,43.69676],[10.45328,43.69706],[10.45463,43.69887],[10.45628,43.7009],[10.45572,43.70098],[10.45281,43.70211],[10.45241,43.70179],[10.45034,43.70273],[10.45047,43.70308],[10.44944,43.70326],[10.4478,43.70315],[10.44708,43.70311],[10.44696,43.70223],[10.44647,43.70068],[10.44598,43.69958],[10.44545,43.69889],[10.44409,43.6978],[10.44303,43.69731],[10.44078,43.69693],[10.43912,43.69695],[10.43788,43.69717],[10.43621,43.69775],[10.43389,43.69905],[10.43065,43.7013],[10.42982,43.70183],[10.42868,43.70083],[10.42832,43.69887],[10.42686,43.69865],[10.42487,43.69817],[10.42389,43.6981],[10.42283,43.69756],[10.42348,43.69634],[10.42195,43.69639],[10.42113,43.69616],[10.42,43.69612],[10.42022,43.69544],[10.42065,43.69529],[10.42055,43.69442],[10.42006,43.6934],[10.42,43.69298],[10.41867,43.69092],[10.41854,43.69092],[10.41777,43.68937],[10.41809,43.68898],[10.41942,43.68777],[10.42056,43.68614],[10.4203,43.68605],[10.42103,43.68556],[10.42307,43.68483],[10.42308,43.68508],[10.4261,43.68811],[10.42818,43.69012],[10.4282,43.69126],[10.42982,43.691],[10.43147,43.69053],[10.43387,43.68967],[10.43648,43.69356],[10.445,43.69144],[10.44553,43.69122],[10.44834,43.69059],[10.45024,43.69029]]]},"properties":{"zona":"E3","linkzona":"PI00000018","fascia":"E","fascia_label":"Suburbana","descr":"FRAZIONI: PUTIGNANO, RIGLIONE, ORATOIO","semestre":"2025-S2","loc_min":4.8,"loc_max":6.8,"loc_mid":5.8,"sale_min":1350.0,"sale_max":2000.0,"sup":"L","tipologia":"Abitazioni civili","stato":"NORMALE"}},{"type":"Feature","geometry":{"type":"Polygon","coordinates":[[[10.3917,43.71727],[10.3916,43.71716],[10.39106,43.71634],[10.3908,43.71636],[10.38812,43.71535],[10.389,43.71338],[10.38924,43.71345],[10.39112,43.71411],[10.39152,43.71602],[10.39258,43.71576],[10.39284,43.71537],[10.39335,43.71528],[10.3939,43.71556],[10.39465,43.71632],[10.39517,43.7162],[10.39523,43.71683],[10.39704,43.71672],[10.39827,43.71713],[10.39979,43.71697],[10.40079,43.71698],[10.4007,43.71658],[10.40204,43.71658],[10.40465,43.71591],[10.40552,43.71552],[10.40605,43.71581],[10.40629,43.71537],[10.40695,43.71507],[10.40773,43.71541],[10.40868,43.71513],[10.40848,43.71455],[10.40875,43.71409],[10.40926,43.71406],[10.40979,43.71334],[10.40996,43.71334],[10.41002,43.71332],[10.41166,43.71278],[10.41202,43.71356],[10.41173,43.71531],[10.41135,43.71626],[10.41059,43.71705],[10.40868,43.7169],[10.40797,43.71783],[10.40763,43.71863],[10.40807,43.71927],[10.40874,43.71974],[10.40916,43.72039],[10.40915,43.72094],[10.40865,43.7219],[10.40839,43.72286],[10.40801,43.72341],[10.4073,43.72381],[10.406,43.72359],[10.40384,43.723],[10.40202,43.72267],[10.40103,43.72273],[10.39993,43.72295],[10.39695,43.72397],[10.39505,43.72433],[10.39373,43.72441],[10.39374,43.72383],[10.39289,43.72374],[10.39287,43.72147],[10.39301,43.72009],[10.39275,43.71884],[10.39245,43.71819],[10.3917,43.71727]]]},"properties":{"zona":"B1","linkzona":"PI00000014","fascia":"B","fascia_label":"Centrale","descr":"CENTRO STORICO NORD - QUARTIERI: S.FRANCESCO, S.TA MARIA","semestre":"2025-S2","loc_min":8.2,"loc_max":10.1,"loc_mid":9.15,"sale_min":1900.0,"sale_max":2700.0,"sup":"L","tipologia":"Abitazioni civili","stato":"NORMALE"}},{"type":"Feature","geometry":{"type":"MultiPolygon","coordinates":[[[[10.40627,43.71064],[10.40719,43.71253],[10.4064,43.7132],[10.40502,43.71352],[10.40439,43.71415],[10.40376,43.71387],[10.4034,43.71403],[10.40332,43.71459],[10.4019,43.71507],[10.4014,43.71502],[10.40055,43.71555],[10.39955,43.71558],[10.39826,43.71517],[10.39798,43.71529],[10.39724,43.7148],[10.3957,43.71463],[10.39531,43.71387],[10.3943,43.71331],[10.39298,43.71312],[10.39262,43.71255],[10.3921,43.71281],[10.39135,43.71261],[10.39163,43.71248],[10.3921,43.71135],[10.39253,43.71103],[10.39815,43.71073],[10.39847,43.71032],[10.39942,43.71026],[10.39977,43.71063],[10.40445,43.71035],[10.40514,43.71021],[10.40592,43.71031],[10.40627,43.71064]]],[[[10.39245,43.71819],[10.3916,43.71716],[10.3917,43.71727],[10.39245,43.71819]]]]},"properties":{"zona":"B3","linkzona":"PI00000871","fascia":"B","fascia_label":"Centrale","descr":"CENTRO STORICO  SUD - QUARTIERI: S.MARTINO, S.ANTONIO","semestre":"2025-S2","loc_min":8.1,"loc_max":10.0,"loc_mid":9.05,"sale_min":1900.0,"sale_max":2550.0,"sup":"L","tipologia":"Abitazioni civili","stato":"NORMALE"}},{"type":"Feature","geometry":{"type":"Polygon","coordinates":[[[10.38919,43.71179],[10.38972,43.71187],[10.39099,43.7125],[10.39021,43.7134],[10.3892,43.71297],[10.389,43.71338],[10.38812,43.71535],[10.3908,43.71636],[10.39106,43.71634],[10.3916,43.71716],[10.39245,43.71819],[10.39275,43.71884],[10.39301,43.72009],[10.39287,43.72147],[10.39289,43.72374],[10.39374,43.72383],[10.39373,43.72441],[10.39505,43.72433],[10.39695,43.72397],[10.39993,43.72295],[10.40103,43.72273],[10.40202,43.72267],[10.40384,43.723],[10.406,43.72359],[10.4073,43.72381],[10.40801,43.72341],[10.40839,43.72286],[10.40865,43.7219],[10.40915,43.72094],[10.40916,43.72039],[10.40874,43.71974],[10.40807,43.71927],[10.40763,43.71863],[10.40797,43.71783],[10.40868,43.7169],[10.41059,43.71705],[10.41135,43.71626],[10.41173,43.71531],[10.41202,43.71356],[10.41166,43.71278],[10.41002,43.71332],[10.41016,43.71317],[10.40978,43.71243],[10.41014,43.71232],[10.41017,43.71128],[10.40957,43.71079],[10.40957,43.71016],[10.40917,43.70995],[10.40939,43.70902],[10.40983,43.70857],[10.4117,43.70723],[10.41193,43.70745],[10.41375,43.70826],[10.4141,43.70882],[10.4153,43.70856],[10.41578,43.70824],[10.41649,43.70918],[10.41717,43.70984],[10.41751,43.71131],[10.41752,43.71212],[10.41777,43.71299],[10.41742,43.71314],[10.41635,43.71316],[10.41628,43.71464],[10.41585,43.71481],[10.41937,43.71504],[10.41941,43.71515],[10.42142,43.71502],[10.42193,43.71674],[10.42155,43.71733],[10.42033,43.71844],[10.42016,43.71918],[10.42069,43.71974],[10.42166,43.72047],[10.42174,43.72068],[10.42105,43.72099],[10.42215,43.72154],[10.4196,43.72371],[10.41883,43.72368],[10.41848,43.72426],[10.41681,43.72585],[10.41692,43.72603],[10.41446,43.72311],[10.41373,43.72336],[10.40938,43.72454],[10.40813,43.72495],[10.40574,43.72515],[10.40241,43.72612],[10.39972,43.72672],[10.39797,43.727],[10.39327,43.72754],[10.38971,43.72761],[10.3895,43.72771],[10.38847,43.72937],[10.38756,43.73046],[10.38691,43.73158],[10.38035,43.73076],[10.38495,43.72666],[10.38512,43.72631],[10.38642,43.72514],[10.38663,43.7243],[10.38668,43.72254],[10.38692,43.72126],[10.38737,43.72157],[10.38717,43.7199],[10.38727,43.71984],[10.38701,43.71794],[10.38704,43.71639],[10.38741,43.71532],[10.3885,43.713],[10.38919,43.71179]]]},"properties":{"zona":"C1","linkzona":"PI00000180","fascia":"C","fascia_label":"Semicentrale","descr":"ZONE: CONGRESSI, DON BOSCO, PRATALE, STADIO, INGEGNERIA, PORTA NUOVA","semestre":"2025-S2","loc_min":6.9,"loc_max":9.5,"loc_mid":8.2,"sale_min":1650.0,"sale_max":2300.0,"sup":"L","tipologia":"Abitazioni civili","stato":"NORMALE"}},{"type":"Feature","geometry":{"type":"Polygon","coordinates":[[[10.42163,43.70745],[10.42137,43.70716],[10.42057,43.70573],[10.42055,43.70547],[10.42248,43.7053],[10.42389,43.70509],[10.42524,43.7046],[10.42687,43.70366],[10.42982,43.70183],[10.43065,43.7013],[10.43389,43.69905],[10.43621,43.69775],[10.43788,43.69717],[10.43912,43.69695],[10.44078,43.69693],[10.44303,43.69731],[10.44409,43.6978],[10.44545,43.69889],[10.44598,43.69958],[10.44647,43.70068],[10.44696,43.70223],[10.44708,43.70311],[10.4478,43.70315],[10.44772,43.70407],[10.44738,43.70523],[10.44602,43.70847],[10.44566,43.70952],[10.44539,43.71072],[10.44377,43.71067],[10.4421,43.71129],[10.4336,43.71465],[10.42825,43.71662],[10.42849,43.71786],[10.42751,43.71812],[10.4239,43.71959],[10.42191,43.7207],[10.42174,43.72068],[10.42166,43.72047],[10.42069,43.71974],[10.42016,43.71918],[10.42033,43.71844],[10.42155,43.71733],[10.42193,43.71674],[10.42142,43.71502],[10.41941,43.71515],[10.41937,43.71504],[10.41585,43.71481],[10.41628,43.71464],[10.41635,43.71316],[10.41742,43.71314],[10.41777,43.71299],[10.41752,43.71212],[10.41751,43.71131],[10.41717,43.70984],[10.41649,43.70918],[10.41578,43.70824],[10.41727,43.70775],[10.4182,43.70811],[10.41866,43.70757],[10.42003,43.70817],[10.42034,43.70767],[10.42163,43.70745]]]},"properties":{"zona":"D3","linkzona":"PI00000691","fascia":"D","fascia_label":"Periferica","descr":"ZONE: CISANELLO, PISANOVA, S. CATALDO","semestre":"2025-S2","loc_min":6.1,"loc_max":9.2,"loc_mid":7.65,"sale_min":1450.0,"sale_max":2150.0,"sup":"L","tipologia":"Abitazioni civili","stato":"NORMALE"}},{"type":"Feature","geometry":{"type":"Polygon","coordinates":[[[10.37549,43.68336],[10.37805,43.68334],[10.37851,43.68322],[10.38094,43.68212],[10.38778,43.67912],[10.38981,43.67873],[10.39383,43.67811],[10.39676,43.67755],[10.4029,43.67565],[10.40291,43.67551],[10.40488,43.67594],[10.40605,43.67657],[10.40806,43.68091],[10.40898,43.68184],[10.40896,43.68288],[10.41048,43.68622],[10.41235,43.68582],[10.41281,43.68635],[10.41357,43.6876],[10.41625,43.68711],[10.41781,43.6867],[10.41956,43.68611],[10.4203,43.68605],[10.42056,43.68614],[10.41942,43.68777],[10.41809,43.68898],[10.41777,43.68937],[10.41854,43.69092],[10.41867,43.69092],[10.42,43.69298],[10.42006,43.6934],[10.42055,43.69442],[10.42065,43.69529],[10.42022,43.69544],[10.42,43.69612],[10.42113,43.69616],[10.42195,43.69639],[10.42348,43.69634],[10.42283,43.69756],[10.42389,43.6981],[10.42487,43.69817],[10.42686,43.69865],[10.42832,43.69887],[10.42868,43.70083],[10.42982,43.70183],[10.42687,43.70366],[10.42524,43.7046],[10.42389,43.70509],[10.42248,43.7053],[10.42055,43.70547],[10.41851,43.70555],[10.4157,43.70588],[10.4132,43.70648],[10.4117,43.70723],[10.40983,43.70857],[10.40939,43.70902],[10.40917,43.70995],[10.40923,43.71101],[10.40795,43.71106],[10.40627,43.71064],[10.40592,43.71031],[10.40514,43.71021],[10.40445,43.71035],[10.39977,43.71063],[10.39942,43.71026],[10.39847,43.71032],[10.39815,43.71073],[10.39253,43.71103],[10.3921,43.71135],[10.39163,43.71248],[10.39135,43.71261],[10.39099,43.7125],[10.38972,43.71187],[10.38919,43.71179],[10.38824,43.71136],[10.38229,43.70999],[10.38125,43.70988],[10.37913,43.70925],[10.37713,43.70847],[10.37339,43.70672],[10.37227,43.7061],[10.37127,43.70568],[10.37143,43.70545],[10.37156,43.70526],[10.37371,43.70625],[10.37382,43.70567],[10.3749,43.70607],[10.37536,43.70608],[10.37465,43.70498],[10.37401,43.70433],[10.37268,43.70329],[10.3712,43.70236],[10.37064,43.70188],[10.36939,43.70014],[10.36905,43.69929],[10.36991,43.69932],[10.36936,43.69595],[10.36942,43.6959],[10.3745,43.69577],[10.3761,43.69547],[10.37616,43.69562],[10.37839,43.69742],[10.3802,43.69849],[10.37967,43.69352],[10.37945,43.69191],[10.37549,43.68336]]]},"properties":{"zona":"D1","linkzona":"PI00000181","fascia":"D","fascia_label":"Periferica","descr":"ZONE: P.TA A MARE, S. GIUSTO, S. MARCO, P.TA FIORENTINA, S. ERMETE, STAZ...","semestre":"2025-S2","loc_min":5.8,"loc_max":8.4,"loc_mid":7.1,"sale_min":1400.0,"sale_max":2000.0,"sup":"L","tipologia":"Abitazioni civili","stato":"NORMALE"}},{"type":"Feature","geometry":{"type":"Polygon","coordinates":[[[10.39327,43.72754],[10.39797,43.727],[10.39972,43.72672],[10.40241,43.72612],[10.40574,43.72515],[10.40813,43.72495],[10.40938,43.72454],[10.41373,43.72336],[10.41446,43.72311],[10.41692,43.72603],[10.42107,43.731],[10.42062,43.73101],[10.4175,43.73232],[10.41626,43.73233],[10.41482,43.73247],[10.41309,43.73323],[10.41196,43.73404],[10.41147,43.73455],[10.41043,43.73517],[10.40928,43.7355],[10.40883,43.73587],[10.4086,43.73664],[10.40637,43.73754],[10.40508,43.73795],[10.40065,43.73426],[10.40046,43.73415],[10.39749,43.73168],[10.39744,43.73158],[10.39322,43.7281],[10.39327,43.72754]]]},"properties":{"zona":"D5","linkzona":"PI00000711","fascia":"D","fascia_label":"Periferica","descr":"ZONA PORTA A LUCCA","semestre":"2025-S2","loc_min":6.3,"loc_max":9.3,"loc_mid":7.8,"sale_min":1700.0,"sale_max":2350.0,"sup":"L","tipologia":"Abitazioni civili","stato":"NORMALE"}},{"type":"Feature","geometry":{"type":"Polygon","coordinates":[[[10.27322,43.67939],[10.27173,43.67925],[10.26989,43.6788],[10.26967,43.67731],[10.26912,43.6767],[10.26995,43.67616],[10.26997,43.67558],[10.27037,43.67543],[10.27082,43.67482],[10.27038,43.67457],[10.27073,43.67393],[10.27143,43.67378],[10.27165,43.67308],[10.27456,43.66817],[10.27469,43.66768],[10.27679,43.66405],[10.27741,43.6633],[10.2776,43.66255],[10.27805,43.66219],[10.27856,43.66128],[10.27852,43.66083],[10.27885,43.66023],[10.27899,43.65936],[10.27956,43.65907],[10.28021,43.65833],[10.28049,43.65716],[10.28095,43.6561],[10.28108,43.65531],[10.28152,43.6552],[10.28185,43.65477],[10.28172,43.65439],[10.2823,43.65389],[10.28216,43.65316],[10.28289,43.65233],[10.28328,43.65098],[10.28319,43.65032],[10.28364,43.64949],[10.28391,43.6494],[10.28411,43.64869],[10.28375,43.64842],[10.28422,43.64767],[10.28441,43.64671],[10.28397,43.64645],[10.28397,43.64601],[10.28458,43.64577],[10.28426,43.64476],[10.28474,43.64461],[10.28524,43.64337],[10.28548,43.64191],[10.28582,43.64094],[10.28622,43.63795],[10.28652,43.63696],[10.28666,43.63526],[10.2869,43.63459],[10.28683,43.63407],[10.28703,43.63264],[10.28698,43.63148],[10.28716,43.63072],[10.28719,43.62704],[10.2873,43.62608],[10.28723,43.62545],[10.28743,43.6218],[10.28778,43.61756],[10.28805,43.61487],[10.28828,43.61314],[10.28874,43.61041],[10.29017,43.60241],[10.29097,43.59919],[10.29145,43.59705],[10.29167,43.59706],[10.29195,43.59578],[10.29285,43.5923],[10.29352,43.5903],[10.29451,43.58779],[10.2957,43.5854],[10.29685,43.58359],[10.2983,43.58205],[10.29921,43.58136],[10.30018,43.58216],[10.30188,43.58372],[10.30266,43.58455],[10.30391,43.5856],[10.30448,43.58593],[10.30684,43.58669],[10.30813,43.58687],[10.30994,43.58747],[10.31106,43.58761],[10.31675,43.58916],[10.31774,43.58954],[10.31686,43.59077],[10.31652,43.59165],[10.31604,43.59371],[10.31563,43.59369],[10.31544,43.59452],[10.3158,43.5946],[10.31422,43.60111],[10.31425,43.60128],[10.3132,43.60544],[10.31337,43.60552],[10.31215,43.61042],[10.31037,43.61767],[10.3093,43.62037],[10.30601,43.62928],[10.30595,43.6297],[10.30571,43.63437],[10.30549,43.63484],[10.31075,43.63727],[10.31395,43.63871],[10.31387,43.63877],[10.31213,43.64391],[10.31081,43.64767],[10.30899,43.65305],[10.30633,43.66076],[10.30607,43.66214],[10.30623,43.66271],[10.30758,43.66421],[10.30421,43.66731],[10.30443,43.66746],[10.30301,43.66899],[10.30264,43.66883],[10.3009,43.66966],[10.30055,43.66975],[10.30276,43.67082],[10.30623,43.67349],[10.30477,43.67554],[10.30454,43.6761],[10.3058,43.67708],[10.30369,43.67762],[10.30046,43.67827],[10.29855,43.67873],[10.29436,43.67944],[10.28953,43.67975],[10.28453,43.67963],[10.2821,43.67962],[10.27825,43.6794],[10.27797,43.67948],[10.27574,43.67926],[10.27459,43.67937],[10.27322,43.67939]]]},"properties":{"zona":"E2","linkzona":"PI00000007","fascia":"E","fascia_label":"Suburbana","descr":"FRAZIONI: MARINA DI PISA, TIRRENIA, CALAMBRONE","semestre":"2025-S2","loc_min":7.1,"loc_max":10.0,"loc_mid":8.55,"sale_min":2050.0,"sale_max":2750.0,"sup":"L","tipologia":"Abitazioni civili","stato":"NORMALE"}}]}