{"type":"FeatureCollection","features":[{"type":"Feature","geometry":{"type":"Polygon","coordinates":[[[14.17262,42.47316],[14.17137,42.47428],[14.16838,42.47247],[14.16833,42.47315],[14.16805,42.47337],[14.166,42.47316],[14.16556,42.47233],[14.16438,42.47115],[14.16346,42.47209],[14.16211,42.47199],[14.16096,42.47167],[14.16045,42.47206],[14.16019,42.47163],[14.15936,42.47127],[14.15906,42.47071],[14.1585,42.47038],[14.15804,42.46987],[14.15732,42.46946],[14.15643,42.46977],[14.15621,42.46988],[14.15494,42.46939],[14.15531,42.46918],[14.15537,42.46869],[14.1551,42.46772],[14.15586,42.4679],[14.15646,42.46788],[14.15696,42.46751],[14.15726,42.46703],[14.15814,42.46653],[14.15837,42.46625],[14.15966,42.46571],[14.16069,42.46561],[14.16113,42.4658],[14.16154,42.46549],[14.16235,42.46545],[14.1638,42.46508],[14.16428,42.46479],[14.16612,42.46446],[14.16681,42.4641],[14.16798,42.46394],[14.16851,42.46479],[14.16894,42.465],[14.1701,42.46501],[14.1707,42.46522],[14.17078,42.46663],[14.1707,42.46695],[14.17092,42.46777],[14.17079,42.46812],[14.17103,42.46864],[14.17131,42.47],[14.17077,42.47108],[14.17164,42.4719],[14.17262,42.47316]]]},"properties":{"zona":"R1","linkzona":"PE00001032","fascia":"R","fascia_label":"Extraurbana","descr":"-  VALLE FURCI","semestre":"2025-S2","loc_min":3.5,"loc_max":5.2,"loc_mid":4.35,"sale_min":800.0,"sale_max":1200.0,"sup":"L","tipologia":"Abitazioni civili","stato":"NORMALE"}},{"type":"Feature","geometry":{"type":"Polygon","coordinates":[[[14.21252,42.45602],[14.21194,42.45721],[14.21114,42.45852],[14.21103,42.45885],[14.20959,42.46079],[14.21028,42.46099],[14.2103,42.46144],[14.20965,42.46173],[14.20842,42.46189],[14.20662,42.46194],[14.20513,42.46183],[14.20512,42.46159],[14.20414,42.46156],[14.2023,42.46117],[14.19987,42.46021],[14.19868,42.45964],[14.19731,42.45871],[14.19634,42.4579],[14.1961,42.45805],[14.19462,42.45659],[14.19236,42.45564],[14.19243,42.45554],[14.19276,42.45494],[14.1941,42.45419],[14.19564,42.45278],[14.19652,42.4509],[14.19711,42.45054],[14.19783,42.45051],[14.20011,42.4488],[14.20144,42.44788],[14.20391,42.44632],[14.20354,42.44555],[14.20475,42.44457],[14.20421,42.44388],[14.2061,42.44261],[14.20588,42.44238],[14.20692,42.44169],[14.2076,42.44161],[14.21036,42.43978],[14.21196,42.44178],[14.21435,42.44462],[14.21698,42.44647],[14.2173,42.44664],[14.21619,42.44839],[14.21552,42.4498],[14.21576,42.45042],[14.21638,42.451],[14.21492,42.45179],[14.21448,42.4522],[14.2133,42.45461],[14.21273,42.45472],[14.21256,42.45518],[14.21252,42.45602]]]},"properties":{"zona":"D1","linkzona":"PE00000020","fascia":"D","fascia_label":"Periferica","descr":"- ZONE A SUD-OVEST DEL FIUME PESCARA, VIA TIBURTINA, ATERNO E ZONA S.DON...","semestre":"2025-S2","loc_min":4.0,"loc_max":6.0,"loc_mid":5.0,"sale_min":740.0,"sale_max":1100.0,"sup":"L","tipologia":"Abitazioni civili","stato":"NORMALE","ott_min":5.4,"ott_max":8.1}},{"type":"Feature","geometry":{"type":"Polygon","coordinates":[[[14.21497,42.47184],[14.21603,42.47121],[14.21704,42.47194],[14.21664,42.47224],[14.2147,42.47315],[14.2121,42.47477],[14.21057,42.47582],[14.20916,42.47653],[14.20731,42.47772],[14.20483,42.47604],[14.2049,42.47569],[14.20817,42.47298],[14.20521,42.47103],[14.2072,42.46937],[14.20943,42.47078],[14.21034,42.47126],[14.2111,42.4707],[14.21266,42.47171],[14.21322,42.47221],[14.21364,42.47233],[14.21497,42.47184]]]},"properties":{"zona":"B2","linkzona":"PE00000008","fascia":"B","fascia_label":"Centrale","descr":"- TRA VIA MUZII, R. MARGHERITA, MAZZINI, C.SO V. EMANUELE, ROMA, FABRIZI, ...","semestre":"2025-S2","loc_min":5.0,"loc_max":7.5,"loc_mid":6.25,"sale_min":1700.0,"sale_max":2550.0,"sup":"L","tipologia":"Abitazioni civili","stato":"NORMALE"}},{"type":"Feature","geometry":{"type":"Polygon","coordinates":[[[14.21524,42.43176],[14.2169,42.4312],[14.21674,42.43067],[14.21899,42.43034],[14.21919,42.42928],[14.21951,42.42865],[14.21846,42.42844],[14.21816,42.42801],[14.21944,42.4277],[14.21961,42.42755],[14.22085,42.4276],[14.22227,42.42781],[14.22282,42.42803],[14.22381,42.4276],[14.22366,42.42682],[14.22381,42.42642],[14.22328,42.42609],[14.22352,42.42578],[14.22303,42.42527],[14.22352,42.42498],[14.22342,42.42454],[14.2234,42.42259],[14.22323,42.42131],[14.22243,42.42061],[14.22123,42.41928],[14.22321,42.41854],[14.22445,42.41824],[14.22597,42.41759],[14.22748,42.41714],[14.22882,42.41683],[14.22798,42.41593],[14.22901,42.41524],[14.23013,42.41628],[14.23184,42.41836],[14.23227,42.42009],[14.23392,42.42215],[14.23498,42.42279],[14.23623,42.42385],[14.23779,42.42599],[14.23889,42.4269],[14.24085,42.42666],[14.24301,42.42651],[14.24472,42.42695],[14.24584,42.42758],[14.24637,42.42819],[14.24427,42.42903],[14.24447,42.42957],[14.24352,42.42979],[14.24306,42.43019],[14.24446,42.43198],[14.24557,42.43277],[14.24585,42.43332],[14.24672,42.43352],[14.24757,42.43413],[14.24834,42.43435],[14.24776,42.43482],[14.24718,42.43494],[14.24452,42.43575],[14.24396,42.43688],[14.24465,42.43763],[14.24556,42.43815],[14.24529,42.43839],[14.24455,42.43829],[14.24395,42.43751],[14.24266,42.43726],[14.24067,42.43788],[14.24045,42.43957],[14.24119,42.44041],[14.2405,42.44109],[14.24022,42.44207],[14.24027,42.44242],[14.24106,42.44343],[14.2407,42.44388],[14.24093,42.44416],[14.23985,42.44436],[14.23945,42.44458],[14.23871,42.44415],[14.23837,42.44447],[14.23476,42.44583],[14.23415,42.44552],[14.23269,42.44557],[14.2314,42.4458],[14.22992,42.44562],[14.22875,42.44481],[14.22838,42.4443],[14.22759,42.44325],[14.22701,42.44276],[14.22688,42.44223],[14.22857,42.44041],[14.22888,42.44059],[14.22937,42.43999],[14.23016,42.4393],[14.22979,42.4391],[14.23027,42.43767],[14.22936,42.43742],[14.22866,42.43753],[14.22667,42.43706],[14.22719,42.4366],[14.22645,42.43601],[14.22523,42.43746],[14.22444,42.43747],[14.22415,42.43717],[14.22332,42.43704],[14.22233,42.43652],[14.22152,42.43645],[14.22062,42.43759],[14.21943,42.4372],[14.21882,42.43766],[14.2171,42.43617],[14.21681,42.43571],[14.21679,42.43503],[14.21604,42.43376],[14.21524,42.43176]]]},"properties":{"zona":"E3","linkzona":"PE00000039","fascia":"E","fascia_label":"Suburbana","descr":"- COLLE S.SILVESTRO E ZONE LIMITROFE","semestre":"2025-S2","loc_min":3.6,"loc_max":5.4,"loc_mid":4.5,"sale_min":770.0,"sale_max":1150.0,"sup":"L","tipologia":"Abitazioni civili","stato":"NORMALE"}},{"type":"Feature","geometry":{"type":"Polygon","coordinates":[[[14.21455,42.46326],[14.2103,42.46144],[14.21028,42.46099],[14.20959,42.46079],[14.21103,42.45885],[14.21187,42.45893],[14.21305,42.45967],[14.21448,42.45831],[14.21522,42.45857],[14.21777,42.46033],[14.22002,42.45847],[14.22144,42.45903],[14.22257,42.45925],[14.22299,42.45889],[14.22438,42.45829],[14.22531,42.45753],[14.22563,42.45742],[14.22727,42.4578],[14.22797,42.45811],[14.22923,42.45716],[14.23241,42.45936],[14.23309,42.45874],[14.23272,42.45846],[14.23363,42.45912],[14.23443,42.45965],[14.23403,42.4601],[14.2339,42.46064],[14.23312,42.46102],[14.23236,42.46175],[14.23198,42.463],[14.23192,42.4639],[14.23433,42.46555],[14.23284,42.46688],[14.2327,42.46629],[14.23322,42.46625],[14.23314,42.465],[14.23289,42.46471],[14.23178,42.46401],[14.23052,42.46513],[14.22974,42.46548],[14.23008,42.46591],[14.22899,42.46641],[14.22893,42.46689],[14.22783,42.46781],[14.22943,42.46886],[14.22986,42.46869],[14.23038,42.46902],[14.23386,42.4676],[14.23473,42.46721],[14.23464,42.46791],[14.235,42.46907],[14.23368,42.46889],[14.23233,42.4684],[14.22983,42.46941],[14.22957,42.46968],[14.22927,42.46965],[14.22565,42.46725],[14.2249,42.46689],[14.22328,42.46676],[14.2223,42.46594],[14.21897,42.46506],[14.21795,42.46447],[14.2156,42.46382],[14.21455,42.46326]]]},"properties":{"zona":"C2","linkzona":"PE00000015","fascia":"C","fascia_label":"Semicentrale","descr":"- ZONE A  SUD DEL PORTO CANALE, FINO A VIA PEPE ED AL TRACCIATO FERROV...","semestre":"2025-S2","loc_min":4.3,"loc_max":6.4,"loc_mid":5.35,"sale_min":1050.0,"sale_max":1550.0,"sup":"L","tipologia":"Abitazioni civili","stato":"NORMALE","ott_min":5.7,"ott_max":8.5}},{"type":"Feature","geometry":{"type":"Polygon","coordinates":[[[14.19731,42.45871],[14.19868,42.45964],[14.19987,42.46021],[14.2023,42.46117],[14.20414,42.46156],[14.20512,42.46159],[14.20513,42.46183],[14.20662,42.46194],[14.20842,42.46189],[14.20965,42.46173],[14.20919,42.46213],[14.20859,42.46227],[14.20791,42.46359],[14.20749,42.4642],[14.20757,42.46494],[14.20737,42.46547],[14.20459,42.46704],[14.20392,42.46763],[14.20341,42.46829],[14.20202,42.46934],[14.2015,42.47025],[14.20161,42.47052],[14.19831,42.47354],[14.19762,42.47452],[14.19601,42.476],[14.19443,42.47702],[14.19279,42.47837],[14.19136,42.47766],[14.19104,42.47796],[14.18991,42.47748],[14.18932,42.47831],[14.18875,42.47854],[14.18725,42.47764],[14.18651,42.47729],[14.18657,42.4768],[14.18554,42.47731],[14.18368,42.4774],[14.18259,42.47754],[14.18087,42.47707],[14.17961,42.47612],[14.18035,42.47502],[14.18087,42.47444],[14.1815,42.47347],[14.18191,42.47244],[14.18328,42.47126],[14.18459,42.47044],[14.18367,42.46934],[14.18234,42.46848],[14.18258,42.4674],[14.18376,42.467],[14.18451,42.46691],[14.18623,42.4664],[14.18541,42.46603],[14.18558,42.46511],[14.18543,42.4649],[14.18661,42.4644],[14.18597,42.46263],[14.18491,42.4611],[14.18703,42.45973],[14.18762,42.45943],[14.18854,42.45956],[14.18886,42.45931],[14.19002,42.45892],[14.19071,42.4584],[14.1922,42.45807],[14.19266,42.4578],[14.19311,42.45816],[14.19399,42.45806],[14.19474,42.45846],[14.19644,42.45884],[14.19701,42.45848],[14.19731,42.45871]]]},"properties":{"zona":"C6","linkzona":"PE00000296","fascia":"C","fascia_label":"Semicentrale","descr":"- ZONE A NORD DEL FIUME PESCARA, COLLE MARINO, STAZ. FERROVIARIA, VIA ...","semestre":"2025-S2","loc_min":3.7,"loc_max":5.5,"loc_mid":4.6,"sale_min":1000.0,"sale_max":1500.0,"sup":"L","tipologia":"Abitazioni civili","stato":"NORMALE","ott_min":5.8,"ott_max":8.7}},{"type":"Feature","geometry":{"type":"Polygon","coordinates":[[[14.23945,42.44458],[14.2401,42.44551],[14.24115,42.44644],[14.24154,42.447],[14.24239,42.44758],[14.24297,42.44761],[14.24373,42.44844],[14.24428,42.44946],[14.24581,42.45071],[14.24534,42.45117],[14.2454,42.45146],[14.24426,42.45216],[14.24368,42.45281],[14.24263,42.45342],[14.24206,42.45397],[14.24141,42.45423],[14.24081,42.45472],[14.24066,42.45523],[14.23968,42.45604],[14.23927,42.45579],[14.2387,42.45597],[14.23769,42.45669],[14.23608,42.4581],[14.23582,42.45877],[14.2354,42.45885],[14.23443,42.45965],[14.23363,42.45912],[14.23272,42.45846],[14.23238,42.45819],[14.23584,42.45564],[14.23553,42.45457],[14.23488,42.45354],[14.23581,42.45287],[14.23473,42.45296],[14.23232,42.45224],[14.23298,42.45194],[14.23473,42.45072],[14.2334,42.44944],[14.23272,42.44853],[14.23225,42.44766],[14.23419,42.44637],[14.23476,42.44583],[14.23837,42.44447],[14.23871,42.44415],[14.23945,42.44458]]]},"properties":{"zona":"C3","linkzona":"PE00000016","fascia":"C","fascia_label":"Semicentrale","descr":"- RIONE PINETA E ZONE LIMITROFE","semestre":"2025-S2","loc_min":5.3,"loc_max":7.9,"loc_mid":6.6,"sale_min":1550.0,"sale_max":2300.0,"sup":"L","tipologia":"Abitazioni civili","stato":"NORMALE"}},{"type":"Feature","geometry":{"type":"Polygon","coordinates":[[[14.2173,42.44664],[14.21847,42.44486],[14.21888,42.44437],[14.21981,42.44463],[14.22234,42.44349],[14.22393,42.44322],[14.22562,42.44334],[14.22763,42.44422],[14.22838,42.4443],[14.22875,42.44481],[14.22992,42.44562],[14.2314,42.4458],[14.23269,42.44557],[14.23415,42.44552],[14.23476,42.44583],[14.23419,42.44637],[14.23225,42.44766],[14.23272,42.44853],[14.2334,42.44944],[14.23473,42.45072],[14.23298,42.45194],[14.23232,42.45224],[14.23473,42.45296],[14.23581,42.45287],[14.23488,42.45354],[14.23553,42.45457],[14.23584,42.45564],[14.23238,42.45819],[14.23272,42.45846],[14.23309,42.45874],[14.23241,42.45936],[14.22923,42.45716],[14.22797,42.45811],[14.22727,42.4578],[14.22563,42.45742],[14.22531,42.45753],[14.22438,42.45829],[14.22299,42.45889],[14.22257,42.45925],[14.22144,42.45903],[14.22002,42.45847],[14.21777,42.46033],[14.21522,42.45857],[14.21448,42.45831],[14.21305,42.45967],[14.21187,42.45893],[14.21103,42.45885],[14.21114,42.45852],[14.21194,42.45721],[14.21252,42.45602],[14.21256,42.45518],[14.21273,42.45472],[14.2133,42.45461],[14.21448,42.4522],[14.21492,42.45179],[14.21638,42.451],[14.21576,42.45042],[14.21552,42.4498],[14.21619,42.44839],[14.2173,42.44664]]]},"properties":{"zona":"C4","linkzona":"PE00000017","fascia":"C","fascia_label":"Semicentrale","descr":"- STAZIONE PE PORTA NUOVA, VIA D`ANNUNZIO, VIA PEPE, STADIO, VIALE PIN...","semestre":"2025-S2","loc_min":4.6,"loc_max":6.9,"loc_mid":5.75,"sale_min":1150.0,"sale_max":1700.0,"sup":"L","tipologia":"Abitazioni civili","stato":"NORMALE","ott_min":6.2,"ott_max":9.3}},{"type":"Feature","geometry":{"type":"Polygon","coordinates":[[[14.20421,42.44388],[14.20031,42.43946],[14.19745,42.43625],[14.19768,42.43608],[14.19639,42.43391],[14.19634,42.43379],[14.19861,42.42877],[14.20063,42.42799],[14.20213,42.42799],[14.20291,42.42771],[14.20439,42.42751],[14.205,42.427],[14.20617,42.42788],[14.20602,42.4281],[14.20595,42.42926],[14.20642,42.4294],[14.20653,42.42978],[14.20625,42.43053],[14.20714,42.4309],[14.20786,42.43155],[14.20788,42.43201],[14.20829,42.43292],[14.20865,42.43326],[14.20806,42.43351],[14.20709,42.43421],[14.20809,42.43472],[14.20903,42.43477],[14.20964,42.43545],[14.20972,42.43741],[14.21001,42.43914],[14.21036,42.43978],[14.2076,42.44161],[14.20692,42.44169],[14.20588,42.44238],[14.2061,42.44261],[14.20421,42.44388]]]},"properties":{"zona":"E2","linkzona":"PE00000027","fascia":"E","fascia_label":"Suburbana","descr":"- FONTANELLE E ZONE LIMITROFE","semestre":"2025-S2","loc_min":3.2,"loc_max":4.8,"loc_mid":4.0,"sale_min":740.0,"sale_max":1100.0,"sup":"L","tipologia":"Abitazioni civili","stato":"NORMALE","ott_min":4.4,"ott_max":5.9}},{"type":"Feature","geometry":{"type":"Polygon","coordinates":[[[14.20483,42.47604],[14.2073,42.47772],[14.20617,42.47836],[14.20414,42.48039],[14.20309,42.48113],[14.20165,42.48016],[14.19977,42.47886],[14.20045,42.4782],[14.20134,42.47708],[14.20179,42.47624],[14.20282,42.47405],[14.20298,42.47324],[14.20275,42.47305],[14.20373,42.47218],[14.20357,42.47183],[14.20161,42.47052],[14.2015,42.47025],[14.20202,42.46934],[14.20341,42.46829],[14.20392,42.46763],[14.20459,42.46704],[14.20737,42.46547],[14.21002,42.467],[14.21087,42.46631],[14.21324,42.46797],[14.21417,42.4688],[14.21642,42.47038],[14.21562,42.47089],[14.21585,42.47107],[14.21603,42.47121],[14.21497,42.47184],[14.21364,42.47233],[14.21322,42.47221],[14.21266,42.47171],[14.2111,42.4707],[14.21034,42.47126],[14.20943,42.47078],[14.2072,42.46937],[14.20521,42.47103],[14.20817,42.47298],[14.2049,42.47569],[14.20483,42.47604]]]},"properties":{"zona":"B1","linkzona":"PE00000007","fascia":"B","fascia_label":"Centrale","descr":"- TRA LUNGOMARE, VIA BERARDINUCCI, STAZ. FERROVIARIA E VIA BALILLA, ESCLUS...","semestre":"2025-S2","loc_min":4.9,"loc_max":7.3,"loc_mid":6.1,"sale_min":1500.0,"sale_max":2250.0,"sup":"L","tipologia":"Abitazioni civili","stato":"NORMALE","ott_min":6.7,"ott_max":10.0}},{"type":"Feature","geometry":{"type":"Polygon","coordinates":[[[14.2103,42.46144],[14.21455,42.46326],[14.2156,42.46382],[14.21795,42.46447],[14.21897,42.46506],[14.2223,42.46594],[14.22328,42.46676],[14.2249,42.46689],[14.22565,42.46725],[14.22927,42.46965],[14.22957,42.46968],[14.22893,42.46985],[14.22604,42.46794],[14.2252,42.468],[14.22305,42.46858],[14.22183,42.46942],[14.21964,42.47019],[14.21774,42.47126],[14.21704,42.47193],[14.21585,42.47107],[14.21562,42.47089],[14.21642,42.47038],[14.21417,42.4688],[14.21324,42.46797],[14.21087,42.46631],[14.21002,42.467],[14.20737,42.46547],[14.20757,42.46494],[14.20749,42.4642],[14.20791,42.46359],[14.20859,42.46227],[14.20919,42.46213],[14.20965,42.46173],[14.2103,42.46144]]]},"properties":{"zona":"B3","linkzona":"PE00001493","fascia":"B","fascia_label":"Centrale","descr":"- AREE A NORD DEL PORTO CANALE FINO A VIA BALILLA.","semestre":"2025-S2","loc_min":4.6,"loc_max":6.9,"loc_mid":5.75,"sale_min":1400.0,"sale_max":2100.0,"sup":"L","tipologia":"Abitazioni civili","stato":"NORMALE","ott_min":6.4,"ott_max":9.6}},{"type":"Feature","geometry":{"type":"Polygon","coordinates":[[[14.20161,42.47052],[14.20357,42.47183],[14.20373,42.47218],[14.20275,42.47305],[14.20298,42.47324],[14.20282,42.47405],[14.20179,42.47624],[14.20134,42.47708],[14.20045,42.4782],[14.19977,42.47886],[14.20165,42.48016],[14.20309,42.48114],[14.20187,42.48193],[14.19963,42.48374],[14.1978,42.48541],[14.1972,42.48614],[14.19602,42.48684],[14.19507,42.48763],[14.19432,42.48849],[14.192,42.48992],[14.19056,42.49066],[14.18789,42.48909],[14.18746,42.48877],[14.18521,42.48757],[14.18342,42.48904],[14.18331,42.48894],[14.18525,42.48734],[14.18497,42.48686],[14.18371,42.48623],[14.18353,42.48633],[14.18464,42.48551],[14.1861,42.48482],[14.18649,42.48451],[14.18912,42.48192],[14.18978,42.48111],[14.1912,42.48],[14.192,42.47904],[14.19279,42.47837],[14.19443,42.47702],[14.19601,42.476],[14.19762,42.47452],[14.19831,42.47354],[14.20161,42.47052]]]},"properties":{"zona":"C1","linkzona":"PE00000014","fascia":"C","fascia_label":"Semicentrale","descr":"- FASCIA LITORANEA NORD FINO AL TRACCIATO FERROVIARIO E VIA A. PALMA","semestre":"2025-S2","loc_min":4.4,"loc_max":6.6,"loc_mid":5.5,"sale_min":1400.0,"sale_max":2100.0,"sup":"L","tipologia":"Abitazioni civili","stato":"NORMALE","ott_min":5.7,"ott_max":8.5}},{"type":"Feature","geometry":{"type":"Polygon","coordinates":[[[14.18789,42.48909],[14.19055,42.49067],[14.18779,42.4925],[14.18571,42.49413],[14.18294,42.49233],[14.17974,42.49317],[14.17887,42.49363],[14.17757,42.49371],[14.17546,42.493],[14.17534,42.4929],[14.17628,42.49205],[14.1768,42.4914],[14.18048,42.48828],[14.18151,42.48751],[14.18353,42.48633],[14.18371,42.48623],[14.18497,42.48686],[14.18525,42.48734],[14.18331,42.48894],[14.18342,42.48904],[14.18521,42.48757],[14.18746,42.48877],[14.18789,42.48909]]]},"properties":{"zona":"D3","linkzona":"PE00000037","fascia":"D","fascia_label":"Periferica","descr":"- AREE LITORANEE A CONFINE CON MONTESILVANO E QUARTIERE ZANNI","semestre":"2025-S2","loc_min":4.3,"loc_max":6.4,"loc_mid":5.35,"sale_min":1300.0,"sale_max":1950.0,"sup":"L","tipologia":"Abitazioni civili","stato":"NORMALE","ott_min":5.8,"ott_max":8.4}},{"type":"Feature","geometry":{"type":"Polygon","coordinates":[[[14.19279,42.47837],[14.192,42.47904],[14.1912,42.48],[14.18978,42.48111],[14.18912,42.48192],[14.18649,42.48451],[14.1861,42.48482],[14.18464,42.48551],[14.18353,42.48633],[14.18151,42.48751],[14.18048,42.48828],[14.1768,42.4914],[14.17628,42.49205],[14.17534,42.4929],[14.17546,42.493],[14.17468,42.49343],[14.17409,42.49238],[14.17382,42.49153],[14.17315,42.49136],[14.17226,42.49136],[14.17162,42.49119],[14.17109,42.49081],[14.16989,42.49076],[14.16899,42.49007],[14.16705,42.48943],[14.16636,42.48934],[14.16559,42.4887],[14.16528,42.48863],[14.16485,42.48797],[14.16421,42.48769],[14.16294,42.48771],[14.16197,42.48743],[14.16228,42.48624],[14.1626,42.4859],[14.16332,42.48525],[14.1636,42.48444],[14.16411,42.48378],[14.16435,42.48293],[14.16608,42.4828],[14.16583,42.48436],[14.16868,42.48491],[14.16975,42.48445],[14.17056,42.48395],[14.17072,42.48364],[14.1719,42.48384],[14.17282,42.48255],[14.17333,42.48212],[14.17411,42.48096],[14.17486,42.48033],[14.17687,42.47915],[14.17808,42.47877],[14.17889,42.47886],[14.181,42.47955],[14.18313,42.47964],[14.18366,42.47925],[14.18375,42.47823],[14.18368,42.4774],[14.18554,42.47731],[14.18657,42.4768],[14.18651,42.47729],[14.18725,42.47764],[14.18875,42.47854],[14.18932,42.47831],[14.18991,42.47748],[14.19104,42.47796],[14.19136,42.47766],[14.19279,42.47837]]]},"properties":{"zona":"D4","linkzona":"PE00000023","fascia":"D","fascia_label":"Periferica","descr":"- COLLE TELEGRAFO, COLLE CERVONE, LOCALITA` PALAZZO.","semestre":"2025-S2","loc_min":4.3,"loc_max":6.4,"loc_mid":5.35,"sale_min":1100.0,"sale_max":1650.0,"sup":"L","tipologia":"Abitazioni civili","stato":"NORMALE","ott_min":5.5,"ott_max":7.6}},{"type":"Feature","geometry":{"type":"Polygon","coordinates":[[[14.21036,42.43978],[14.21001,42.43914],[14.20972,42.43741],[14.20964,42.43545],[14.20903,42.43477],[14.20809,42.43472],[14.20709,42.43421],[14.20806,42.43351],[14.20865,42.43326],[14.20829,42.43292],[14.20788,42.43201],[14.20786,42.43155],[14.20714,42.4309],[14.20625,42.43053],[14.20653,42.42978],[14.20642,42.4294],[14.20595,42.42926],[14.20602,42.4281],[14.20617,42.42788],[14.20502,42.42698],[14.20649,42.42615],[14.20736,42.42617],[14.20836,42.42556],[14.20955,42.42498],[14.21006,42.42533],[14.21055,42.42613],[14.21082,42.42686],[14.21177,42.42654],[14.21246,42.42711],[14.21292,42.42824],[14.21365,42.42842],[14.21505,42.42805],[14.21578,42.42797],[14.21729,42.42763],[14.21816,42.42801],[14.21846,42.42844],[14.21951,42.42865],[14.21919,42.42928],[14.21899,42.43034],[14.21674,42.43067],[14.2169,42.4312],[14.21524,42.43176],[14.21604,42.43376],[14.21679,42.43503],[14.21681,42.43571],[14.2171,42.43617],[14.21882,42.43766],[14.21943,42.4372],[14.22062,42.43759],[14.22152,42.43645],[14.22233,42.43652],[14.22332,42.43704],[14.22415,42.43717],[14.22444,42.43747],[14.22523,42.43746],[14.22645,42.43601],[14.22719,42.4366],[14.22667,42.43706],[14.22866,42.43753],[14.22936,42.43742],[14.23027,42.43767],[14.22979,42.4391],[14.23016,42.4393],[14.22937,42.43999],[14.22888,42.44059],[14.22857,42.44041],[14.22688,42.44223],[14.22701,42.44276],[14.22759,42.44325],[14.22838,42.4443],[14.22763,42.44422],[14.22562,42.44334],[14.22393,42.44322],[14.22234,42.44349],[14.21981,42.44463],[14.21888,42.44437],[14.21847,42.44486],[14.2173,42.44664],[14.21698,42.44647],[14.21435,42.44462],[14.21196,42.44178],[14.21036,42.43978]]]},"properties":{"zona":"D6","linkzona":"PE00000038","fascia":"D","fascia_label":"Periferica","descr":"- ZONE COLLINARI A SUD","semestre":"2025-S2","loc_min":4.5,"loc_max":6.7,"loc_mid":5.6,"sale_min":1050.0,"sale_max":1550.0,"sup":"L","tipologia":"Abitazioni civili","stato":"NORMALE","ott_min":5.7,"ott_max":8.5}},{"type":"Feature","geometry":{"type":"Polygon","coordinates":[[[14.20421,42.44388],[14.20475,42.44457],[14.20354,42.44555],[14.20391,42.44632],[14.20144,42.44788],[14.20011,42.4488],[14.19783,42.45051],[14.19711,42.45054],[14.19652,42.4509],[14.19564,42.45278],[14.1941,42.45419],[14.19276,42.45494],[14.19243,42.45554],[14.19121,42.45485],[14.19042,42.45397],[14.18969,42.4527],[14.18928,42.45246],[14.18862,42.45151],[14.18765,42.45088],[14.1865,42.44987],[14.18549,42.44849],[14.18572,42.44821],[14.18677,42.44761],[14.18739,42.44741],[14.18766,42.44709],[14.18723,42.44623],[14.18676,42.44604],[14.18373,42.44532],[14.18036,42.44416],[14.17893,42.44376],[14.17988,42.44239],[14.18004,42.44183],[14.182,42.44023],[14.18228,42.43982],[14.18224,42.43932],[14.18173,42.43907],[14.17994,42.43965],[14.17809,42.44004],[14.17699,42.44004],[14.17508,42.43963],[14.17417,42.43849],[14.17318,42.43771],[14.17178,42.43686],[14.17295,42.43599],[14.17432,42.43542],[14.17446,42.43418],[14.17545,42.4338],[14.17638,42.43363],[14.17662,42.43414],[14.17796,42.43353],[14.17904,42.43293],[14.18121,42.43153],[14.18155,42.43068],[14.18229,42.43004],[14.18279,42.42859],[14.18368,42.42756],[14.18581,42.42577],[14.19098,42.4327],[14.19423,42.43699],[14.1953,42.43577],[14.19605,42.43462],[14.19639,42.43391],[14.19768,42.43608],[14.19745,42.43625],[14.20031,42.43946],[14.20421,42.44388]]]},"properties":{"zona":"D2","linkzona":"PE00000021","fascia":"D","fascia_label":"Periferica","descr":"- ZONA INDUSTRIALE E AEROPORTUALE","semestre":"2025-S2","loc_min":3.2,"loc_max":4.8,"loc_mid":4.0,"sale_min":660.0,"sale_max":990.0,"sup":"L","tipologia":"Abitazioni civili","stato":"NORMALE","ott_min":4.7,"ott_max":7.0}},{"type":"Feature","geometry":{"type":"Polygon","coordinates":[[[14.24455,42.43829],[14.2453,42.43841],[14.24585,42.43826],[14.24631,42.43901],[14.2476,42.44008],[14.25029,42.44257],[14.25129,42.4433],[14.25406,42.44514],[14.25315,42.4457],[14.25171,42.44685],[14.25089,42.44736],[14.24821,42.44921],[14.24726,42.45006],[14.24581,42.45071],[14.24428,42.44946],[14.24373,42.44844],[14.24297,42.44761],[14.24239,42.44758],[14.24154,42.447],[14.24115,42.44644],[14.2401,42.44551],[14.23945,42.44458],[14.23985,42.44436],[14.24093,42.44416],[14.2407,42.44388],[14.24106,42.44343],[14.24027,42.44242],[14.24022,42.44207],[14.2405,42.44109],[14.24119,42.44041],[14.24045,42.43957],[14.24067,42.43788],[14.24266,42.43726],[14.24395,42.43751],[14.24455,42.43829]]]},"properties":{"zona":"E1","linkzona":"PE00000026","fascia":"E","fascia_label":"Suburbana","descr":"- VILLAGGIO ALCIONE E ZONE LIMITROFE A CONFINE CON FRANCAVILLA","semestre":"2025-S2","loc_min":4.5,"loc_max":6.7,"loc_mid":5.6,"sale_min":1100.0,"sale_max":1600.0,"sup":"L","tipologia":"Abitazioni civili","stato":"NORMALE","ott_min":6.5,"ott_max":9.5}},{"type":"Feature","geometry":{"type":"Polygon","coordinates":[[[14.17262,42.47316],[14.17164,42.4719],[14.17077,42.47108],[14.17131,42.47],[14.17103,42.46864],[14.17079,42.46812],[14.17092,42.46777],[14.1707,42.46695],[14.17078,42.46663],[14.1707,42.46522],[14.1701,42.46501],[14.16894,42.465],[14.16851,42.46479],[14.16802,42.46399],[14.16886,42.46419],[14.17033,42.464],[14.17031,42.46371],[14.17134,42.46343],[14.1729,42.46341],[14.17407,42.46331],[14.17662,42.4633],[14.17775,42.46314],[14.17971,42.46318],[14.1818,42.46234],[14.18352,42.46172],[14.18492,42.46111],[14.18597,42.46263],[14.18661,42.4644],[14.18543,42.4649],[14.18558,42.46511],[14.18541,42.46603],[14.18623,42.4664],[14.18451,42.46691],[14.18376,42.467],[14.18258,42.4674],[14.18234,42.46848],[14.18367,42.46934],[14.18459,42.47044],[14.18328,42.47126],[14.18191,42.47244],[14.1815,42.47347],[14.18087,42.47444],[14.18035,42.47502],[14.17961,42.47612],[14.18087,42.47707],[14.18259,42.47754],[14.18368,42.4774],[14.18375,42.47823],[14.18366,42.47925],[14.18313,42.47964],[14.181,42.47955],[14.17889,42.47886],[14.17808,42.47877],[14.17687,42.47915],[14.17486,42.48033],[14.17411,42.48096],[14.17333,42.48212],[14.17282,42.48255],[14.1719,42.48384],[14.17072,42.48364],[14.17056,42.48395],[14.16975,42.48445],[14.16868,42.48491],[14.16583,42.48436],[14.16608,42.4828],[14.16435,42.48293],[14.16411,42.48378],[14.1636,42.48444],[14.16332,42.48525],[14.1626,42.4859],[14.16227,42.48625],[14.16196,42.48741],[14.16158,42.48732],[14.16002,42.48661],[14.15941,42.48646],[14.15851,42.48656],[14.15643,42.48594],[14.15566,42.48554],[14.15598,42.48515],[14.15608,42.48398],[14.1558,42.48386],[14.15533,42.48265],[14.15565,42.48223],[14.15566,42.48166],[14.1551,42.48152],[14.15419,42.48176],[14.15289,42.47969],[14.15305,42.47895],[14.15399,42.47797],[14.15559,42.47598],[14.15517,42.47572],[14.15552,42.47488],[14.15529,42.47439],[14.15393,42.47277],[14.15476,42.47225],[14.15518,42.47165],[14.15556,42.47072],[14.15643,42.46977],[14.15732,42.46946],[14.15804,42.46987],[14.1585,42.47038],[14.15906,42.47071],[14.15936,42.47127],[14.16019,42.47163],[14.16045,42.47206],[14.16096,42.47167],[14.16211,42.47199],[14.16346,42.47209],[14.16438,42.47115],[14.16556,42.47233],[14.166,42.47316],[14.16805,42.47337],[14.16833,42.47315],[14.16838,42.47247],[14.17137,42.47428],[14.17262,42.47316]]]},"properties":{"zona":"D5","linkzona":"PE00000024","fascia":"D","fascia_label":"Periferica","descr":"- COLLE DI MEZZO, COLLI INNAMORATI E COLLI MADONNA.","semestre":"2025-S2","loc_min":4.1,"loc_max":6.1,"loc_mid":5.1,"sale_min":940.0,"sale_max":1400.0,"sup":"L","tipologia":"Abitazioni civili","stato":"NORMALE","ott_min":5.6,"ott_max":8.0}}]}