{"type":"FeatureCollection","features":[{"type":"Feature","geometry":{"type":"Polygon","coordinates":[[[16.90532,41.08202],[16.90556,41.08161],[16.90625,41.08176],[16.90757,41.08188],[16.90741,41.08249],[16.90969,41.08286],[16.90944,41.08247],[16.91,41.08135],[16.91195,41.08188],[16.9124,41.08112],[16.91196,41.081],[16.91216,41.08046],[16.91156,41.0803],[16.91184,41.07964],[16.91247,41.07895],[16.91183,41.0786],[16.91227,41.07805],[16.9114,41.07767],[16.9106,41.07706],[16.91212,41.07624],[16.91368,41.07484],[16.91479,41.07358],[16.91926,41.0743],[16.91941,41.07589],[16.91996,41.07603],[16.92308,41.07619],[16.92313,41.07605],[16.92468,41.07609],[16.92468,41.07644],[16.92372,41.07642],[16.92368,41.07771],[16.92329,41.07811],[16.92328,41.07866],[16.92389,41.07865],[16.92389,41.0795],[16.92483,41.07955],[16.92487,41.07977],[16.9272,41.07989],[16.92709,41.08062],[16.92609,41.0806],[16.926,41.08127],[16.92541,41.08124],[16.92523,41.08171],[16.92667,41.08228],[16.92865,41.08278],[16.92847,41.08375],[16.93052,41.08425],[16.93142,41.08462],[16.93154,41.08425],[16.93204,41.08412],[16.93268,41.08424],[16.93283,41.08276],[16.93332,41.08271],[16.93345,41.08198],[16.9345,41.08226],[16.93637,41.08253],[16.93693,41.08421],[16.9373,41.08467],[16.93833,41.08556],[16.93782,41.08582],[16.93664,41.08667],[16.93799,41.08845],[16.93871,41.08811],[16.93959,41.0893],[16.94096,41.09047],[16.94142,41.09012],[16.94317,41.09113],[16.94097,41.09262],[16.9395,41.09342],[16.9386,41.09262],[16.93724,41.09341],[16.93675,41.093],[16.93504,41.09392],[16.93423,41.0933],[16.93347,41.09245],[16.93163,41.09307],[16.9312,41.09334],[16.9307,41.09304],[16.92974,41.09383],[16.92833,41.09323],[16.92688,41.09222],[16.92575,41.09292],[16.92529,41.0934],[16.92457,41.09381],[16.92317,41.09519],[16.91997,41.09455],[16.91902,41.09461],[16.91914,41.09407],[16.9184,41.09393],[16.9178,41.09301],[16.91534,41.09394],[16.9148,41.09458],[16.91335,41.09468],[16.91343,41.09419],[16.91267,41.09407],[16.91254,41.09456],[16.912,41.09427],[16.9103,41.09398],[16.90968,41.0958],[16.90963,41.09563],[16.90725,41.09559],[16.90652,41.09577],[16.90353,41.09601],[16.90348,41.09614],[16.90211,41.09609],[16.89997,41.09565],[16.90051,41.09422],[16.90096,41.09222],[16.90097,41.09058],[16.89977,41.09119],[16.90107,41.0891],[16.90147,41.08826],[16.90348,41.08494],[16.90532,41.08202]]]},"properties":{"zona":"R1","fascia":"R","fascia_label":"Extraurbana","redefined":true,"loc_min":null,"loc_max":null,"loc_mid":null}},{"type":"Feature","geometry":{"type":"Polygon","coordinates":[[[16.90968,41.0958],[16.9103,41.09398],[16.912,41.09427],[16.91254,41.09456],[16.91267,41.09407],[16.91343,41.09419],[16.91335,41.09468],[16.9148,41.09458],[16.91534,41.09394],[16.9178,41.09301],[16.9184,41.09393],[16.91914,41.09407],[16.91902,41.09461],[16.91997,41.09455],[16.92317,41.09519],[16.92457,41.09381],[16.92529,41.0934],[16.92575,41.09292],[16.92688,41.09222],[16.92833,41.09323],[16.92974,41.09383],[16.9307,41.09304],[16.9312,41.09334],[16.93163,41.09307],[16.93347,41.09245],[16.93423,41.0933],[16.93504,41.09392],[16.93675,41.093],[16.93724,41.09341],[16.9386,41.09262],[16.9395,41.09342],[16.94097,41.09262],[16.94317,41.09113],[16.94487,41.09196],[16.94648,41.09311],[16.94964,41.09124],[16.95146,41.0921],[16.95215,41.09278],[16.95354,41.09271],[16.95317,41.09347],[16.95414,41.09458],[16.9548,41.09454],[16.95535,41.09478],[16.95783,41.09555],[16.95949,41.09638],[16.96048,41.09758],[16.95922,41.09839],[16.95795,41.09851],[16.95749,41.09876],[16.95687,41.09949],[16.95647,41.09974],[16.95521,41.09958],[16.95497,41.09971],[16.95434,41.10059],[16.95379,41.10078],[16.95229,41.10072],[16.9516,41.10098],[16.95099,41.10075],[16.95032,41.10113],[16.94953,41.10121],[16.94918,41.1017],[16.9479,41.10214],[16.94731,41.10202],[16.94652,41.10277],[16.94545,41.10351],[16.94477,41.1034],[16.94358,41.1041],[16.9422,41.10436],[16.93946,41.10541],[16.93903,41.10536],[16.93844,41.10559],[16.93781,41.10557],[16.93734,41.10598],[16.93621,41.10653],[16.93559,41.10731],[16.93541,41.10786],[16.93441,41.10772],[16.93335,41.10815],[16.93257,41.10826],[16.93188,41.10884],[16.93166,41.10934],[16.93065,41.11026],[16.92939,41.11121],[16.92924,41.11143],[16.92609,41.11133],[16.92488,41.11148],[16.92351,41.11155],[16.92274,41.1114],[16.92097,41.11171],[16.91962,41.11162],[16.91674,41.11214],[16.91602,41.11252],[16.91539,41.11267],[16.91436,41.11338],[16.91309,41.11388],[16.91229,41.11389],[16.91076,41.11433],[16.90932,41.11496],[16.90835,41.115],[16.90647,41.11574],[16.90626,41.11544],[16.90579,41.11475],[16.90557,41.1148],[16.90304,41.11118],[16.9027,41.11125],[16.8991,41.10614],[16.89819,41.1058],[16.89814,41.10556],[16.89748,41.1053],[16.89709,41.10565],[16.89627,41.1049],[16.89591,41.10474],[16.89516,41.10504],[16.89478,41.10436],[16.89452,41.10428],[16.89134,41.10446],[16.89403,41.10015],[16.89451,41.09943],[16.89601,41.09965],[16.89592,41.09863],[16.90172,41.09858],[16.90187,41.09787],[16.90261,41.09787],[16.90664,41.0986],[16.90643,41.09744],[16.9098,41.09672],[16.90968,41.0958]]]},"properties":{"zona":"D1","linkzona":"BA00000051","fascia":"D","fascia_label":"Periferica","descr":"JAPIGIA 2 - SACRARIO CADUTI OLTRE MARE - VIA GENTILE - VIA CALDAROLA - S...","semestre":"2025-S2","loc_min":5.0,"loc_max":6.0,"loc_mid":5.5,"sale_min":1450.0,"sale_max":1700.0,"sup":"L","tipologia":"Abitazioni civili","stato":"NORMALE"}},{"type":"Feature","geometry":{"type":"Polygon","coordinates":[[[16.83282,41.07761],[16.83198,41.07643],[16.83312,41.07614],[16.83337,41.07657],[16.83547,41.07595],[16.83481,41.07437],[16.83473,41.0739],[16.83524,41.0738],[16.83474,41.07095],[16.83403,41.07102],[16.83376,41.06942],[16.83348,41.06913],[16.83382,41.06806],[16.83338,41.06797],[16.83371,41.06745],[16.83387,41.06645],[16.83424,41.06646],[16.83505,41.06609],[16.83612,41.0661],[16.83712,41.06589],[16.83716,41.06569],[16.8369,41.06202],[16.83664,41.05932],[16.83669,41.05911],[16.8381,41.05916],[16.83821,41.05956],[16.83969,41.05951],[16.84145,41.05958],[16.84228,41.05773],[16.84231,41.05724],[16.84184,41.05595],[16.84171,41.05364],[16.84143,41.05314],[16.84052,41.0511],[16.83995,41.05],[16.84039,41.04965],[16.84159,41.04962],[16.84136,41.04886],[16.84072,41.04831],[16.84071,41.04735],[16.84162,41.04661],[16.84085,41.04642],[16.83921,41.04647],[16.83924,41.04512],[16.83885,41.04461],[16.83856,41.04366],[16.83869,41.04271],[16.83841,41.0418],[16.83841,41.04128],[16.83818,41.04027],[16.83819,41.03911],[16.83782,41.03829],[16.8379,41.03627],[16.83793,41.03361],[16.83841,41.03282],[16.83855,41.03134],[16.83908,41.03026],[16.83892,41.02952],[16.83879,41.02817],[16.83968,41.02733],[16.8409,41.02735],[16.84069,41.02656],[16.84158,41.02647],[16.84139,41.02587],[16.8414,41.02508],[16.84263,41.02442],[16.84276,41.02403],[16.84333,41.02386],[16.84248,41.02186],[16.84204,41.02129],[16.84118,41.01928],[16.84257,41.01912],[16.84226,41.01871],[16.84455,41.01789],[16.84391,41.01633],[16.84539,41.01609],[16.84571,41.01613],[16.84562,41.0187],[16.84608,41.01881],[16.84821,41.01883],[16.84813,41.01801],[16.84834,41.01723],[16.84922,41.01602],[16.8505,41.01644],[16.85008,41.01734],[16.85152,41.01752],[16.85119,41.01838],[16.85278,41.01863],[16.85312,41.01897],[16.85326,41.01948],[16.85389,41.01934],[16.85434,41.01946],[16.85541,41.0207],[16.85599,41.02163],[16.85703,41.02288],[16.86008,41.02298],[16.86034,41.02483],[16.86041,41.02682],[16.86021,41.02954],[16.86062,41.03156],[16.86089,41.03257],[16.86152,41.03443],[16.86223,41.03605],[16.8627,41.03738],[16.8631,41.03882],[16.86324,41.03989],[16.86217,41.04002],[16.86237,41.04063],[16.86164,41.04062],[16.86071,41.04013],[16.85842,41.04061],[16.85923,41.04155],[16.85925,41.04235],[16.85726,41.04248],[16.85718,41.04237],[16.85579,41.0428],[16.85555,41.04233],[16.85427,41.04241],[16.85394,41.04243],[16.85375,41.04106],[16.84985,41.04112],[16.84971,41.04031],[16.85138,41.04017],[16.85083,41.03851],[16.8503,41.03758],[16.84995,41.03725],[16.84898,41.03704],[16.84839,41.03568],[16.84744,41.036],[16.84749,41.03553],[16.84693,41.03518],[16.84683,41.0357],[16.84623,41.03567],[16.84385,41.03584],[16.8439,41.03802],[16.84398,41.03887],[16.84437,41.04035],[16.84346,41.04045],[16.84345,41.04134],[16.84524,41.04135],[16.84501,41.0423],[16.8467,41.04258],[16.84759,41.04255],[16.84812,41.04335],[16.84866,41.04395],[16.84919,41.04545],[16.85029,41.04672],[16.8521,41.04829],[16.85306,41.04877],[16.85513,41.04981],[16.85527,41.05106],[16.85579,41.05236],[16.85629,41.0533],[16.85722,41.05432],[16.8578,41.05549],[16.85804,41.05656],[16.85811,41.05745],[16.85965,41.05917],[16.86009,41.06],[16.85971,41.06003],[16.85877,41.05909],[16.85832,41.05948],[16.85829,41.06008],[16.85799,41.06091],[16.85927,41.06131],[16.85905,41.06214],[16.85831,41.06217],[16.85813,41.06287],[16.8589,41.06295],[16.85859,41.06353],[16.8587,41.06468],[16.85754,41.06441],[16.85713,41.06462],[16.85572,41.06475],[16.85474,41.06493],[16.85517,41.06553],[16.85432,41.0655],[16.85487,41.06689],[16.85569,41.06685],[16.85479,41.06749],[16.85462,41.0697],[16.85469,41.07104],[16.85447,41.07138],[16.85433,41.07405],[16.8542,41.07424],[16.85412,41.07537],[16.85486,41.07543],[16.85465,41.07815],[16.85587,41.0788],[16.85411,41.07945],[16.85451,41.08031],[16.85382,41.08061],[16.85362,41.08164],[16.85378,41.08225],[16.8521,41.08309],[16.85088,41.08177],[16.851,41.07999],[16.84969,41.08018],[16.84924,41.08034],[16.84852,41.07949],[16.84743,41.07853],[16.84699,41.07726],[16.84471,41.07763],[16.84443,41.07762],[16.84412,41.07691],[16.84443,41.07684],[16.84404,41.07595],[16.84286,41.07612],[16.84218,41.07457],[16.8416,41.07221],[16.84033,41.07237],[16.8403,41.073],[16.84077,41.07383],[16.84108,41.07411],[16.84223,41.07694],[16.84276,41.07771],[16.84316,41.0799],[16.84193,41.08009],[16.84006,41.08066],[16.83781,41.08184],[16.83693,41.08137],[16.83611,41.0813],[16.83535,41.08067],[16.83392,41.07919],[16.83422,41.07847],[16.83399,41.07822],[16.83325,41.07801],[16.83282,41.07761]]]},"properties":{"zona":"R7","linkzona":"BA00002100","fascia":"R","fascia_label":"Extraurbana","descr":"ZONA AGRICOLA AL CONFINE CON COMUNE DI BITRITTO","semestre":"2025-S2","loc_min":null,"loc_max":null,"loc_mid":null,"nonres":true}},{"type":"Feature","geometry":{"type":"Polygon","coordinates":[[[16.88009,41.11696],[16.87925,41.1175],[16.87645,41.11736],[16.87641,41.11731],[16.87214,41.11704],[16.87245,41.11539],[16.87232,41.11252],[16.87369,41.11247],[16.87392,41.11042],[16.87385,41.11028],[16.87414,41.10782],[16.87424,41.10748],[16.87401,41.10699],[16.87382,41.10676],[16.87383,41.1037],[16.8754,41.10376],[16.87899,41.10481],[16.88109,41.10551],[16.88307,41.10641],[16.88329,41.1067],[16.88516,41.10748],[16.88549,41.10745],[16.88841,41.10868],[16.8891,41.10785],[16.88857,41.10856],[16.88667,41.11048],[16.88443,41.11284],[16.8828,41.11317],[16.88192,41.11431],[16.88172,41.11536],[16.88037,41.11675],[16.88009,41.11696]]]},"properties":{"zona":"B2","linkzona":"BA00000047","fascia":"B","fascia_label":"Centrale","descr":"S.PASQUALE 1  TRA CAPRUZZI, B.CROCE, A.VOLTA, UNITA` D`ITALIA, LARGO 2 GIU...","semestre":"2025-S2","loc_min":6.4,"loc_max":8.1,"loc_mid":7.25,"sale_min":1700.0,"sale_max":2050.0,"sup":"L","tipologia":"Abitazioni civili","stato":"NORMALE"}},{"type":"Feature","geometry":{"type":"Polygon","coordinates":[[[16.73366,41.16301],[16.73401,41.16378],[16.73084,41.16465],[16.73076,41.16449],[16.73045,41.1638],[16.73004,41.16213],[16.73003,41.16166],[16.72973,41.16061],[16.72948,41.15803],[16.72791,41.15811],[16.72491,41.15804],[16.72485,41.15768],[16.72283,41.15716],[16.71887,41.15638],[16.71761,41.15617],[16.71724,41.1552],[16.72014,41.15452],[16.72254,41.15327],[16.72333,41.15301],[16.72342,41.15036],[16.72284,41.14919],[16.72476,41.14794],[16.72551,41.14704],[16.72721,41.14648],[16.72697,41.14587],[16.72831,41.14535],[16.72968,41.14501],[16.73035,41.14462],[16.73122,41.14444],[16.73122,41.14424],[16.73382,41.1417],[16.73525,41.14038],[16.73588,41.14046],[16.73637,41.1401],[16.7372,41.13924],[16.73766,41.13848],[16.73899,41.13815],[16.73967,41.13783],[16.73955,41.13739],[16.74064,41.13704],[16.7411,41.13803],[16.74255,41.13754],[16.74327,41.13883],[16.74349,41.13858],[16.74652,41.13821],[16.74659,41.13832],[16.74873,41.13792],[16.7503,41.13753],[16.75074,41.1383],[16.75233,41.13779],[16.75359,41.13815],[16.75467,41.13846],[16.75484,41.1395],[16.75583,41.14223],[16.75466,41.14235],[16.75576,41.14476],[16.75589,41.14517],[16.75712,41.14488],[16.75676,41.14682],[16.75591,41.14686],[16.7548,41.14716],[16.75413,41.1472],[16.75373,41.14742],[16.75165,41.14809],[16.74736,41.14973],[16.7463,41.1501],[16.74541,41.14792],[16.74472,41.14696],[16.74414,41.14646],[16.73824,41.14242],[16.73874,41.1433],[16.73851,41.14383],[16.73809,41.14411],[16.73622,41.14484],[16.73656,41.14581],[16.73276,41.14724],[16.73378,41.14874],[16.73413,41.15018],[16.73425,41.15232],[16.73462,41.15376],[16.73517,41.15483],[16.73472,41.15489],[16.73179,41.15611],[16.73188,41.15673],[16.73258,41.15867],[16.73322,41.15897],[16.73333,41.16202],[16.73366,41.16301]]]},"properties":{"zona":"R4","linkzona":"BA00002097","fascia":"R","fascia_label":"Extraurbana","descr":"ZONA AGRICOLA AL CONFINE CON COMUNE DI MODUGNO","semestre":"2025-S2","loc_min":null,"loc_max":null,"loc_mid":null,"nonres":true}},{"type":"Feature","geometry":{"type":"Polygon","coordinates":[[[16.87198,41.11703],[16.87214,41.11704],[16.87641,41.11731],[16.87645,41.11736],[16.87623,41.11792],[16.8761,41.11913],[16.87636,41.11916],[16.87594,41.12408],[16.87478,41.12484],[16.87464,41.12546],[16.87536,41.12624],[16.87591,41.12629],[16.87581,41.12698],[16.87523,41.12707],[16.87517,41.12647],[16.87437,41.12609],[16.87344,41.12547],[16.87281,41.12589],[16.87386,41.12596],[16.87407,41.12716],[16.8727,41.12705],[16.87286,41.12736],[16.87475,41.12808],[16.87542,41.12792],[16.8762,41.12817],[16.87462,41.12837],[16.87312,41.12912],[16.87242,41.12845],[16.87168,41.12757],[16.87179,41.12672],[16.87162,41.12663],[16.86951,41.12653],[16.86887,41.1264],[16.86797,41.12644],[16.86708,41.12671],[16.86653,41.12764],[16.86773,41.12839],[16.867,41.1294],[16.86629,41.12912],[16.86485,41.12883],[16.86117,41.12835],[16.86049,41.1283],[16.8608,41.12489],[16.86098,41.12488],[16.86136,41.1209],[16.86229,41.12095],[16.86243,41.12021],[16.86274,41.11711],[16.86257,41.11645],[16.86556,41.1166],[16.86945,41.11683],[16.87045,41.11696],[16.87198,41.11703]]]},"properties":{"zona":"B9","linkzona":"BA00001475","fascia":"B","fascia_label":"Centrale","descr":"QUART.MURAT -TRA C.SO VITT.VENETO,CASTELLO SVEVO,P.ZZA MASSARI, VITT.EMANU...","semestre":"2025-S2","loc_min":8.0,"loc_max":10.2,"loc_mid":9.1,"sale_min":2400.0,"sale_max":2900.0,"sup":"L","tipologia":"Abitazioni civili","stato":"NORMALE"}},{"type":"Feature","geometry":{"type":"Polygon","coordinates":[[[16.85427,41.04241],[16.85415,41.04422],[16.85389,41.04579],[16.85317,41.04602],[16.85288,41.04859],[16.85306,41.04877],[16.8521,41.04829],[16.85029,41.04672],[16.84919,41.04545],[16.84866,41.04395],[16.84812,41.04335],[16.84759,41.04255],[16.8467,41.04258],[16.84501,41.0423],[16.84524,41.04135],[16.84345,41.04134],[16.84346,41.04045],[16.84437,41.04035],[16.84398,41.03887],[16.8439,41.03802],[16.84385,41.03584],[16.84623,41.03567],[16.84683,41.0357],[16.84693,41.03518],[16.84749,41.03553],[16.84744,41.036],[16.84839,41.03568],[16.84898,41.03704],[16.84995,41.03725],[16.8503,41.03758],[16.85083,41.03851],[16.85138,41.04017],[16.84971,41.04031],[16.84985,41.04112],[16.85375,41.04106],[16.85394,41.04243],[16.85427,41.04241]]]},"properties":{"zona":"E8","linkzona":"BA00000022","fascia":"E","fascia_label":"Suburbana","descr":"QUARTIERE LOSETO - VECCHIO CENTRO URBANO E NUOVA ZONA RESIDENZIALE","semestre":"2025-S2","loc_min":3.2,"loc_max":4.5,"loc_mid":3.85,"sale_min":950.0,"sale_max":1350.0,"sup":"L","tipologia":"Abitazioni civili","stato":"NORMALE"}},{"type":"Feature","geometry":{"type":"Polygon","coordinates":[[[16.87166,41.08968],[16.87343,41.08943],[16.87362,41.08966],[16.8737,41.09172],[16.8737,41.09569],[16.87355,41.09588],[16.87368,41.09683],[16.87356,41.0984],[16.87378,41.09866],[16.87375,41.1006],[16.87157,41.10058],[16.87134,41.10044],[16.8692,41.10069],[16.862,41.10103],[16.85952,41.1013],[16.85931,41.10146],[16.85709,41.10185],[16.85688,41.10135],[16.85687,41.10062],[16.85632,41.09917],[16.85591,41.09838],[16.85545,41.0969],[16.855,41.09573],[16.85474,41.09448],[16.85444,41.09244],[16.85396,41.09129],[16.85418,41.08981],[16.85507,41.08844],[16.85524,41.08924],[16.85735,41.08913],[16.85866,41.08877],[16.85883,41.089],[16.86007,41.08865],[16.86042,41.08926],[16.8633,41.08903],[16.86327,41.08826],[16.86387,41.08824],[16.86398,41.08902],[16.86474,41.08899],[16.86548,41.08865],[16.8656,41.089],[16.86952,41.08884],[16.87068,41.08896],[16.87135,41.08923],[16.87166,41.08968]]]},"properties":{"zona":"C2","linkzona":"BA00000012","fascia":"C","fascia_label":"Semicentrale","descr":"POGGIOFRANCO 1 - TRA VIALE J.F.KENNEDY, VIALE DELLA COSTITUENTE, CIRCO...","semestre":"2025-S2","loc_min":6.7,"loc_max":9.1,"loc_mid":7.9,"sale_min":1950.0,"sale_max":2350.0,"sup":"L","tipologia":"Abitazioni civili","stato":"NORMALE"}},{"type":"Feature","geometry":{"type":"Polygon","coordinates":[[[16.90626,41.11544],[16.90646,41.11574],[16.90492,41.11615],[16.90451,41.11642],[16.90304,41.11671],[16.90048,41.1165],[16.89932,41.11666],[16.89855,41.11728],[16.89783,41.1176],[16.89667,41.11781],[16.89656,41.11733],[16.89639,41.11657],[16.89414,41.11713],[16.89452,41.1168],[16.89433,41.11629],[16.89375,41.1164],[16.89329,41.11561],[16.8936,41.11553],[16.89318,41.11493],[16.88894,41.11657],[16.88835,41.11673],[16.88579,41.11721],[16.88407,41.11742],[16.88208,41.11756],[16.87972,41.11751],[16.87925,41.1175],[16.88009,41.11696],[16.88037,41.11675],[16.88172,41.11536],[16.88192,41.11431],[16.8828,41.11317],[16.88443,41.11284],[16.88667,41.11048],[16.88857,41.10856],[16.8891,41.10785],[16.88926,41.10782],[16.89134,41.10446],[16.89452,41.10428],[16.89478,41.10436],[16.89516,41.10504],[16.89591,41.10474],[16.89627,41.1049],[16.89709,41.10565],[16.89748,41.1053],[16.89814,41.10556],[16.89819,41.1058],[16.8991,41.10614],[16.9027,41.11125],[16.90304,41.11118],[16.90557,41.1148],[16.90579,41.11475],[16.90626,41.11544]]]},"properties":{"zona":"B4","linkzona":"BA00000049","fascia":"B","fascia_label":"Centrale","descr":"QUARTIERE JAPIGIA 1","semestre":"2025-S2","loc_min":6.0,"loc_max":8.0,"loc_mid":7.0,"sale_min":1550.0,"sale_max":1750.0,"sup":"L","tipologia":"Abitazioni civili","stato":"NORMALE"}},{"type":"Feature","geometry":{"type":"Polygon","coordinates":[[[16.88439,41.07177],[16.88431,41.07212],[16.88438,41.07328],[16.8849,41.07492],[16.88527,41.07757],[16.88317,41.07729],[16.88183,41.07835],[16.88074,41.07899],[16.88038,41.0795],[16.88002,41.08036],[16.87877,41.08161],[16.87748,41.08216],[16.87673,41.08266],[16.87514,41.08054],[16.87329,41.08092],[16.87328,41.08108],[16.87206,41.08108],[16.87195,41.08034],[16.87157,41.07999],[16.87069,41.08008],[16.87045,41.0803],[16.86971,41.08025],[16.87024,41.07889],[16.86953,41.07864],[16.86953,41.07835],[16.87031,41.07839],[16.87032,41.07673],[16.86773,41.07678],[16.86771,41.07758],[16.86677,41.07752],[16.86686,41.07672],[16.86709,41.07668],[16.86695,41.07591],[16.86481,41.07641],[16.86472,41.07735],[16.86283,41.07735],[16.86232,41.07726],[16.86127,41.07777],[16.86046,41.07788],[16.85981,41.07766],[16.85932,41.07863],[16.85911,41.07929],[16.85848,41.08005],[16.85767,41.08076],[16.85632,41.08116],[16.85378,41.08225],[16.85362,41.08164],[16.85382,41.08061],[16.85451,41.08031],[16.85411,41.07945],[16.85587,41.0788],[16.85465,41.07815],[16.85486,41.07543],[16.85412,41.07537],[16.8542,41.07424],[16.85433,41.07405],[16.85447,41.07138],[16.85469,41.07104],[16.85462,41.0697],[16.85479,41.06749],[16.85569,41.06685],[16.85487,41.06689],[16.85432,41.0655],[16.85517,41.06553],[16.85474,41.06493],[16.85572,41.06475],[16.85713,41.06462],[16.85754,41.06441],[16.8587,41.06468],[16.85859,41.06353],[16.8589,41.06295],[16.85813,41.06287],[16.85831,41.06217],[16.85905,41.06214],[16.85927,41.06131],[16.85799,41.06091],[16.85829,41.06008],[16.85832,41.05948],[16.85877,41.05909],[16.85971,41.06003],[16.86009,41.06],[16.86067,41.06013],[16.86139,41.05891],[16.86142,41.0581],[16.86094,41.0576],[16.86091,41.05642],[16.86059,41.05509],[16.86066,41.05426],[16.86047,41.05389],[16.85997,41.05188],[16.86105,41.0517],[16.86102,41.05073],[16.86155,41.05065],[16.86162,41.05184],[16.86524,41.05187],[16.86556,41.05227],[16.8666,41.05417],[16.86822,41.05398],[16.86819,41.05345],[16.86885,41.05382],[16.86951,41.05303],[16.87098,41.05322],[16.87105,41.05301],[16.87271,41.05325],[16.8731,41.05267],[16.87458,41.05282],[16.87663,41.05272],[16.87451,41.0538],[16.87472,41.05421],[16.8748,41.05518],[16.87509,41.05598],[16.8746,41.056],[16.87403,41.0557],[16.87337,41.05566],[16.8736,41.05669],[16.8731,41.05676],[16.8733,41.05742],[16.87435,41.05737],[16.87407,41.05863],[16.87431,41.05896],[16.87514,41.06052],[16.87542,41.06144],[16.87481,41.06155],[16.87343,41.06148],[16.8744,41.06374],[16.87455,41.06452],[16.87557,41.06402],[16.87658,41.06318],[16.87732,41.06331],[16.87851,41.0632],[16.88061,41.06251],[16.88298,41.06207],[16.88312,41.06379],[16.88343,41.06524],[16.88441,41.06852],[16.88491,41.06991],[16.88483,41.07056],[16.88439,41.07177]]]},"properties":{"zona":"E4","linkzona":"BA00000055","fascia":"E","fascia_label":"Suburbana","descr":"QUARTIERI: CARBONARA E CEGLIE DEL CAMPO","semestre":"2025-S2","loc_min":4.8,"loc_max":6.2,"loc_mid":5.5,"sale_min":1450.0,"sale_max":1850.0,"sup":"L","tipologia":"Abitazioni civili","stato":"NORMALE"}},{"type":"Feature","geometry":{"type":"Polygon","coordinates":[[[16.7463,41.1501],[16.7496,41.15823],[16.74718,41.15892],[16.74537,41.1597],[16.74241,41.16089],[16.74203,41.16132],[16.74025,41.16201],[16.73723,41.16299],[16.73089,41.16475],[16.73084,41.16465],[16.73401,41.16378],[16.73366,41.16301],[16.73333,41.16202],[16.73322,41.15897],[16.73258,41.15867],[16.73188,41.15673],[16.73179,41.15611],[16.73472,41.15489],[16.73517,41.15483],[16.73462,41.15376],[16.73425,41.15232],[16.73413,41.15018],[16.73378,41.14874],[16.73276,41.14724],[16.73656,41.14581],[16.73622,41.14484],[16.73809,41.14411],[16.73851,41.14383],[16.73874,41.1433],[16.73824,41.14242],[16.74414,41.14646],[16.74472,41.14696],[16.74541,41.14792],[16.7463,41.1501]]]},"properties":{"zona":"E10","linkzona":"BA00000942","fascia":"E","fascia_label":"Suburbana","descr":"SANTO SPIRITO - LOCALITA` CATINO - SAN PIO","semestre":"2025-S2","loc_min":4.8,"loc_max":6.3,"loc_mid":5.55,"sale_min":1450.0,"sale_max":1900.0,"sup":"L","tipologia":"Abitazioni civili","stato":"NORMALE"}},{"type":"Feature","geometry":{"type":"Polygon","coordinates":[[[16.79673,41.12781],[16.79565,41.1274],[16.7911,41.12609],[16.79095,41.12589],[16.79153,41.1252],[16.79124,41.12252],[16.79107,41.1224],[16.78635,41.12129],[16.78639,41.12071],[16.78682,41.11798],[16.78909,41.11821],[16.78913,41.11808],[16.79046,41.1182],[16.79086,41.11591],[16.79214,41.11635],[16.79215,41.11471],[16.7942,41.115],[16.79489,41.11513],[16.80094,41.11613],[16.80003,41.11515],[16.80014,41.11485],[16.80118,41.11626],[16.80169,41.11626],[16.80215,41.11697],[16.80367,41.11849],[16.80357,41.11854],[16.80537,41.12019],[16.80582,41.12076],[16.80607,41.12135],[16.80602,41.12197],[16.80632,41.12217],[16.80623,41.1232],[16.80588,41.12338],[16.80581,41.12571],[16.8059,41.12573],[16.80583,41.12785],[16.80505,41.12841],[16.80571,41.12993],[16.8063,41.13059],[16.80649,41.13177],[16.80602,41.13191],[16.8066,41.13401],[16.80708,41.13469],[16.80783,41.1353],[16.80805,41.13525],[16.8054,41.1363],[16.80493,41.1364],[16.80266,41.13737],[16.80054,41.13818],[16.80007,41.13771],[16.79956,41.138],[16.7989,41.1368],[16.79844,41.13678],[16.79766,41.13648],[16.79798,41.13483],[16.79797,41.13323],[16.79843,41.13313],[16.79836,41.13222],[16.79592,41.13277],[16.79484,41.13233],[16.79411,41.13261],[16.79319,41.13358],[16.79246,41.13364],[16.79126,41.13339],[16.7906,41.13337],[16.79025,41.13304],[16.79208,41.13233],[16.79344,41.13171],[16.79461,41.13128],[16.7954,41.1304],[16.79626,41.12888],[16.79673,41.12781]]]},"properties":{"zona":"E11","linkzona":"BA00001494","fascia":"E","fascia_label":"Suburbana","descr":"S. PAOLO,FERR.ADRIATICA,VIALE DE GENNARO,MAESTRI DEL LAVORO,MILELLA,CAPO...","semestre":"2025-S2","loc_min":4.3,"loc_max":5.5,"loc_mid":4.9,"sale_min":1150.0,"sale_max":1550.0,"sup":"L","tipologia":"Abitazioni civili","stato":"NORMALE"}},{"type":"Feature","geometry":{"type":"Polygon","coordinates":[[[16.75359,41.13815],[16.75233,41.13779],[16.75074,41.1383],[16.7503,41.13753],[16.74873,41.13792],[16.74659,41.13832],[16.74652,41.13821],[16.74349,41.13858],[16.74327,41.13883],[16.74255,41.13754],[16.7411,41.13803],[16.74064,41.13704],[16.73955,41.13739],[16.73842,41.13557],[16.73802,41.13513],[16.73806,41.13443],[16.73845,41.13438],[16.74029,41.13358],[16.74006,41.13325],[16.7405,41.13273],[16.74059,41.13216],[16.74047,41.13153],[16.7411,41.13152],[16.74168,41.13062],[16.74203,41.13041],[16.74356,41.12894],[16.74394,41.12872],[16.74525,41.12754],[16.7471,41.12792],[16.75202,41.12891],[16.75939,41.13034],[16.76422,41.13119],[16.76471,41.13124],[16.77141,41.13285],[16.7724,41.13101],[16.77291,41.13102],[16.77447,41.12886],[16.7749,41.12842],[16.77672,41.12593],[16.77703,41.12511],[16.7768,41.1237],[16.77707,41.12289],[16.77744,41.12251],[16.77853,41.1225],[16.77821,41.12154],[16.77802,41.11941],[16.7781,41.11932],[16.77853,41.1171],[16.77879,41.11634],[16.7811,41.11754],[16.78235,41.11842],[16.78368,41.11925],[16.78627,41.1205],[16.78639,41.12071],[16.78635,41.12129],[16.79107,41.1224],[16.79124,41.12252],[16.79153,41.1252],[16.79095,41.12589],[16.7911,41.12609],[16.79565,41.1274],[16.79673,41.12781],[16.79626,41.12888],[16.7954,41.1304],[16.79461,41.13128],[16.79344,41.13171],[16.79208,41.13233],[16.79025,41.13304],[16.7906,41.13337],[16.79126,41.13339],[16.79246,41.13364],[16.79319,41.13358],[16.79411,41.13261],[16.79484,41.13233],[16.79592,41.13277],[16.79836,41.13222],[16.79843,41.13313],[16.79797,41.13323],[16.79798,41.13483],[16.79766,41.13648],[16.79844,41.13678],[16.7989,41.1368],[16.79956,41.138],[16.80007,41.13771],[16.80054,41.13818],[16.79796,41.13925],[16.7967,41.13972],[16.7902,41.14229],[16.78655,41.14202],[16.78671,41.14141],[16.78588,41.14124],[16.78554,41.14182],[16.78404,41.14203],[16.77992,41.14259],[16.77865,41.1428],[16.7786,41.1452],[16.77845,41.1452],[16.77243,41.14347],[16.76962,41.14268],[16.76915,41.14271],[16.76486,41.14147],[16.76232,41.14081],[16.76204,41.14054],[16.75359,41.13815]]]},"properties":{"zona":"E12","linkzona":"BA00001495","fascia":"E","fascia_label":"Suburbana","descr":"S.PAOLO NUOVA-TRA FERROVIA ADRIATICA,VIALE EUROPA,VIA GRANIERI,DE RIBERA...","semestre":"2025-S2","loc_min":4.3,"loc_max":5.8,"loc_mid":5.05,"sale_min":1300.0,"sale_max":1700.0,"sup":"L","tipologia":"Abitazioni civili","stato":"NORMALE","ott_min":5.6,"ott_max":6.7}},{"type":"Feature","geometry":{"type":"Polygon","coordinates":[[[16.90556,41.08161],[16.90523,41.08153],[16.90488,41.082],[16.90348,41.08157],[16.90371,41.08126],[16.90153,41.08115],[16.90039,41.08127],[16.90047,41.08203],[16.89975,41.0823],[16.89846,41.08233],[16.89622,41.08601],[16.89599,41.08612],[16.89492,41.0858],[16.89391,41.08671],[16.89224,41.0868],[16.89206,41.08552],[16.89074,41.08609],[16.89005,41.08615],[16.89026,41.08813],[16.89006,41.08814],[16.88997,41.08918],[16.88976,41.08931],[16.88794,41.08913],[16.88777,41.08895],[16.88781,41.08795],[16.88825,41.08792],[16.88816,41.08577],[16.88733,41.08578],[16.88734,41.08544],[16.88816,41.0854],[16.88813,41.08487],[16.88729,41.08486],[16.88734,41.08381],[16.88838,41.08383],[16.88968,41.08361],[16.89073,41.08352],[16.89082,41.08371],[16.89233,41.08336],[16.89208,41.08271],[16.89168,41.08229],[16.89178,41.0816],[16.89213,41.08128],[16.89165,41.0795],[16.8918,41.07884],[16.89175,41.07806],[16.89255,41.07776],[16.89297,41.07722],[16.89403,41.07619],[16.89451,41.07595],[16.89461,41.07541],[16.89513,41.07441],[16.89571,41.07297],[16.8959,41.07206],[16.89718,41.06954],[16.8981,41.06728],[16.89856,41.06722],[16.89907,41.06608],[16.89914,41.06583],[16.89915,41.06559],[16.89927,41.06527],[16.89939,41.06462],[16.90011,41.06455],[16.9008,41.06432],[16.90067,41.06493],[16.90014,41.06497],[16.90025,41.06545],[16.90288,41.0653],[16.90307,41.06647],[16.90258,41.06653],[16.90275,41.06755],[16.90322,41.06808],[16.90372,41.06798],[16.90428,41.0689],[16.90524,41.06913],[16.90511,41.06968],[16.90384,41.0694],[16.90283,41.07016],[16.90406,41.07038],[16.90412,41.07094],[16.90531,41.07085],[16.90544,41.07143],[16.90669,41.07116],[16.90661,41.06984],[16.90723,41.06979],[16.90737,41.07098],[16.90772,41.07094],[16.90784,41.07225],[16.90686,41.07235],[16.90694,41.07281],[16.90833,41.07268],[16.90843,41.07345],[16.90914,41.07342],[16.90912,41.07403],[16.91024,41.07416],[16.91032,41.07304],[16.9113,41.07293],[16.91131,41.07315],[16.913,41.07348],[16.91265,41.07408],[16.91109,41.07574],[16.91212,41.07624],[16.9106,41.07706],[16.9114,41.07767],[16.91227,41.07805],[16.91183,41.0786],[16.91247,41.07895],[16.91184,41.07964],[16.91156,41.0803],[16.91216,41.08046],[16.91196,41.081],[16.9124,41.08112],[16.91195,41.08188],[16.91,41.08135],[16.90944,41.08247],[16.90969,41.08286],[16.90741,41.08249],[16.90757,41.08188],[16.90625,41.08176],[16.90556,41.08161]]]},"properties":{"zona":"R3","fascia":"R","fascia_label":"Extraurbana","redefined":true,"loc_min":null,"loc_max":null,"loc_mid":null}},{"type":"Feature","geometry":{"type":"Polygon","coordinates":[[[16.84688,41.13791],[16.84668,41.1385],[16.84623,41.13914],[16.84539,41.13971],[16.84497,41.13979],[16.84389,41.13965],[16.84223,41.13898],[16.8415,41.13916],[16.84061,41.1391],[16.84016,41.13858],[16.84037,41.13814],[16.84004,41.13779],[16.8389,41.13784],[16.83829,41.13826],[16.83774,41.13789],[16.83613,41.13794],[16.83587,41.13781],[16.83545,41.13703],[16.83451,41.13663],[16.83227,41.13648],[16.83006,41.13657],[16.8292,41.13686],[16.82946,41.13753],[16.82902,41.13752],[16.8288,41.13687],[16.82886,41.1364],[16.82844,41.13428],[16.82853,41.1332],[16.82853,41.1309],[16.82861,41.12832],[16.82876,41.12717],[16.83274,41.12566],[16.83526,41.12467],[16.83628,41.12438],[16.83877,41.12396],[16.83933,41.12412],[16.84404,41.12213],[16.84396,41.12271],[16.84418,41.12356],[16.84449,41.12388],[16.8455,41.12729],[16.84671,41.12721],[16.84634,41.13046],[16.84813,41.1305],[16.84858,41.13063],[16.84561,41.13226],[16.84454,41.13309],[16.84401,41.13373],[16.84391,41.13409],[16.84453,41.13422],[16.84446,41.13493],[16.84467,41.1357],[16.84508,41.13629],[16.84581,41.13683],[16.84648,41.13714],[16.84688,41.13791]]]},"properties":{"zona":"C5","linkzona":"BA00002854","fascia":"C","fascia_label":"Semicentrale","descr":"QUARTIERE MARCONI - STADIO DELLA VITTORIA","semestre":"2025-S2","loc_min":4.7,"loc_max":6.7,"loc_mid":5.7,"sale_min":1400.0,"sale_max":1900.0,"sup":"L","tipologia":"Abitazioni civili","stato":"NORMALE"}},{"type":"Feature","geometry":{"type":"Polygon","coordinates":[[[16.85709,41.10185],[16.85767,41.10352],[16.85843,41.10536],[16.85923,41.1055],[16.86013,41.107],[16.86014,41.107],[16.85868,41.10714],[16.85723,41.10751],[16.85629,41.10766],[16.85531,41.1077],[16.85279,41.10753],[16.85211,41.10736],[16.85217,41.10788],[16.85197,41.1078],[16.85174,41.10786],[16.85091,41.10749],[16.84955,41.10728],[16.83988,41.10637],[16.83954,41.1062],[16.84036,41.10625],[16.84124,41.10588],[16.84165,41.10397],[16.84157,41.10245],[16.84106,41.10062],[16.84191,41.10026],[16.84526,41.09943],[16.84347,41.09764],[16.84232,41.09658],[16.84141,41.09538],[16.84105,41.09432],[16.84055,41.09409],[16.8405,41.09363],[16.83983,41.09287],[16.83929,41.09294],[16.8399,41.09234],[16.84077,41.09253],[16.84087,41.09277],[16.84256,41.0928],[16.84654,41.09181],[16.84682,41.09258],[16.85141,41.09108],[16.85205,41.09119],[16.85344,41.09107],[16.85396,41.09129],[16.85444,41.09244],[16.85474,41.09448],[16.855,41.09573],[16.85545,41.0969],[16.85591,41.09838],[16.85632,41.09917],[16.85687,41.10062],[16.85688,41.10135],[16.85709,41.10185]]]},"properties":{"zona":"C3","linkzona":"BA00002696","fascia":"C","fascia_label":"Semicentrale","descr":"POGGIOFRANCO 2 - TRA VIA CAMILLO ROSALBA, CIRCONVALLAZIONE, SANTA CATE...","semestre":"2025-S2","loc_min":6.2,"loc_max":9.2,"loc_mid":7.7,"sale_min":2050.0,"sale_max":2700.0,"sup":"L","tipologia":"Abitazioni civili","stato":"NORMALE","ott_min":8.9,"ott_max":10.8}},{"type":"Feature","geometry":{"type":"Polygon","coordinates":[[[16.89656,41.11733],[16.89666,41.1178],[16.89552,41.11785],[16.89465,41.11804],[16.893,41.11806],[16.89241,41.11831],[16.89097,41.11868],[16.89052,41.1187],[16.8897,41.11931],[16.88865,41.1195],[16.8815,41.12175],[16.8812,41.12136],[16.88023,41.12016],[16.88057,41.12],[16.87976,41.11935],[16.87985,41.11835],[16.87972,41.11751],[16.88208,41.11756],[16.88407,41.11742],[16.88579,41.11721],[16.88835,41.11673],[16.88894,41.11657],[16.89318,41.11493],[16.8936,41.11553],[16.89329,41.11561],[16.89375,41.1164],[16.89433,41.11629],[16.89452,41.1168],[16.89414,41.11713],[16.89639,41.11657],[16.89656,41.11733]]]},"properties":{"zona":"B5","linkzona":"BA00000007","fascia":"B","fascia_label":"Centrale","descr":"COMPRESA TRA LUNGOMARE N. SAURO-VIA SPALATO-RODI-OBERDAN-JAPIGIA-CADUTI DI...","semestre":"2025-S2","loc_min":5.6,"loc_max":8.0,"loc_mid":6.8,"sale_min":1600.0,"sale_max":2100.0,"sup":"L","tipologia":"Abitazioni civili","stato":"NORMALE"}},{"type":"Feature","geometry":{"type":"Polygon","coordinates":[[[16.85993,41.11629],[16.86257,41.11645],[16.86274,41.11711],[16.86243,41.12021],[16.86229,41.12095],[16.86136,41.1209],[16.86098,41.12488],[16.8608,41.12489],[16.86049,41.1283],[16.85491,41.12809],[16.85344,41.12837],[16.85205,41.12918],[16.85181,41.12929],[16.84904,41.13089],[16.84894,41.13079],[16.84858,41.13063],[16.84813,41.1305],[16.84634,41.13046],[16.84671,41.12721],[16.8455,41.12729],[16.84449,41.12388],[16.84418,41.12356],[16.84396,41.12271],[16.84404,41.12213],[16.84445,41.12144],[16.84531,41.12076],[16.84537,41.12036],[16.84699,41.11978],[16.8455,41.11773],[16.8474,41.11771],[16.84807,41.11759],[16.84874,41.11692],[16.84945,41.11642],[16.85082,41.11737],[16.85204,41.11779],[16.85277,41.11717],[16.85336,41.11687],[16.85472,41.1165],[16.85665,41.11621],[16.85792,41.11618],[16.85993,41.11629]]]},"properties":{"zona":"B7","linkzona":"BA00000009","fascia":"B","fascia_label":"Centrale","descr":"QUARTIERE LIBERTA TRA C.SO VITT.VENETO, VIA PIZZOLI, MANZONI, NICOLAI, SAG...","semestre":"2025-S2","loc_min":5.6,"loc_max":6.7,"loc_mid":6.15,"sale_min":1350.0,"sale_max":1650.0,"sup":"L","tipologia":"Abitazioni civili","stato":"NORMALE"}},{"type":"Feature","geometry":{"type":"Polygon","coordinates":[[[16.87366,41.10696],[16.87401,41.10699],[16.87424,41.10748],[16.87414,41.10782],[16.87385,41.11028],[16.87392,41.11042],[16.87369,41.11247],[16.87232,41.11252],[16.87245,41.11539],[16.87214,41.11704],[16.87198,41.11703],[16.87045,41.11696],[16.86945,41.11683],[16.86556,41.1166],[16.86257,41.11645],[16.85993,41.11629],[16.85792,41.11618],[16.85665,41.11621],[16.85648,41.11498],[16.85732,41.1148],[16.85615,41.11342],[16.85543,41.11376],[16.8532,41.11422],[16.85279,41.11416],[16.8531,41.1112],[16.85299,41.11104],[16.85112,41.11158],[16.85091,41.11126],[16.85166,41.11094],[16.85165,41.11034],[16.85047,41.10854],[16.85193,41.10786],[16.85217,41.10788],[16.85211,41.10736],[16.85279,41.10753],[16.85531,41.1077],[16.85629,41.10766],[16.85723,41.10751],[16.85868,41.10714],[16.86014,41.107],[16.8602,41.10719],[16.86313,41.10707],[16.86433,41.10715],[16.86791,41.10714],[16.87168,41.10699],[16.87191,41.10706],[16.87366,41.10696]]]},"properties":{"zona":"B11","linkzona":"BA00002695","fascia":"B","fascia_label":"Centrale","descr":"QUARTIERE CARRASSI 1 - TR VIA CAPRUZZI , B.CROCE, A.VOLTA, UNITA` D`ITALI...","semestre":"2025-S2","loc_min":6.5,"loc_max":8.3,"loc_mid":7.4,"sale_min":1700.0,"sale_max":2100.0,"sup":"L","tipologia":"Abitazioni civili","stato":"NORMALE"}},{"type":"Feature","geometry":{"type":"Polygon","coordinates":[[[16.78404,41.14203],[16.78475,41.14443],[16.78556,41.14735],[16.78683,41.14709],[16.787,41.14755],[16.78941,41.14684],[16.78981,41.14743],[16.78913,41.14785],[16.78958,41.14877],[16.79034,41.14965],[16.79059,41.15045],[16.79043,41.15095],[16.78842,41.15203],[16.78754,41.15276],[16.78696,41.1531],[16.78621,41.15379],[16.78443,41.15487],[16.78333,41.15584],[16.7823,41.15653],[16.78185,41.15709],[16.78109,41.15764],[16.78062,41.15845],[16.78009,41.15877],[16.77929,41.15958],[16.77866,41.15972],[16.77686,41.16037],[16.77565,41.16059],[16.77389,41.16055],[16.7738,41.16017],[16.77248,41.16004],[16.77112,41.16031],[16.77098,41.16019],[16.76988,41.16033],[16.76958,41.16058],[16.76802,41.16051],[16.76628,41.16035],[16.76558,41.16005],[16.76507,41.16032],[16.76477,41.1601],[16.76412,41.16006],[16.76325,41.1602],[16.76271,41.16126],[16.76214,41.16167],[16.76141,41.16267],[16.75995,41.16301],[16.75893,41.16336],[16.75902,41.16358],[16.75805,41.16373],[16.75752,41.16418],[16.75671,41.16444],[16.75654,41.16427],[16.7558,41.16471],[16.75493,41.16456],[16.75299,41.16487],[16.75212,41.16472],[16.75214,41.16408],[16.75182,41.16374],[16.75119,41.16351],[16.75028,41.16344],[16.74959,41.16358],[16.74884,41.16411],[16.7486,41.16604],[16.74979,41.16635],[16.74976,41.16657],[16.74869,41.16624],[16.7476,41.1666],[16.74712,41.16706],[16.74586,41.16741],[16.74502,41.16784],[16.74362,41.16741],[16.74321,41.16749],[16.74223,41.16804],[16.74113,41.1682],[16.73898,41.16882],[16.73813,41.16891],[16.73663,41.16871],[16.73599,41.1685],[16.73559,41.16863],[16.73515,41.16929],[16.73408,41.16918],[16.73274,41.16947],[16.73161,41.16958],[16.73051,41.16663],[16.73157,41.16641],[16.73137,41.16617],[16.73076,41.16449],[16.73084,41.16465],[16.73089,41.16475],[16.73723,41.16299],[16.74025,41.16201],[16.74203,41.16132],[16.74241,41.16089],[16.74537,41.1597],[16.74718,41.15892],[16.7496,41.15823],[16.7463,41.1501],[16.74736,41.14973],[16.75165,41.14809],[16.75373,41.14742],[16.75413,41.1472],[16.7548,41.14716],[16.75591,41.14686],[16.75676,41.14682],[16.75712,41.14488],[16.75589,41.14517],[16.75576,41.14476],[16.75466,41.14235],[16.75583,41.14223],[16.75484,41.1395],[16.75467,41.13846],[16.75359,41.13815],[16.76204,41.14054],[16.76232,41.14081],[16.76486,41.14147],[16.76915,41.14271],[16.76962,41.14268],[16.77243,41.14347],[16.77845,41.1452],[16.7786,41.1452],[16.77865,41.1428],[16.77992,41.14259],[16.78404,41.14203]]]},"properties":{"zona":"E9","linkzona":"BA00000941","fascia":"E","fascia_label":"Suburbana","descr":"SANTO SPIRITO - PALESE - ZONA TIRO A VOLO","semestre":"2025-S2","loc_min":7.5,"loc_max":9.0,"loc_mid":8.25,"sale_min":1650.0,"sale_max":1950.0,"sup":"L","tipologia":"Abitazioni civili","stato":"NORMALE","ott_min":10.0,"ott_max":12.0}},{"type":"Feature","geometry":{"type":"Polygon","coordinates":[[[16.87401,41.10699],[16.87366,41.10696],[16.87191,41.10706],[16.87168,41.10699],[16.86791,41.10714],[16.86433,41.10715],[16.86313,41.10707],[16.8602,41.10719],[16.86014,41.107],[16.86013,41.107],[16.85923,41.1055],[16.85843,41.10536],[16.85767,41.10352],[16.85709,41.10185],[16.85931,41.10146],[16.85952,41.1013],[16.862,41.10103],[16.8692,41.10069],[16.87134,41.10044],[16.87157,41.10058],[16.87375,41.1006],[16.87378,41.10361],[16.87383,41.1037],[16.87382,41.10676],[16.87401,41.10699]]]},"properties":{"zona":"C4","linkzona":"BA00002714","fascia":"C","fascia_label":"Semicentrale","descr":"QUARTIERE CARRASSI 2 - TRA VIALE GIOVANNI XXIII E VIALE J.F. KENNEDY, ...","semestre":"2025-S2","loc_min":7.7,"loc_max":9.6,"loc_mid":8.65,"sale_min":1800.0,"sale_max":2250.0,"sup":"L","tipologia":"Abitazioni civili","stato":"NORMALE"}},{"type":"Feature","geometry":{"type":"Polygon","coordinates":[[[16.87925,41.1175],[16.87972,41.11751],[16.87985,41.11835],[16.87976,41.11935],[16.88057,41.12],[16.88023,41.12016],[16.8812,41.12136],[16.8815,41.12175],[16.87917,41.12249],[16.87892,41.12309],[16.87835,41.12319],[16.87793,41.12299],[16.87594,41.12408],[16.87636,41.11916],[16.8761,41.11913],[16.87623,41.11792],[16.87645,41.11736],[16.87925,41.1175]]]},"properties":{"zona":"B1","linkzona":"BA00000046","fascia":"B","fascia_label":"Centrale","descr":"QUARTIERE MADONNELLA-ZONA TRA LUNG. N. SAURO-VIA ABBRESCIA-CAPRUZZI-OBERDA...","semestre":"2025-S2","loc_min":6.7,"loc_max":10.0,"loc_mid":8.35,"sale_min":2000.0,"sale_max":3000.0,"sup":"L","tipologia":"Abitazioni civili","stato":"NORMALE"}},{"type":"Feature","geometry":{"type":"MultiPolygon","coordinates":[[[[16.87312,41.12912],[16.87232,41.12952],[16.87166,41.13018],[16.87154,41.13067],[16.87181,41.13223],[16.87192,41.13382],[16.87203,41.1339],[16.87243,41.13556],[16.87263,41.13869],[16.87251,41.1399],[16.872,41.14084],[16.87079,41.14189],[16.86953,41.14252],[16.8682,41.14294],[16.86679,41.14318],[16.85507,41.14378],[16.85321,41.14585],[16.85312,41.14577],[16.85513,41.14349],[16.85722,41.14344],[16.85726,41.14357],[16.86603,41.14312],[16.86678,41.14299],[16.87127,41.13974],[16.87102,41.13565],[16.869,41.13568],[16.86645,41.13753],[16.86578,41.13757],[16.86598,41.14004],[16.8642,41.14027],[16.86396,41.1376],[16.86104,41.13773],[16.86096,41.13682],[16.86587,41.13659],[16.8661,41.13653],[16.86882,41.13455],[16.86913,41.13394],[16.8676,41.13274],[16.86678,41.13333],[16.8666,41.13322],[16.8652,41.13423],[16.86484,41.13393],[16.86584,41.1332],[16.86562,41.13299],[16.86641,41.13242],[16.86697,41.13187],[16.86683,41.1313],[16.86588,41.13025],[16.86549,41.13044],[16.86309,41.13022],[16.86321,41.12951],[16.86148,41.12945],[16.861,41.12935],[16.86105,41.12999],[16.86254,41.13336],[16.8622,41.13316],[16.86196,41.13257],[16.86122,41.13221],[16.86046,41.13157],[16.86032,41.131],[16.85965,41.13045],[16.85947,41.13085],[16.85869,41.13079],[16.85771,41.1309],[16.85767,41.13054],[16.85836,41.13027],[16.85896,41.12984],[16.8604,41.12967],[16.86026,41.12905],[16.8597,41.12871],[16.85582,41.12853],[16.85505,41.12856],[16.85313,41.12906],[16.85205,41.12918],[16.85344,41.12837],[16.85491,41.12809],[16.86049,41.1283],[16.86117,41.12835],[16.86485,41.12883],[16.86629,41.12912],[16.867,41.1294],[16.86773,41.12839],[16.86653,41.12764],[16.86708,41.12671],[16.86797,41.12644],[16.86887,41.1264],[16.86951,41.12653],[16.87162,41.12663],[16.87179,41.12672],[16.87168,41.12757],[16.87242,41.12845],[16.87312,41.12912]]],[[[16.84858,41.13063],[16.84894,41.13079],[16.84904,41.1309],[16.84907,41.13091],[16.85164,41.12946],[16.85366,41.12893],[16.85665,41.13297],[16.85138,41.13577],[16.84754,41.13382],[16.84688,41.13479],[16.84643,41.1351],[16.84557,41.13478],[16.84536,41.13509],[16.84543,41.13588],[16.84601,41.13617],[16.84648,41.13581],[16.84707,41.13582],[16.84734,41.13533],[16.84776,41.1354],[16.8474,41.13603],[16.84688,41.13632],[16.84786,41.13757],[16.84743,41.13801],[16.84761,41.13832],[16.85182,41.14127],[16.85265,41.142],[16.84716,41.13812],[16.84688,41.13791],[16.84648,41.13714],[16.84581,41.13683],[16.84508,41.13629],[16.84467,41.1357],[16.84446,41.13493],[16.84453,41.13422],[16.84391,41.13409],[16.84401,41.13373],[16.84454,41.13309],[16.84561,41.13226],[16.84858,41.13063]]]]},"properties":{"zona":"B10","linkzona":"BA00001476","fascia":"B","fascia_label":"Centrale","descr":"CENTRO STORICO","semestre":"2025-S2","loc_min":7.1,"loc_max":10.6,"loc_mid":8.85,"sale_min":1700.0,"sale_max":2550.0,"sup":"L","tipologia":"Abitazioni civili","stato":"NORMALE"}},{"type":"Feature","geometry":{"type":"Polygon","coordinates":[[[16.89134,41.10446],[16.88926,41.10782],[16.8891,41.10785],[16.88841,41.10868],[16.88549,41.10745],[16.88516,41.10748],[16.88329,41.1067],[16.88307,41.10641],[16.88109,41.10551],[16.87899,41.10481],[16.8754,41.10376],[16.87383,41.1037],[16.87378,41.10361],[16.87375,41.1006],[16.87378,41.09866],[16.87356,41.0984],[16.87368,41.09683],[16.87355,41.09588],[16.8737,41.09569],[16.8737,41.09172],[16.87362,41.08966],[16.87343,41.08943],[16.87166,41.08968],[16.87135,41.08923],[16.87163,41.08932],[16.87392,41.08934],[16.87724,41.08919],[16.87821,41.08926],[16.88041,41.08917],[16.88047,41.08946],[16.88176,41.08977],[16.88161,41.09012],[16.88384,41.09028],[16.88375,41.09167],[16.88351,41.09251],[16.88343,41.09359],[16.88458,41.09371],[16.88913,41.09387],[16.89072,41.09375],[16.89088,41.09416],[16.8918,41.0941],[16.88963,41.09862],[16.89015,41.09873],[16.89152,41.09879],[16.89126,41.09961],[16.89207,41.09961],[16.89202,41.09911],[16.89408,41.09897],[16.89407,41.09949],[16.89451,41.09943],[16.89403,41.10015],[16.89134,41.10446]]]},"properties":{"zona":"C1","linkzona":"BA00000050","fascia":"C","fascia_label":"Semicentrale","descr":"SAN PASQUALE 2 - TRA VIA OMODEO, VIALE DELLA COSTITUENTE, CIRCONVALLAZ...","semestre":"2025-S2","loc_min":6.6,"loc_max":9.1,"loc_mid":7.85,"sale_min":2000.0,"sale_max":2300.0,"sup":"L","tipologia":"Abitazioni civili","stato":"NORMALE"}},{"type":"Feature","geometry":{"type":"Polygon","coordinates":[[[16.87431,41.05896],[16.87616,41.05882],[16.87638,41.05809],[16.87711,41.05833],[16.87673,41.0591],[16.87948,41.05897],[16.87957,41.05849],[16.88033,41.05845],[16.88042,41.05727],[16.88122,41.05743],[16.88102,41.06073],[16.88277,41.06034],[16.88295,41.06195],[16.88485,41.06151],[16.88571,41.06139],[16.88742,41.06158],[16.88836,41.06157],[16.88988,41.0614],[16.89089,41.06138],[16.89407,41.06159],[16.8949,41.06174],[16.89744,41.06245],[16.90007,41.06251],[16.89964,41.06368],[16.89932,41.06485],[16.89927,41.06526],[16.89914,41.0656],[16.89913,41.06585],[16.89896,41.0662],[16.89856,41.06722],[16.8981,41.06728],[16.89718,41.06954],[16.8959,41.07206],[16.89571,41.07297],[16.89513,41.07441],[16.89461,41.07541],[16.89451,41.07595],[16.89403,41.07619],[16.89297,41.07722],[16.89255,41.07776],[16.89175,41.07806],[16.8918,41.07884],[16.89099,41.0788],[16.88976,41.07849],[16.88812,41.07789],[16.88654,41.07778],[16.88527,41.07757],[16.8849,41.07492],[16.88438,41.07328],[16.88431,41.07212],[16.88439,41.07177],[16.88483,41.07056],[16.88491,41.06991],[16.88441,41.06852],[16.88343,41.06524],[16.88312,41.06379],[16.88298,41.06207],[16.88061,41.06251],[16.87851,41.0632],[16.87732,41.06331],[16.87658,41.06318],[16.87557,41.06402],[16.87455,41.06452],[16.8744,41.06374],[16.87343,41.06148],[16.87481,41.06155],[16.87542,41.06144],[16.87514,41.06052],[16.87431,41.05896]]]},"properties":{"zona":"R6","fascia":"R","fascia_label":"Extraurbana","redefined":true,"loc_min":null,"loc_max":null,"loc_mid":null}},{"type":"Feature","geometry":{"type":"Polygon","coordinates":[[[16.7471,41.12792],[16.74525,41.12753],[16.74629,41.1268],[16.74661,41.12594],[16.74655,41.12561],[16.74709,41.1245],[16.74853,41.12386],[16.7486,41.12369],[16.75105,41.12381],[16.75113,41.12348],[16.75101,41.12239],[16.75055,41.12172],[16.75049,41.12123],[16.75085,41.12091],[16.75112,41.12022],[16.75107,41.11975],[16.75141,41.11942],[16.75119,41.11793],[16.75081,41.11707],[16.7502,41.11495],[16.75203,41.11482],[16.75385,41.11484],[16.75415,41.11465],[16.7555,41.1144],[16.75615,41.11447],[16.75701,41.11437],[16.75789,41.11383],[16.7586,41.11298],[16.75917,41.11248],[16.76122,41.11135],[16.76354,41.11132],[16.76454,41.11139],[16.76582,41.11129],[16.76662,41.11134],[16.76844,41.11205],[16.77093,41.11276],[16.77099,41.11292],[16.77322,41.114],[16.77545,41.11522],[16.77649,41.11569],[16.77708,41.11549],[16.77879,41.11634],[16.77853,41.1171],[16.7781,41.11932],[16.77802,41.11941],[16.77821,41.12154],[16.77853,41.1225],[16.77744,41.12251],[16.77707,41.12289],[16.7768,41.1237],[16.77703,41.12511],[16.77672,41.12593],[16.7749,41.12842],[16.77447,41.12886],[16.77291,41.13102],[16.7724,41.13101],[16.77141,41.13285],[16.76471,41.13124],[16.76422,41.13119],[16.75939,41.13034],[16.75202,41.12891],[16.7471,41.12792]]]},"properties":{"zona":"R5","linkzona":"BA00002098","fascia":"R","fascia_label":"Extraurbana","descr":"ZONA AGRICOLA AL CONFINE CON TERRITORIO DI MODUGNO E BITONTO","semestre":"2025-S2","loc_min":null,"loc_max":null,"loc_mid":null,"nonres":true}},{"type":"Feature","geometry":{"type":"Polygon","coordinates":[[[16.80805,41.13525],[16.81725,41.13162],[16.8176,41.13161],[16.825,41.1287],[16.8252,41.12911],[16.82861,41.12832],[16.82853,41.1309],[16.82853,41.1332],[16.82844,41.13428],[16.82886,41.1364],[16.8288,41.13687],[16.82845,41.13691],[16.8266,41.13749],[16.82669,41.13775],[16.82549,41.13797],[16.82535,41.13757],[16.82363,41.13783],[16.82139,41.13834],[16.81948,41.13905],[16.81878,41.13907],[16.81779,41.13936],[16.81739,41.13924],[16.81584,41.13965],[16.81542,41.13957],[16.81492,41.13983],[16.81375,41.13984],[16.81109,41.14009],[16.81045,41.14064],[16.80983,41.1405],[16.8092,41.14082],[16.8077,41.14129],[16.80692,41.14169],[16.80495,41.14233],[16.80484,41.14213],[16.8039,41.1423],[16.80261,41.14087],[16.80241,41.14095],[16.80126,41.14008],[16.79799,41.13938],[16.79796,41.13925],[16.80054,41.13818],[16.80266,41.13737],[16.80493,41.1364],[16.8054,41.1363],[16.80805,41.13525]]]},"properties":{"zona":"D3","linkzona":"BA00000927","fascia":"D","fascia_label":"Periferica","descr":"S.GIROLAMO - FESCA FINO A LUNGOMARE IX MAGGIO","semestre":"2025-S2","loc_min":5.5,"loc_max":7.0,"loc_mid":6.25,"sale_min":1650.0,"sale_max":2050.0,"sup":"L","tipologia":"Abitazioni civili","stato":"NORMALE"}},{"type":"Feature","geometry":{"type":"Polygon","coordinates":[[[16.79796,41.13925],[16.79799,41.13938],[16.80126,41.14008],[16.80241,41.14095],[16.80261,41.14087],[16.8039,41.1423],[16.80484,41.14213],[16.80494,41.14233],[16.80218,41.14342],[16.80115,41.14389],[16.79847,41.14533],[16.797,41.14594],[16.79681,41.14622],[16.796,41.1464],[16.79487,41.14694],[16.79451,41.14723],[16.79342,41.14769],[16.79297,41.14774],[16.79263,41.14816],[16.79188,41.14856],[16.79138,41.14932],[16.79034,41.14965],[16.78958,41.14877],[16.78913,41.14785],[16.78981,41.14743],[16.78941,41.14684],[16.787,41.14755],[16.78683,41.14709],[16.78556,41.14735],[16.78475,41.14443],[16.78404,41.14203],[16.78554,41.14182],[16.78588,41.14124],[16.78671,41.14141],[16.78655,41.14202],[16.7902,41.14229],[16.7967,41.13972],[16.79796,41.13925]]]},"properties":{"zona":"D4","linkzona":"BA00000928","fascia":"D","fascia_label":"Periferica","descr":"FESCA DA LUNGOMARE IX MAGGIO FINO A TIRO A VOLO","semestre":"2025-S2","loc_min":3.8,"loc_max":5.5,"loc_mid":4.65,"sale_min":1150.0,"sale_max":1650.0,"sup":"L","tipologia":"Abitazioni civili","stato":"NORMALE"}},{"type":"Feature","geometry":{"type":"Polygon","coordinates":[[[16.80805,41.13525],[16.80783,41.1353],[16.80708,41.13469],[16.8066,41.13401],[16.80602,41.13191],[16.80649,41.13177],[16.8063,41.13059],[16.80571,41.12993],[16.80505,41.12841],[16.80583,41.12785],[16.8059,41.12573],[16.80581,41.12571],[16.80588,41.12338],[16.80623,41.1232],[16.80632,41.12217],[16.80602,41.12197],[16.80607,41.12135],[16.80582,41.12076],[16.80537,41.12019],[16.80357,41.11854],[16.80367,41.11849],[16.80215,41.11697],[16.80169,41.11626],[16.80118,41.11626],[16.80014,41.11485],[16.80003,41.11515],[16.80094,41.11613],[16.79489,41.11513],[16.7942,41.115],[16.79217,41.11468],[16.79207,41.11373],[16.79181,41.11237],[16.79394,41.11243],[16.79416,41.1107],[16.79464,41.11069],[16.79798,41.11135],[16.79773,41.11227],[16.79663,41.11207],[16.79651,41.11305],[16.79719,41.11308],[16.79956,41.11338],[16.79993,41.11175],[16.79916,41.11158],[16.79961,41.11095],[16.79884,41.11051],[16.79952,41.10961],[16.79871,41.10907],[16.79992,41.10817],[16.80033,41.1081],[16.80006,41.10658],[16.80109,41.10656],[16.80098,41.10434],[16.80266,41.1046],[16.80379,41.10461],[16.80331,41.10294],[16.80414,41.10009],[16.80404,41.09988],[16.80613,41.10054],[16.80671,41.09939],[16.80684,41.09828],[16.8073,41.09848],[16.80737,41.09777],[16.80835,41.09779],[16.80852,41.09762],[16.8085,41.09618],[16.80893,41.09502],[16.80882,41.09444],[16.8091,41.09364],[16.80644,41.0923],[16.8083,41.08969],[16.80811,41.0895],[16.80472,41.08705],[16.80495,41.08719],[16.80711,41.08758],[16.80922,41.08825],[16.8106,41.08883],[16.81162,41.08939],[16.81358,41.09072],[16.81498,41.08978],[16.81527,41.09034],[16.81506,41.09049],[16.81587,41.09159],[16.81529,41.09178],[16.81609,41.09294],[16.81653,41.09277],[16.81701,41.09345],[16.81492,41.0942],[16.81555,41.095],[16.81624,41.09544],[16.81685,41.09687],[16.81733,41.09731],[16.81783,41.09719],[16.81823,41.09785],[16.81785,41.09822],[16.81933,41.09914],[16.82006,41.09981],[16.81856,41.10067],[16.81837,41.10115],[16.81985,41.10202],[16.82053,41.10279],[16.81963,41.10348],[16.81856,41.10408],[16.81983,41.10437],[16.82365,41.10476],[16.82442,41.10473],[16.82627,41.10491],[16.8272,41.10506],[16.82939,41.10525],[16.82964,41.10514],[16.83086,41.10525],[16.83109,41.10538],[16.83449,41.10574],[16.83954,41.1062],[16.83988,41.10637],[16.84955,41.10728],[16.85091,41.10749],[16.85174,41.10786],[16.85197,41.1078],[16.85217,41.10788],[16.85193,41.10786],[16.85047,41.10854],[16.85165,41.11034],[16.85166,41.11094],[16.85091,41.11126],[16.85112,41.11158],[16.85299,41.11104],[16.8531,41.1112],[16.85279,41.11416],[16.8532,41.11422],[16.85543,41.11376],[16.85615,41.11342],[16.85732,41.1148],[16.85648,41.11498],[16.85665,41.11621],[16.85472,41.1165],[16.85336,41.11687],[16.85277,41.11717],[16.85204,41.11779],[16.85082,41.11737],[16.84945,41.11642],[16.84883,41.11591],[16.84782,41.11433],[16.84672,41.11348],[16.84527,41.11363],[16.84427,41.11333],[16.84275,41.11419],[16.84138,41.11474],[16.83944,41.11478],[16.83877,41.11488],[16.83716,41.11563],[16.83651,41.11605],[16.83562,41.11559],[16.83515,41.11605],[16.83361,41.11837],[16.83307,41.11819],[16.82963,41.11759],[16.82903,41.1176],[16.82899,41.1197],[16.82914,41.12114],[16.82811,41.12123],[16.82735,41.12152],[16.82793,41.12224],[16.8288,41.12417],[16.82868,41.12688],[16.82876,41.12717],[16.82861,41.12832],[16.8252,41.12911],[16.825,41.1287],[16.8176,41.13161],[16.81725,41.13162],[16.80805,41.13525]]]},"properties":{"zona":"E6","linkzona":"BA00000020","fascia":"E","fascia_label":"Suburbana","descr":"ZONA INDUSTRIALE-COMMERCIALE-DA:SOPRAMARZO-GLOMERELLI-F.S.BARI TARANTO-S....","semestre":"2025-S2","loc_min":3.3,"loc_max":4.7,"loc_mid":4.0,"sale_min":1000.0,"sale_max":1400.0,"sup":"L","tipologia":"Abitazioni civili","stato":"NORMALE"}},{"type":"Feature","geometry":{"type":"Polygon","coordinates":[[[16.90968,41.0958],[16.9098,41.09672],[16.90643,41.09744],[16.90664,41.0986],[16.90261,41.09787],[16.90187,41.09787],[16.90172,41.09858],[16.89592,41.09863],[16.89601,41.09965],[16.89451,41.09943],[16.89407,41.09949],[16.89408,41.09897],[16.89202,41.09911],[16.89207,41.09961],[16.89126,41.09961],[16.89152,41.09879],[16.89015,41.09873],[16.88963,41.09862],[16.8918,41.0941],[16.89088,41.09416],[16.89072,41.09375],[16.88913,41.09387],[16.88458,41.09371],[16.88343,41.09359],[16.88351,41.09251],[16.88375,41.09167],[16.88384,41.09028],[16.88161,41.09012],[16.88176,41.08977],[16.88047,41.08946],[16.88041,41.08917],[16.87821,41.08926],[16.87724,41.08919],[16.87392,41.08934],[16.87163,41.08932],[16.87135,41.08923],[16.87068,41.08896],[16.86952,41.08884],[16.8656,41.089],[16.86548,41.08865],[16.86474,41.08899],[16.86398,41.08902],[16.86387,41.08824],[16.86327,41.08826],[16.8633,41.08903],[16.86042,41.08926],[16.86007,41.08865],[16.85883,41.089],[16.85866,41.08877],[16.85735,41.08913],[16.85524,41.08924],[16.85507,41.08844],[16.85418,41.08981],[16.85396,41.09129],[16.85344,41.09107],[16.85205,41.09119],[16.85141,41.09108],[16.84682,41.09258],[16.84654,41.09181],[16.84256,41.0928],[16.84087,41.09277],[16.84077,41.09253],[16.8399,41.09234],[16.83929,41.09294],[16.83838,41.09333],[16.83667,41.09368],[16.83626,41.09311],[16.83605,41.09169],[16.83551,41.09091],[16.83482,41.09113],[16.83424,41.09039],[16.83378,41.09074],[16.83342,41.09046],[16.83356,41.0886],[16.83376,41.08819],[16.83288,41.08812],[16.83059,41.08834],[16.82945,41.08832],[16.82826,41.0881],[16.82698,41.08812],[16.82652,41.08791],[16.8263,41.0871],[16.82553,41.08623],[16.82424,41.08565],[16.82725,41.08322],[16.82853,41.0834],[16.82917,41.08323],[16.82899,41.08286],[16.82913,41.08232],[16.8304,41.08183],[16.83007,41.08095],[16.82915,41.08015],[16.82886,41.07975],[16.82927,41.07947],[16.82812,41.07741],[16.82949,41.07701],[16.82835,41.07488],[16.82744,41.07496],[16.8259,41.0754],[16.82515,41.07314],[16.82535,41.07306],[16.82809,41.07232],[16.8293,41.07216],[16.82945,41.07008],[16.82927,41.06843],[16.82876,41.06847],[16.82879,41.06907],[16.82681,41.06931],[16.82639,41.0685],[16.82926,41.06838],[16.82922,41.06797],[16.82849,41.06642],[16.82998,41.06567],[16.83111,41.06556],[16.83134,41.06577],[16.83248,41.06603],[16.83236,41.06792],[16.83338,41.06797],[16.83382,41.06806],[16.83348,41.06913],[16.83376,41.06942],[16.83403,41.07102],[16.83474,41.07095],[16.83524,41.0738],[16.83473,41.0739],[16.83481,41.07437],[16.83547,41.07595],[16.83337,41.07657],[16.83312,41.07614],[16.83198,41.07643],[16.83282,41.07761],[16.83325,41.07801],[16.83399,41.07822],[16.83422,41.07847],[16.83392,41.07919],[16.83535,41.08067],[16.83611,41.0813],[16.83693,41.08137],[16.83781,41.08184],[16.84006,41.08066],[16.84193,41.08009],[16.84316,41.0799],[16.84276,41.07771],[16.84223,41.07694],[16.84108,41.07411],[16.84077,41.07383],[16.8403,41.073],[16.84033,41.07237],[16.8416,41.07221],[16.84218,41.07457],[16.84286,41.07612],[16.84404,41.07595],[16.84443,41.07684],[16.84412,41.07691],[16.84443,41.07762],[16.84471,41.07763],[16.84699,41.07726],[16.84743,41.07853],[16.84852,41.07949],[16.84924,41.08034],[16.84969,41.08018],[16.851,41.07999],[16.85088,41.08177],[16.8521,41.08309],[16.85378,41.08225],[16.85632,41.08116],[16.85767,41.08076],[16.85848,41.08005],[16.85911,41.07929],[16.85932,41.07863],[16.85981,41.07766],[16.86046,41.07788],[16.86127,41.07777],[16.86232,41.07726],[16.86283,41.07735],[16.86472,41.07735],[16.86481,41.07641],[16.86695,41.07591],[16.86709,41.07668],[16.86686,41.07672],[16.86677,41.07752],[16.86771,41.07758],[16.86773,41.07678],[16.87032,41.07673],[16.87031,41.07839],[16.86953,41.07835],[16.86953,41.07864],[16.87024,41.07889],[16.86971,41.08025],[16.87045,41.0803],[16.87069,41.08008],[16.87157,41.07999],[16.87195,41.08034],[16.87206,41.08108],[16.87328,41.08108],[16.87329,41.08092],[16.87514,41.08054],[16.87673,41.08266],[16.87748,41.08216],[16.87877,41.08161],[16.88002,41.08036],[16.88038,41.0795],[16.88074,41.07899],[16.88183,41.07835],[16.88317,41.07729],[16.88527,41.07757],[16.88654,41.07778],[16.88812,41.07789],[16.88976,41.07849],[16.89099,41.0788],[16.8918,41.07884],[16.89165,41.0795],[16.89213,41.08128],[16.89178,41.0816],[16.89168,41.08229],[16.89208,41.08271],[16.89233,41.08336],[16.89082,41.08371],[16.89073,41.08352],[16.88968,41.08361],[16.88838,41.08383],[16.88734,41.08381],[16.88729,41.08486],[16.88813,41.08487],[16.88816,41.0854],[16.88734,41.08544],[16.88733,41.08578],[16.88816,41.08577],[16.88825,41.08792],[16.88781,41.08795],[16.88777,41.08895],[16.88794,41.08913],[16.88976,41.08931],[16.88997,41.08918],[16.89006,41.08814],[16.89026,41.08813],[16.89005,41.08615],[16.89074,41.08609],[16.89206,41.08552],[16.89224,41.0868],[16.89391,41.08671],[16.89492,41.0858],[16.89599,41.08612],[16.89622,41.08601],[16.89846,41.08233],[16.89975,41.0823],[16.90047,41.08203],[16.90039,41.08127],[16.90153,41.08115],[16.90371,41.08126],[16.90348,41.08157],[16.90488,41.082],[16.90523,41.08153],[16.90556,41.08161],[16.90532,41.08202],[16.90348,41.08494],[16.90147,41.08826],[16.90107,41.0891],[16.89977,41.09119],[16.90097,41.09058],[16.90096,41.09222],[16.90051,41.09422],[16.89997,41.09565],[16.90211,41.09609],[16.90348,41.09614],[16.90353,41.09601],[16.90652,41.09577],[16.90725,41.09559],[16.90963,41.09563],[16.90968,41.0958]]]},"properties":{"zona":"D2","linkzona":"BA00000014","fascia":"D","fascia_label":"Periferica","descr":"MUNGIVACCA-STADIO S.NICOLA-STRADA VICINALE PER MODUGNO E CEGLIE","semestre":"2025-S2","loc_min":4.9,"loc_max":6.2,"loc_mid":5.55,"sale_min":1450.0,"sale_max":1850.0,"sup":"L","tipologia":"Abitazioni civili","stato":"NORMALE"}},{"type":"Feature","geometry":{"type":"Polygon","coordinates":[[[16.82698,41.08812],[16.82616,41.08825],[16.82257,41.08815],[16.82138,41.08845],[16.82111,41.0881],[16.82102,41.08726],[16.82039,41.08633],[16.81941,41.08515],[16.81817,41.08429],[16.81711,41.08419],[16.81645,41.08352],[16.81622,41.08144],[16.81626,41.08088],[16.81612,41.07991],[16.81351,41.07819],[16.8136,41.07773],[16.81497,41.07777],[16.81685,41.07892],[16.81799,41.0781],[16.81825,41.0764],[16.81975,41.07576],[16.82014,41.07473],[16.82094,41.07441],[16.82351,41.07382],[16.82487,41.07323],[16.82535,41.07306],[16.82515,41.07314],[16.8259,41.0754],[16.82744,41.07496],[16.82835,41.07488],[16.82949,41.07701],[16.82812,41.07741],[16.82927,41.07947],[16.82886,41.07975],[16.82915,41.08015],[16.83007,41.08095],[16.8304,41.08183],[16.82913,41.08232],[16.82899,41.08286],[16.82917,41.08323],[16.82853,41.0834],[16.82725,41.08322],[16.82424,41.08565],[16.82553,41.08623],[16.8263,41.0871],[16.82652,41.08791],[16.82698,41.08812]]]},"properties":{"zona":"R2","linkzona":"BA00002095","fascia":"R","fascia_label":"Extraurbana","descr":"ZONA AGRICOLA AL CONFINE CON COMUNE DI MODUGNO","semestre":"2025-S2","loc_min":null,"loc_max":null,"loc_mid":null,"nonres":true}},{"type":"Feature","geometry":{"type":"Polygon","coordinates":[[[16.83929,41.09294],[16.83983,41.09287],[16.8405,41.09363],[16.84055,41.09409],[16.84105,41.09432],[16.84141,41.09538],[16.84232,41.09658],[16.84347,41.09764],[16.84526,41.09943],[16.84191,41.10026],[16.84106,41.10062],[16.84157,41.10245],[16.84165,41.10397],[16.84124,41.10588],[16.84036,41.10625],[16.83954,41.1062],[16.83449,41.10574],[16.83109,41.10538],[16.83086,41.10525],[16.82964,41.10514],[16.82939,41.10525],[16.8272,41.10506],[16.82627,41.10491],[16.82442,41.10473],[16.82365,41.10476],[16.81983,41.10437],[16.81856,41.10408],[16.81963,41.10348],[16.82053,41.10279],[16.81985,41.10202],[16.81837,41.10115],[16.81856,41.10067],[16.82006,41.09981],[16.81933,41.09914],[16.81785,41.09822],[16.81823,41.09785],[16.81783,41.09719],[16.81733,41.09731],[16.81685,41.09687],[16.81624,41.09544],[16.81555,41.095],[16.81492,41.0942],[16.81701,41.09345],[16.81653,41.09277],[16.81609,41.09294],[16.81529,41.09178],[16.81587,41.09159],[16.81506,41.09049],[16.81527,41.09034],[16.81498,41.08978],[16.81358,41.09072],[16.81162,41.08939],[16.8106,41.08883],[16.80922,41.08825],[16.80711,41.08758],[16.80495,41.08719],[16.80472,41.08705],[16.80436,41.08673],[16.80731,41.0862],[16.80931,41.08565],[16.8106,41.08559],[16.81248,41.08625],[16.81391,41.08656],[16.81437,41.08647],[16.81693,41.08691],[16.81857,41.08702],[16.81904,41.08719],[16.82004,41.08793],[16.82087,41.08837],[16.8214,41.08846],[16.82254,41.08817],[16.82613,41.08827],[16.82792,41.08811],[16.82916,41.08832],[16.83056,41.08835],[16.83288,41.08814],[16.83375,41.08819],[16.83354,41.08863],[16.83342,41.09046],[16.83378,41.09074],[16.83424,41.09039],[16.83482,41.09113],[16.83551,41.09091],[16.83605,41.09169],[16.83626,41.09311],[16.83667,41.09368],[16.83838,41.09333],[16.83929,41.09294]]]},"properties":{"zona":"E1","linkzona":"BA00000052","fascia":"E","fascia_label":"Suburbana","descr":"SANTA CATERINA - ZONA CENTRI COMMERCIALI - ZONA ARTIGIANALE","semestre":"2025-S2","loc_min":2.7,"loc_max":3.7,"loc_mid":3.2,"sup":"L","tipologia":"Abitazioni di tipo economico","stato":"NORMALE"}},{"type":"Feature","geometry":{"type":"Polygon","coordinates":[[[16.82876,41.12717],[16.82868,41.12688],[16.8288,41.12417],[16.82793,41.12224],[16.82735,41.12152],[16.82811,41.12123],[16.82914,41.12114],[16.82899,41.1197],[16.82903,41.1176],[16.82963,41.11759],[16.83307,41.11819],[16.83361,41.11837],[16.83515,41.11605],[16.83562,41.11559],[16.83651,41.11605],[16.83716,41.11563],[16.83877,41.11488],[16.83944,41.11478],[16.84138,41.11474],[16.84275,41.11419],[16.84427,41.11333],[16.84527,41.11363],[16.84672,41.11348],[16.84782,41.11433],[16.84883,41.11591],[16.84945,41.11642],[16.84874,41.11692],[16.84807,41.11759],[16.8474,41.11771],[16.8455,41.11773],[16.84699,41.11978],[16.84537,41.12036],[16.84531,41.12076],[16.84445,41.12144],[16.84404,41.12213],[16.83933,41.12412],[16.83877,41.12396],[16.83628,41.12438],[16.83526,41.12467],[16.83274,41.12566],[16.82876,41.12717]]]},"properties":{"zona":"D5","linkzona":"BA00002855","fascia":"D","fascia_label":"Periferica","descr":"VILLAGGIO DEI LAVORATORI - VIA BRUNO BUOZZI","semestre":"2025-S2","loc_min":3.2,"loc_max":4.8,"loc_mid":4.0,"sale_min":1000.0,"sale_max":1450.0,"sup":"L","tipologia":"Abitazioni civili","stato":"NORMALE"}},{"type":"Feature","geometry":{"type":"Polygon","coordinates":[[[16.85306,41.04877],[16.85288,41.04859],[16.85317,41.04602],[16.85389,41.04579],[16.85415,41.04422],[16.85427,41.04241],[16.85555,41.04233],[16.85579,41.0428],[16.85718,41.04237],[16.85726,41.04248],[16.85925,41.04235],[16.85923,41.04155],[16.85842,41.04061],[16.86071,41.04013],[16.86164,41.04062],[16.86237,41.04063],[16.86217,41.04002],[16.86324,41.03989],[16.86341,41.04283],[16.8636,41.04469],[16.8652,41.04481],[16.86621,41.04463],[16.86703,41.04477],[16.86698,41.04519],[16.86791,41.0452],[16.86996,41.04558],[16.87158,41.04572],[16.8736,41.0455],[16.87378,41.04645],[16.87396,41.04852],[16.87401,41.05017],[16.87393,41.05111],[16.8731,41.05267],[16.87271,41.05325],[16.87105,41.05301],[16.87098,41.05322],[16.86951,41.05303],[16.86885,41.05382],[16.86819,41.05345],[16.86822,41.05398],[16.8666,41.05417],[16.86556,41.05227],[16.86524,41.05187],[16.86162,41.05184],[16.86155,41.05065],[16.86102,41.05073],[16.86105,41.0517],[16.85997,41.05188],[16.86047,41.05389],[16.86066,41.05426],[16.86059,41.05509],[16.86091,41.05642],[16.86094,41.0576],[16.86142,41.0581],[16.86139,41.05891],[16.86067,41.06013],[16.86009,41.06],[16.85965,41.05917],[16.85811,41.05745],[16.85804,41.05656],[16.8578,41.05549],[16.85722,41.05432],[16.85629,41.0533],[16.85579,41.05236],[16.85527,41.05106],[16.85513,41.04981],[16.85306,41.04877]]]},"properties":{"zona":"R8","linkzona":"BA00002101","fascia":"R","fascia_label":"Extraurbana","descr":"ZONA AGRICOLA AL CONFINE CON COMUNE DI VALENZANO","semestre":"2025-S2","loc_min":null,"loc_max":null,"loc_mid":null,"nonres":true}},{"type":"Feature","geometry":{"type":"Polygon","coordinates":[[[16.9548,41.09454],[16.95592,41.09395],[16.95756,41.09341],[16.95927,41.09279],[16.96146,41.09212],[16.96679,41.09064],[16.97404,41.08865],[16.97904,41.08725],[16.97906,41.0872],[16.98923,41.08435],[16.99204,41.08355],[16.99397,41.08293],[16.99388,41.08268],[16.99567,41.08223],[16.99616,41.08229],[16.99729,41.08197],[16.99777,41.082],[16.99871,41.08168],[17.01364,41.07749],[17.01838,41.07614],[17.02567,41.07409],[17.02627,41.0743],[17.02766,41.07563],[17.02814,41.07547],[17.02906,41.07734],[17.02951,41.07813],[17.03065,41.07928],[17.03123,41.07971],[17.03206,41.08063],[17.03266,41.08052],[17.03343,41.08191],[17.03406,41.08203],[17.03443,41.0816],[17.03635,41.08116],[17.03606,41.08198],[17.03528,41.08221],[17.03457,41.08163],[17.03422,41.08236],[17.03313,41.08211],[17.03289,41.08262],[17.03204,41.08271],[17.03158,41.08254],[17.03116,41.08267],[17.03096,41.08309],[17.02945,41.08328],[17.0287,41.08313],[17.02851,41.08284],[17.02789,41.08294],[17.02686,41.0835],[17.02589,41.08375],[17.02512,41.08437],[17.02457,41.0844],[17.02417,41.08388],[17.02343,41.08411],[17.02245,41.08391],[17.02212,41.08426],[17.021,41.08455],[17.02048,41.08415],[17.01958,41.08445],[17.01939,41.08469],[17.01859,41.08503],[17.01781,41.08507],[17.01738,41.08485],[17.01663,41.08526],[17.01578,41.08474],[17.01497,41.08489],[17.01424,41.08528],[17.01377,41.08498],[17.0126,41.08605],[17.0122,41.08519],[17.01164,41.08523],[17.01063,41.08578],[17.01015,41.08554],[17.00824,41.08567],[17.00784,41.08594],[17.00749,41.08657],[17.00699,41.0865],[17.00671,41.08684],[17.00556,41.08678],[17.00507,41.08749],[17.00441,41.08779],[17.00401,41.08822],[17.00306,41.0885],[17.00228,41.08859],[17.00178,41.08891],[17.00107,41.08856],[17.00047,41.08798],[16.99948,41.08805],[16.99889,41.08865],[16.99782,41.08839],[16.99737,41.08803],[16.99709,41.08855],[16.99539,41.08931],[16.99513,41.08927],[16.99408,41.09029],[16.99383,41.09021],[16.99294,41.09049],[16.99278,41.09077],[16.99324,41.0914],[16.99305,41.09189],[16.99242,41.09203],[16.99192,41.09176],[16.99115,41.09171],[16.9906,41.09143],[16.99056,41.09206],[16.98922,41.09221],[16.98887,41.09177],[16.988,41.09144],[16.9876,41.09186],[16.98707,41.09197],[16.98706,41.09275],[16.98647,41.093],[16.9855,41.09312],[16.98547,41.09358],[16.98482,41.09395],[16.98323,41.09412],[16.98216,41.09453],[16.98095,41.09465],[16.98056,41.09445],[16.97989,41.09445],[16.97974,41.09398],[16.97896,41.09446],[16.97832,41.09428],[16.97761,41.09505],[16.97644,41.09498],[16.97587,41.0951],[16.97512,41.09485],[16.97463,41.09516],[16.9738,41.09538],[16.97282,41.09544],[16.9718,41.09608],[16.97079,41.096],[16.96918,41.0961],[16.96847,41.0964],[16.96821,41.09613],[16.96739,41.09612],[16.96596,41.09666],[16.96464,41.09672],[16.96322,41.09704],[16.96317,41.09663],[16.96254,41.09643],[16.96221,41.09668],[16.95969,41.09594],[16.95949,41.09638],[16.95783,41.09555],[16.95535,41.09478],[16.9548,41.09454]]]},"properties":{"zona":"E7","linkzona":"BA00000021","fascia":"E","fascia_label":"Suburbana","descr":"S.GIORGIO-TORRE A MARE-","semestre":"2025-S2","loc_min":5.0,"loc_max":6.5,"loc_mid":5.75,"sale_min":1500.0,"sale_max":1950.0,"sup":"L","tipologia":"Abitazioni civili","stato":"NORMALE"}}]}