{"type":"FeatureCollection","features":[{"type":"Feature","geometry":{"type":"Polygon","coordinates":[[[15.06236,37.521],[15.06205,37.52053],[15.06059,37.51963],[15.05951,37.51943],[15.05898,37.51948],[15.05885,37.51905],[15.05959,37.51879],[15.06069,37.518],[15.06079,37.51769],[15.06144,37.51742],[15.06181,37.51705],[15.06272,37.51717],[15.06293,37.51607],[15.06275,37.51606],[15.06216,37.51663],[15.06071,37.51595],[15.06026,37.51583],[15.0603,37.51554],[15.06066,37.51483],[15.06128,37.51474],[15.06221,37.51473],[15.06255,37.5146],[15.06288,37.51481],[15.06348,37.5148],[15.06358,37.51415],[15.06406,37.51409],[15.06489,37.51377],[15.06563,37.51382],[15.06578,37.51313],[15.06543,37.51281],[15.0664,37.51158],[15.06636,37.51146],[15.06659,37.51139],[15.06795,37.51127],[15.06803,37.51108],[15.06861,37.51104],[15.06863,37.51242],[15.06924,37.5125],[15.06877,37.51419],[15.06938,37.51404],[15.06892,37.51583],[15.06962,37.51554],[15.06916,37.51657],[15.06967,37.51676],[15.06996,37.51719],[15.06915,37.51755],[15.06906,37.51814],[15.06912,37.51935],[15.06924,37.5198],[15.06901,37.52026],[15.0692,37.52054],[15.06989,37.52101],[15.06999,37.52124],[15.06974,37.52219],[15.06889,37.52183],[15.06618,37.52171],[15.06603,37.52222],[15.064,37.52194],[15.06379,37.52219],[15.06341,37.52185],[15.06288,37.52233],[15.06251,37.52204],[15.06259,37.52188],[15.06229,37.52112],[15.06236,37.521]]]},"properties":{"zona":"D8","linkzona":"CT00001517","fascia":"D","fascia_label":"Periferica","descr":"CIBALI : BANADIES-SUSANNA--CIBELE---ORO-ASPROMONTE--MALTESE--PIOPPO-CAST...","semestre":"2025-S2","loc_min":3.4,"loc_max":5.0,"loc_mid":4.2,"sale_min":1000.0,"sale_max":1400.0,"sup":"L","tipologia":"Abitazioni civili","stato":"NORMALE","trend":-1.2,"trend_from":"2023-S2"}},{"type":"Feature","geometry":{"type":"MultiPolygon","coordinates":[[[[15.09068,37.40143],[15.09033,37.39965],[15.092,37.39961],[15.09199,37.40294],[15.09163,37.4028],[15.09087,37.40252],[15.09127,37.40226],[15.09151,37.40188],[15.09138,37.40163],[15.09068,37.40143]]],[[[15.08574,37.38322],[15.08608,37.38359],[15.08688,37.38538],[15.08267,37.3859],[15.08111,37.3868],[15.08011,37.38706],[15.0796,37.38678],[15.07876,37.38606],[15.08358,37.385],[15.08406,37.38463],[15.08525,37.38335],[15.08574,37.38322]]],[[[15.0105,37.45965],[15.01045,37.45966],[15.00836,37.45947],[15.00715,37.45944],[15.00575,37.45956],[15.00471,37.45928],[15.00303,37.45921],[15.00078,37.45892],[14.99767,37.45826],[14.9955,37.45738],[14.9941,37.45659],[14.99243,37.45547],[14.99158,37.45514],[14.98931,37.45435],[14.98881,37.45434],[14.98723,37.45393],[14.98605,37.45379],[14.98517,37.45363],[14.98371,37.45358],[14.98296,37.45365],[14.9819,37.45411],[14.98099,37.45415],[14.97973,37.45392],[14.97798,37.45255],[14.97769,37.45307],[14.97691,37.45406],[14.97612,37.45456],[14.97501,37.455],[14.97381,37.45576],[14.97287,37.45615],[14.97218,37.45691],[14.97063,37.45848],[14.97023,37.45884],[14.96978,37.45958],[14.96981,37.45978],[14.96905,37.46063],[14.96843,37.46093],[14.96758,37.46175],[14.96758,37.462],[14.96681,37.46262],[14.96617,37.46384],[14.96566,37.46426],[14.96392,37.46442],[14.9632,37.46385],[14.96255,37.46372],[14.95946,37.46396],[14.95919,37.46401],[14.95746,37.46472],[14.95683,37.46514],[14.95644,37.46608],[14.95608,37.46639],[14.95455,37.4664],[14.95337,37.46612],[14.95215,37.46556],[14.95063,37.4651],[14.94847,37.46462],[14.94796,37.46458],[14.94655,37.46467],[14.94652,37.46404],[14.94683,37.46328],[14.94752,37.46242],[14.94858,37.46089],[14.94865,37.45968],[14.94877,37.45903],[14.94905,37.45848],[14.9499,37.4576],[14.95093,37.45677],[14.95235,37.45604],[14.95306,37.45488],[14.95309,37.45422],[14.95265,37.45347],[14.95272,37.4518],[14.95329,37.45063],[14.95263,37.44918],[14.95228,37.44783],[14.95217,37.44683],[14.95183,37.44625],[14.95077,37.44626],[14.94973,37.44644],[14.94851,37.44673],[14.94841,37.44646],[14.94836,37.44521],[14.94843,37.44449],[14.9485,37.44237],[14.94865,37.44147],[14.94711,37.44039],[14.94688,37.44019],[14.94615,37.439],[14.94722,37.43867],[14.94734,37.43848],[14.94789,37.43866],[14.9488,37.4386],[14.94941,37.43777],[14.94956,37.43733],[14.9486,37.43642],[14.94852,37.43618],[14.94896,37.43459],[14.94952,37.43368],[14.95014,37.4299],[14.94972,37.42972],[14.94926,37.42863],[14.94893,37.42822],[14.94833,37.4277],[14.94751,37.42623],[14.94636,37.42475],[14.94597,37.42413],[14.94535,37.42356],[14.94498,37.42307],[14.94435,37.42263],[14.94292,37.42049],[14.94255,37.41963],[14.94143,37.41819],[14.94085,37.41706],[14.93939,37.41483],[14.93866,37.41327],[14.93811,37.41226],[14.93756,37.41103],[14.93639,37.40865],[14.93591,37.4079],[14.93644,37.40715],[14.93658,37.40601],[14.93707,37.40551],[14.93802,37.40507],[14.93863,37.40512],[14.9396,37.40553],[14.94023,37.40569],[14.94077,37.40569],[14.94126,37.40553],[14.94305,37.40452],[14.94353,37.40408],[14.94417,37.40326],[14.94502,37.40196],[14.94526,37.40074],[14.94556,37.3997],[14.94585,37.39903],[14.94616,37.39864],[14.94726,37.39798],[14.94875,37.39727],[14.95028,37.39637],[14.95108,37.39516],[14.95159,37.39451],[14.9517,37.39418],[14.95238,37.39322],[14.95331,37.39304],[14.95372,37.39268],[14.95337,37.39222],[14.95404,37.39135],[14.95441,37.39074],[14.95511,37.38927],[14.95572,37.38759],[14.95608,37.38682],[14.95617,37.38636],[14.95691,37.38583],[14.95866,37.38481],[14.96013,37.38407],[14.96102,37.38388],[14.96214,37.38345],[14.96312,37.38288],[14.9635,37.3829],[14.964,37.38239],[14.96505,37.3817],[14.96677,37.3815],[14.96881,37.38097],[14.96992,37.38034],[14.97043,37.38018],[14.97143,37.37968],[14.97178,37.37935],[14.97247,37.37911],[14.97291,37.3791],[14.97554,37.37856],[14.97581,37.37865],[14.97772,37.37877],[14.97793,37.37866],[14.9785,37.37795],[14.97864,37.37762],[14.97914,37.37717],[14.97942,37.37707],[14.97985,37.37721],[14.98086,37.3769],[14.98142,37.37653],[14.98171,37.37619],[14.98201,37.37526],[14.98197,37.37501],[14.98154,37.37417],[14.98171,37.37396],[14.9825,37.37359],[14.98376,37.37335],[14.98535,37.37332],[14.98566,37.37358],[14.98617,37.37375],[14.98736,37.37393],[14.98784,37.3738],[14.98886,37.37322],[14.98946,37.37265],[14.98976,37.37263],[14.99039,37.37287],[14.9912,37.37291],[14.9917,37.37277],[14.9928,37.37181],[14.99367,37.37142],[14.9945,37.37148],[14.99511,37.37168],[14.9965,37.37187],[14.99687,37.37221],[14.99766,37.37254],[15.00019,37.37769],[15.00356,37.38444],[15.00376,37.3847],[14.99769,37.37249],[14.99863,37.37264],[14.99998,37.37245],[15.00079,37.37253],[15.00222,37.37174],[15.00312,37.37156],[15.00559,37.37073],[15.00622,37.37027],[15.00674,37.37005],[15.00772,37.37001],[15.00902,37.37058],[15.00971,37.37063],[15.01118,37.37028],[15.0127,37.36977],[15.01458,37.36941],[15.01511,37.36923],[15.01643,37.36978],[15.01897,37.37127],[15.01971,37.37206],[15.02054,37.37245],[15.02145,37.37271],[15.02299,37.37221],[15.02336,37.3719],[15.02438,37.37255],[15.02486,37.37305],[15.02511,37.37688],[15.02532,37.37717],[15.0265,37.37837],[15.03283,37.37076],[15.03316,37.36464],[15.03331,37.36439],[15.03318,37.36362],[15.03258,37.36278],[15.03261,37.36235],[15.03288,37.36218],[15.03335,37.36222],[15.03659,37.36219],[15.03909,37.36233],[15.04075,37.36249],[15.04232,37.36271],[15.0441,37.36279],[15.04532,37.36326],[15.04626,37.36322],[15.04775,37.36326],[15.04915,37.36337],[15.05001,37.36363],[15.05177,37.36442],[15.05294,37.36489],[15.0534,37.36479],[15.05537,37.36376],[15.05592,37.36382],[15.05838,37.36144],[15.06847,37.36005],[15.076,37.35898],[15.07856,37.35863],[15.08204,37.35839],[15.08449,37.35832],[15.08547,37.35833],[15.08656,37.35842],[15.0865,37.36122],[15.08649,37.36173],[15.08465,37.3616],[15.0845,37.36506],[15.08307,37.36501],[15.08301,37.3652],[15.08225,37.3651],[15.08144,37.36513],[15.08112,37.36686],[15.0809,37.36675],[15.0791,37.36668],[15.07909,37.36656],[15.07086,37.36597],[15.06409,37.36551],[15.06382,37.36541],[15.06297,37.36557],[15.06244,37.36581],[15.06232,37.36608],[15.0631,37.36651],[15.06329,37.36641],[15.06416,37.36736],[15.06543,37.36827],[15.06881,37.37106],[15.06913,37.37152],[15.06998,37.37192],[15.06956,37.3721],[15.06745,37.37246],[15.06705,37.37245],[15.06634,37.37213],[15.06604,37.37258],[15.06483,37.37344],[15.06441,37.37307],[15.05868,37.37727],[15.06069,37.37903],[15.06149,37.37858],[15.06239,37.37835],[15.06325,37.37773],[15.0637,37.37719],[15.06447,37.37726],[15.06561,37.3775],[15.06652,37.3779],[15.0678,37.37811],[15.06872,37.37774],[15.07017,37.37757],[15.0716,37.37768],[15.0726,37.37718],[15.07287,37.37672],[15.07392,37.37639],[15.07496,37.37937],[15.07515,37.38039],[15.07454,37.38296],[15.07475,37.38597],[15.07522,37.38669],[15.0757,37.38681],[15.0785,37.38612],[15.07862,37.38632],[15.07941,37.38671],[15.07983,37.38721],[15.07766,37.38845],[15.07615,37.38959],[15.0768,37.39008],[15.07898,37.38917],[15.07972,37.38861],[15.08184,37.38764],[15.08241,37.38761],[15.08539,37.38714],[15.085,37.38796],[15.08505,37.39026],[15.0846,37.39028],[15.08463,37.39179],[15.08485,37.3918],[15.08798,37.39081],[15.08814,37.3926],[15.08809,37.39355],[15.08777,37.39503],[15.08785,37.39537],[15.08777,37.3971],[15.08826,37.39972],[15.08583,37.39915],[15.0861,37.40065],[15.08852,37.40129],[15.08873,37.40239],[15.0884,37.40229],[15.08781,37.40183],[15.08605,37.40131],[15.08588,37.40244],[15.08588,37.4036],[15.08573,37.40687],[15.08505,37.40688],[15.08485,37.40732],[15.08368,37.40749],[15.08341,37.40746],[15.08197,37.40884],[15.08176,37.40935],[15.08234,37.40937],[15.0817,37.41062],[15.08282,37.41125],[15.08269,37.41174],[15.08334,37.41168],[15.08517,37.41109],[15.08632,37.41044],[15.08672,37.41102],[15.08558,37.41164],[15.08426,37.41214],[15.08349,37.41234],[15.08199,37.41253],[15.07973,37.41235],[15.07868,37.41199],[15.0771,37.41112],[15.07543,37.40999],[15.07447,37.40906],[15.07406,37.40881],[15.07269,37.40818],[15.07194,37.40758],[15.0718,37.40774],[15.07255,37.40839],[15.07392,37.40906],[15.07442,37.40938],[15.0765,37.4111],[15.0784,37.4122],[15.07945,37.4126],[15.08043,37.41278],[15.08172,37.41275],[15.08321,37.4126],[15.08395,37.41246],[15.08478,37.41219],[15.08425,37.41275],[15.08085,37.41674],[15.08015,37.41796],[15.07961,37.41941],[15.07801,37.42724],[15.07771,37.42824],[15.07675,37.42993],[15.07622,37.43055],[15.07559,37.43115],[15.07458,37.43197],[15.07434,37.43233],[15.07298,37.43302],[15.0717,37.43351],[15.07141,37.43338],[15.07076,37.43361],[15.07067,37.43348],[15.06978,37.43373],[15.0693,37.4326],[15.06916,37.43122],[15.06921,37.43064],[15.06952,37.42946],[15.06951,37.4278],[15.06955,37.4269],[15.06977,37.42656],[15.07125,37.42647],[15.07141,37.42582],[15.07088,37.42521],[15.07009,37.42515],[15.07016,37.42409],[15.07036,37.42301],[15.0706,37.42107],[15.06929,37.42096],[15.07018,37.41844],[15.0701,37.41844],[15.06919,37.42095],[15.0654,37.42071],[15.06532,37.41633],[15.06348,37.41707],[15.06286,37.41727],[15.06203,37.41741],[15.05953,37.41775],[15.05925,37.41759],[15.05859,37.41687],[15.05884,37.41685],[15.05891,37.41169],[15.05954,37.41141],[15.05956,37.41124],[15.06475,37.40888],[15.06502,37.40892],[15.06521,37.40792],[15.0645,37.40823],[15.064,37.40885],[15.05631,37.4124],[15.05215,37.41364],[15.0467,37.41458],[15.04647,37.41425],[15.04691,37.41401],[15.04734,37.41154],[15.04518,37.40988],[15.04487,37.40985],[15.04325,37.41025],[15.041,37.4095],[15.0396,37.40968],[15.04152,37.41072],[15.04224,37.41122],[15.04296,37.41161],[15.04182,37.41571],[15.04223,37.41596],[15.04293,37.41541],[15.04318,37.41546],[15.04169,37.41658],[15.04169,37.41677],[15.0383,37.41961],[15.03753,37.41973],[15.03774,37.42087],[15.03711,37.4209],[15.03643,37.42147],[15.03327,37.42538],[15.03177,37.42718],[15.03117,37.42802],[15.03149,37.42846],[15.0307,37.4286],[15.03093,37.42903],[15.03019,37.43039],[15.02948,37.43188],[15.02879,37.43389],[15.02852,37.435],[15.02835,37.43634],[15.02764,37.43658],[15.02762,37.43753],[15.0277,37.43831],[15.02792,37.43944],[15.02744,37.43967],[15.02599,37.43546],[15.02574,37.4356],[15.02467,37.43542],[15.02481,37.43579],[15.02439,37.43592],[15.02061,37.43687],[15.02044,37.43694],[15.0167,37.43789],[15.01486,37.43846],[15.01325,37.43888],[15.01228,37.43896],[15.00879,37.43892],[15.00857,37.43889],[15.00807,37.43926],[15.00512,37.43846],[15.00308,37.4378],[15.00293,37.43768],[15.00122,37.43555],[15.00055,37.43556],[14.99977,37.43589],[14.99806,37.43619],[14.99784,37.43636],[14.99758,37.4377],[14.99781,37.43827],[14.99785,37.43887],[14.99722,37.44065],[14.99662,37.44207],[15.00938,37.44538],[15.00983,37.44852],[15.01006,37.44971],[15.01053,37.45286],[15.01153,37.4561],[15.01148,37.45662],[15.01187,37.4582],[15.01404,37.45804],[15.01621,37.45771],[15.01763,37.45741],[15.02019,37.45665],[15.02026,37.45675],[15.01904,37.45715],[15.01741,37.45759],[15.01599,37.45789],[15.01391,37.45818],[15.01177,37.45833],[15.0105,37.45965]],[[15.06966,37.43067],[15.07054,37.43079],[15.07035,37.43036],[15.06986,37.43012],[15.06966,37.43067]]]]},"properties":{"zona":"R","linkzona":"CT00001632","fascia":"R","fascia_label":"Extraurbana","descr":"AREE RURALI : C. DE ROBAVECCHIA - GROTTE SIMETO - SAN DEMETRIO - FIUMAZZ...","semestre":"2025-S2","loc_min":1.2,"loc_max":1.7,"loc_mid":1.45,"sup":"L","tipologia":"Abitazioni di tipo economico","stato":"NORMALE","trend":0.0,"trend_from":"2023-S2"}},{"type":"Feature","geometry":{"type":"Polygon","coordinates":[[[15.05211,37.47457],[15.05185,37.47473],[15.04933,37.47361],[15.04826,37.47317],[15.04625,37.47247],[15.04556,37.4724],[15.04464,37.47212],[15.04348,37.47154],[15.04188,37.47087],[15.0428,37.47061],[15.04367,37.46967],[15.04392,37.46976],[15.04529,37.46828],[15.04621,37.46769],[15.04616,37.46716],[15.04645,37.46686],[15.04596,37.46659],[15.04585,37.46593],[15.04616,37.46543],[15.04665,37.46541],[15.047,37.46523],[15.04707,37.46466],[15.04741,37.46486],[15.04854,37.46411],[15.05077,37.46609],[15.05604,37.47069],[15.05603,37.47054],[15.05191,37.46696],[15.04832,37.46377],[15.04842,37.46367],[15.04754,37.46287],[15.04743,37.46255],[15.04767,37.46223],[15.04759,37.4619],[15.04722,37.4618],[15.04701,37.46145],[15.0475,37.46089],[15.04904,37.46006],[15.05012,37.45915],[15.05069,37.45953],[15.05287,37.45755],[15.05285,37.45713],[15.05916,37.45702],[15.06567,37.45697],[15.06575,37.46206],[15.06748,37.46202],[15.06759,37.4617],[15.07244,37.46219],[15.07358,37.46223],[15.07525,37.46208],[15.07531,37.46275],[15.07809,37.46297],[15.08551,37.46372],[15.08557,37.46336],[15.08574,37.46338],[15.08555,37.46575],[15.08553,37.46749],[15.08556,37.46927],[15.08548,37.47007],[15.08555,37.47059],[15.08518,37.47302],[15.08532,37.47483],[15.08541,37.47506],[15.08527,37.47676],[15.08528,37.47745],[15.08559,37.47944],[15.08561,37.48026],[15.0859,37.4822],[15.08631,37.48406],[15.08681,37.48528],[15.08735,37.4862],[15.08791,37.48699],[15.08906,37.48824],[15.09334,37.48753],[15.09336,37.48747],[15.09554,37.48761],[15.09552,37.48772],[15.09353,37.4876],[15.09347,37.48791],[15.09124,37.48831],[15.09179,37.4904],[15.09183,37.49078],[15.09517,37.49063],[15.09523,37.49134],[15.09511,37.49146],[15.09508,37.49216],[15.09101,37.49236],[15.09105,37.49311],[15.09083,37.49324],[15.09115,37.49482],[15.09231,37.49482],[15.09223,37.49545],[15.09205,37.49546],[15.09206,37.4962],[15.09145,37.49618],[15.09141,37.49544],[15.09035,37.49545],[15.09034,37.49545],[15.09013,37.496],[15.08806,37.49626],[15.08743,37.49359],[15.08677,37.49363],[15.08653,37.49296],[15.08593,37.49303],[15.08573,37.49228],[15.08482,37.49235],[15.0847,37.49176],[15.08248,37.49223],[15.08244,37.49214],[15.07886,37.49262],[15.07868,37.49289],[15.07799,37.4927],[15.07711,37.49283],[15.07615,37.49364],[15.0763,37.49399],[15.07578,37.49405],[15.07565,37.49388],[15.07466,37.49327],[15.07464,37.49308],[15.07367,37.49179],[15.07341,37.4912],[15.07307,37.49105],[15.07293,37.49055],[15.07322,37.49033],[15.07327,37.48842],[15.07261,37.48851],[15.07211,37.48677],[15.0725,37.48642],[15.07326,37.48601],[15.07302,37.48548],[15.07249,37.48477],[15.07233,37.48479],[15.0683,37.48129],[15.06716,37.48016],[15.0662,37.47931],[15.06568,37.47947],[15.0655,37.47979],[15.06462,37.47963],[15.06428,37.47941],[15.0629,37.47992],[15.06211,37.4798],[15.06169,37.47921],[15.05911,37.47741],[15.05604,37.47548],[15.05412,37.47467],[15.05283,37.4743],[15.05211,37.47457]]]},"properties":{"zona":"D1","linkzona":"CT00000033","fascia":"D","fascia_label":"Periferica","descr":"VILLAGGIO S.M.GORETTI, ACQUICELLA, ASSE DEI SERVIZI, AEROPORTO.","semestre":"2025-S2","loc_min":2.6,"loc_max":3.4,"loc_mid":3.0,"sale_min":740.0,"sale_max":1000.0,"sup":"L","tipologia":"Abitazioni civili","stato":"NORMALE","trend":-1.6,"trend_from":"2023-S2"}},{"type":"Feature","geometry":{"type":"Polygon","coordinates":[[[15.0868,37.50879],[15.08658,37.50941],[15.08635,37.51076],[15.08661,37.51095],[15.08644,37.51217],[15.08641,37.51298],[15.08778,37.51267],[15.08803,37.51268],[15.08794,37.51408],[15.08772,37.51409],[15.08667,37.51407],[15.08626,37.51421],[15.08504,37.51413],[15.08472,37.51632],[15.08418,37.51629],[15.08384,37.51655],[15.08298,37.51646],[15.08258,37.51475],[15.0825,37.51409],[15.08225,37.51283],[15.08229,37.51229],[15.08275,37.50878],[15.08283,37.50858],[15.08312,37.50786],[15.0838,37.50775],[15.08455,37.50683],[15.08549,37.50686],[15.08559,37.50699],[15.08607,37.50481],[15.08759,37.50488],[15.08758,37.50552],[15.08727,37.50613],[15.08711,37.5069],[15.08766,37.50695],[15.08748,37.50754],[15.0872,37.50781],[15.0868,37.50879]]]},"properties":{"zona":"B2","linkzona":"CT00000683","fascia":"B","fascia_label":"Centrale","descr":"Villa Bellini, P.zza Roma, Etnea/P, L.go Paisiello, XX Settembre/P, Stesic...","semestre":"2025-S2","loc_min":4.6,"loc_max":6.7,"loc_mid":5.65,"sale_min":1300.0,"sale_max":1900.0,"sup":"L","tipologia":"Abitazioni civili","stato":"NORMALE","trend":0.9,"trend_from":"2023-S2"}},{"type":"Feature","geometry":{"type":"MultiPolygon","coordinates":[[[[15.08672,37.50937],[15.08658,37.50941],[15.0868,37.50879],[15.0872,37.50781],[15.08748,37.50754],[15.08766,37.50695],[15.08711,37.5069],[15.08727,37.50613],[15.08758,37.50552],[15.08759,37.50488],[15.08782,37.50531],[15.08732,37.5062],[15.08719,37.5069],[15.08792,37.50681],[15.08824,37.50628],[15.08886,37.50615],[15.09108,37.50622],[15.09258,37.5063],[15.09319,37.50627],[15.09576,37.50634],[15.09589,37.50651],[15.09773,37.50659],[15.09857,37.50643],[15.10015,37.50723],[15.09944,37.5076],[15.10038,37.50855],[15.0985,37.50849],[15.0985,37.50808],[15.09288,37.50776],[15.09265,37.50897],[15.09247,37.5091],[15.09141,37.50881],[15.09051,37.50872],[15.08883,37.5087],[15.0884,37.50884],[15.08795,37.50875],[15.08719,37.50803],[15.08667,37.5093],[15.08672,37.50937]]],[[[15.1027,37.50618],[15.10242,37.50593],[15.10167,37.50585],[15.10126,37.50593],[15.10103,37.50572],[15.10187,37.50568],[15.1022,37.50578],[15.10251,37.50598],[15.1027,37.50618]]],[[[15.10094,37.50573],[15.10067,37.50585],[15.09988,37.5058],[15.09968,37.50564],[15.10074,37.50563],[15.10094,37.50573]]]]},"properties":{"zona":"B6","linkzona":"CT00000687","fascia":"B","fascia_label":"Centrale","descr":"C.so Sicilia, P.zza Repubblica, C.so Martiri, Sturzo, Teocrito, Di Prima, ...","semestre":"2025-S2","loc_min":4.1,"loc_max":6.1,"loc_mid":5.1,"sale_min":1200.0,"sale_max":1750.0,"sup":"L","tipologia":"Abitazioni civili","stato":"NORMALE","trend":2.0,"trend_from":"2023-S2"}},{"type":"Feature","geometry":{"type":"Polygon","coordinates":[[[15.11207,37.53167],[15.11186,37.53141],[15.11229,37.53097],[15.11232,37.53042],[15.11294,37.53035],[15.11346,37.52964],[15.1135,37.52928],[15.11436,37.52951],[15.11545,37.52927],[15.11546,37.52964],[15.1148,37.53044],[15.11505,37.53058],[15.11585,37.52967],[15.1161,37.52911],[15.11614,37.5284],[15.11676,37.52774],[15.11677,37.52734],[15.11701,37.52676],[15.11654,37.52664],[15.11666,37.52611],[15.11708,37.5258],[15.11729,37.52537],[15.11732,37.52474],[15.11755,37.52439],[15.11729,37.52407],[15.11749,37.52385],[15.11762,37.52372],[15.12569,37.53455],[15.12582,37.53455],[15.12527,37.53593],[15.12497,37.53683],[15.12456,37.53743],[15.12419,37.53772],[15.12305,37.53937],[15.1229,37.53949],[15.12089,37.53935],[15.11936,37.53869],[15.11886,37.53826],[15.11798,37.53727],[15.11691,37.53636],[15.11717,37.53616],[15.11666,37.53567],[15.11651,37.53616],[15.11601,37.53587],[15.11602,37.53551],[15.11552,37.53539],[15.11458,37.53452],[15.11431,37.5349],[15.11387,37.53467],[15.11325,37.53374],[15.11303,37.53259],[15.11278,37.53234],[15.1139,37.5318],[15.11315,37.53163],[15.11264,37.53186],[15.11207,37.53167]],[[15.11735,37.53627],[15.11709,37.53642],[15.11777,37.5369],[15.11792,37.53679],[15.11735,37.53627]]]},"properties":{"zona":"D9","linkzona":"CT00002792","fascia":"D","fascia_label":"Periferica","descr":"PERIFERIA NORD VIA VILLINI A MARE VIA MESSINA VIA BATTELLO","semestre":"2025-S2","loc_min":4.6,"loc_max":6.9,"loc_mid":5.75,"sale_min":1300.0,"sale_max":1900.0,"sup":"L","tipologia":"Abitazioni civili","stato":"NORMALE","trend":0.9,"trend_from":"2023-S2"}},{"type":"Feature","geometry":{"type":"Polygon","coordinates":[[[15.07261,37.48851],[15.07223,37.48864],[15.07199,37.48838],[15.06472,37.48784],[15.06461,37.48823],[15.06378,37.48798],[15.0635,37.48827],[15.06422,37.48874],[15.06465,37.48882],[15.06405,37.49145],[15.06347,37.49225],[15.06295,37.49189],[15.06244,37.4913],[15.06189,37.49135],[15.06103,37.49167],[15.06083,37.49216],[15.05996,37.49249],[15.05915,37.4925],[15.05888,37.49273],[15.05913,37.49317],[15.05916,37.49378],[15.05671,37.49427],[15.05566,37.49458],[15.05408,37.49439],[15.05205,37.49431],[15.05126,37.49409],[15.04999,37.49393],[15.0493,37.49365],[15.04832,37.4934],[15.04835,37.49293],[15.04814,37.49263],[15.04759,37.49247],[15.04757,37.49219],[15.04714,37.49218],[15.04702,37.49255],[15.04642,37.49234],[15.04595,37.49244],[15.04571,37.49221],[15.04567,37.49174],[15.04508,37.4917],[15.04502,37.49142],[15.04391,37.49139],[15.04354,37.49147],[15.04348,37.49174],[15.04254,37.4916],[15.04153,37.49158],[15.04061,37.49118],[15.04024,37.49093],[15.03924,37.49074],[15.03845,37.49074],[15.03775,37.49016],[15.03707,37.48992],[15.03615,37.48941],[15.03584,37.4889],[15.035,37.48841],[15.03471,37.4881],[15.0337,37.48799],[15.03254,37.48777],[15.03164,37.48777],[15.03114,37.48765],[15.02991,37.48766],[15.02911,37.48772],[15.02799,37.48741],[15.02691,37.48728],[15.02501,37.48668],[15.02543,37.48617],[15.02552,37.48581],[15.02542,37.48509],[15.02555,37.48454],[15.02547,37.4841],[15.02583,37.48289],[15.02674,37.48104],[15.0271,37.48082],[15.02731,37.48044],[15.02707,37.47974],[15.02686,37.47863],[15.02722,37.47681],[15.02711,37.47631],[15.02717,37.47589],[15.02709,37.4752],[15.02663,37.47452],[15.02584,37.47368],[15.02522,37.47327],[15.02397,37.47324],[15.02379,37.47298],[15.0233,37.47135],[15.02327,37.46967],[15.02332,37.46872],[15.02341,37.46854],[15.02401,37.46865],[15.02443,37.46842],[15.02569,37.46746],[15.02623,37.46613],[15.02803,37.46675],[15.02974,37.46718],[15.03134,37.46762],[15.03431,37.46839],[15.03688,37.46891],[15.03814,37.4694],[15.03889,37.46988],[15.03951,37.47016],[15.04098,37.47057],[15.04188,37.47087],[15.04348,37.47154],[15.04464,37.47212],[15.04556,37.4724],[15.04625,37.47247],[15.04826,37.47317],[15.04933,37.47361],[15.05185,37.47473],[15.05211,37.47457],[15.05283,37.4743],[15.05412,37.47467],[15.05604,37.47548],[15.05911,37.47741],[15.06169,37.47921],[15.06211,37.4798],[15.0629,37.47992],[15.06428,37.47941],[15.06462,37.47963],[15.0655,37.47979],[15.06568,37.47947],[15.0662,37.47931],[15.06716,37.48016],[15.0683,37.48129],[15.07233,37.48479],[15.07249,37.48477],[15.07302,37.48548],[15.07326,37.48601],[15.0725,37.48642],[15.07211,37.48677],[15.07261,37.48851]]]},"properties":{"zona":"E3","linkzona":"CT00000704","fascia":"E","fascia_label":"Suburbana","descr":"S.Teodoro, Librino, V.le Castagnola, Bummacaro, Villaggio Sant Agata","semestre":"2025-S2","loc_min":2.9,"loc_max":4.2,"loc_mid":3.55,"sale_min":810.0,"sale_max":1200.0,"sup":"L","tipologia":"Abitazioni civili","stato":"NORMALE","trend":1.4,"trend_from":"2023-S2"}},{"type":"Feature","geometry":{"type":"Polygon","coordinates":[[[15.0697,37.52246],[15.06974,37.52219],[15.06999,37.52124],[15.06989,37.52101],[15.0692,37.52054],[15.06901,37.52026],[15.06924,37.5198],[15.06912,37.51935],[15.06906,37.51814],[15.06915,37.51755],[15.06996,37.51719],[15.06967,37.51676],[15.06916,37.51657],[15.06962,37.51554],[15.06892,37.51583],[15.06938,37.51404],[15.06877,37.51419],[15.06924,37.5125],[15.06863,37.51242],[15.06861,37.51104],[15.06803,37.51108],[15.06795,37.51127],[15.06659,37.51139],[15.06636,37.51146],[15.06563,37.51055],[15.06564,37.50943],[15.06658,37.50942],[15.06723,37.50957],[15.0673,37.50922],[15.06741,37.50954],[15.06744,37.50956],[15.06911,37.50986],[15.07142,37.51025],[15.07187,37.50894],[15.07201,37.50743],[15.07296,37.50765],[15.07278,37.50796],[15.07404,37.50828],[15.07564,37.50841],[15.07553,37.50933],[15.07536,37.50961],[15.07435,37.50978],[15.075,37.51042],[15.07473,37.51146],[15.0749,37.51167],[15.07463,37.51268],[15.07603,37.51304],[15.07631,37.51301],[15.07738,37.51257],[15.07801,37.51289],[15.07884,37.51358],[15.07897,37.51399],[15.07876,37.51431],[15.07814,37.51655],[15.07803,37.51658],[15.07771,37.5191],[15.07759,37.51972],[15.07781,37.51984],[15.07765,37.52071],[15.07744,37.5208],[15.0774,37.52136],[15.07647,37.52228],[15.07625,37.52261],[15.07586,37.52278],[15.0758,37.52375],[15.07605,37.52385],[15.07618,37.52435],[15.07538,37.52411],[15.0743,37.52361],[15.0738,37.52327],[15.0739,37.52301],[15.07338,37.52297],[15.0729,37.52233],[15.07182,37.52212],[15.07127,37.52237],[15.07046,37.52229],[15.06978,37.52232],[15.0697,37.52246]]]},"properties":{"zona":"C2","linkzona":"CT00000688","fascia":"C","fascia_label":"Semicentrale","descr":"Via Cifali, V.le Rapisardi/P, Stadio, Bronte, Lavaggi, Fava, Montessor...","semestre":"2025-S2","loc_min":3.2,"loc_max":4.8,"loc_mid":4.0,"sale_min":910.0,"sale_max":1350.0,"sup":"L","tipologia":"Abitazioni civili","stato":"NORMALE","trend":-11.1,"trend_from":"2023-S2"}},{"type":"Feature","geometry":{"type":"Polygon","coordinates":[[[15.07564,37.50841],[15.07654,37.50845],[15.07655,37.50825],[15.07764,37.50783],[15.07849,37.5078],[15.07872,37.50749],[15.07907,37.50743],[15.07939,37.50739],[15.08014,37.50751],[15.08072,37.50743],[15.08094,37.5078],[15.08124,37.50791],[15.08101,37.5085],[15.082,37.50837],[15.08283,37.50858],[15.08275,37.50878],[15.08229,37.51229],[15.08225,37.51283],[15.0825,37.51409],[15.08246,37.51421],[15.08051,37.51415],[15.07897,37.51399],[15.07884,37.51358],[15.07801,37.51289],[15.07738,37.51257],[15.07631,37.51301],[15.07603,37.51304],[15.07463,37.51268],[15.0749,37.51167],[15.07473,37.51146],[15.075,37.51042],[15.07435,37.50978],[15.07536,37.50961],[15.07553,37.50933],[15.07564,37.50841]]]},"properties":{"zona":"B4","linkzona":"CT00000685","fascia":"B","fascia_label":"Centrale","descr":"P.ZZA S.M.GESU, ROCCAROMANA, ANDRONE, NICITO, UGHETTI, MARGHERITA/P, PRESI...","semestre":"2025-S2","loc_min":3.4,"loc_max":5.1,"loc_mid":4.25,"sale_min":1000.0,"sale_max":1500.0,"sup":"L","tipologia":"Abitazioni civili","stato":"NORMALE","trend":3.7,"trend_from":"2023-S2"}},{"type":"Feature","geometry":{"type":"Polygon","coordinates":[[[15.09034,37.49545],[15.09045,37.4959],[15.09047,37.49598],[15.09052,37.49621],[15.09064,37.49673],[15.09061,37.49682],[15.0906,37.49684],[15.0905,37.49698],[15.08946,37.49853],[15.08924,37.49852],[15.08998,37.4974],[15.08893,37.49692],[15.08764,37.49775],[15.0876,37.49747],[15.08649,37.49762],[15.08613,37.49787],[15.08553,37.4976],[15.08483,37.49713],[15.08442,37.49698],[15.08437,37.49673],[15.08363,37.49653],[15.08349,37.49618],[15.08291,37.49622],[15.08312,37.49706],[15.07976,37.49772],[15.08007,37.49804],[15.07693,37.49875],[15.07638,37.49912],[15.07618,37.49905],[15.07507,37.498],[15.07477,37.49809],[15.0728,37.49824],[15.07282,37.49767],[15.07327,37.49394],[15.07335,37.4938],[15.07437,37.49317],[15.07466,37.49327],[15.07565,37.49388],[15.07578,37.49405],[15.0763,37.49399],[15.07615,37.49364],[15.07711,37.49283],[15.07799,37.4927],[15.07868,37.49289],[15.07886,37.49262],[15.08244,37.49214],[15.08248,37.49223],[15.0847,37.49176],[15.08482,37.49235],[15.08573,37.49228],[15.08593,37.49303],[15.08653,37.49296],[15.08677,37.49363],[15.08743,37.49359],[15.08806,37.49626],[15.09013,37.496],[15.09034,37.49545]]]},"properties":{"zona":"C6","fascia":"C","fascia_label":"Semicentrale","redefined":true,"loc_min":null,"loc_max":null,"loc_mid":null}},{"type":"Feature","geometry":{"type":"MultiPolygon","coordinates":[[[[15.10382,37.51034],[15.10446,37.51226],[15.10385,37.51235],[15.10376,37.51277],[15.10431,37.51277],[15.10413,37.51308],[15.10336,37.51313],[15.10348,37.51338],[15.1027,37.51352],[15.10105,37.51323],[15.10061,37.51404],[15.09875,37.51375],[15.09869,37.5134],[15.09782,37.51273],[15.09769,37.51247],[15.09696,37.51236],[15.09684,37.51252],[15.0963,37.51243],[15.09609,37.51293],[15.09523,37.51281],[15.09507,37.51292],[15.09114,37.51231],[15.09083,37.51329],[15.08838,37.51292],[15.08809,37.51298],[15.08794,37.51408],[15.08803,37.51268],[15.08778,37.51267],[15.08641,37.51298],[15.08644,37.51217],[15.08661,37.51095],[15.08635,37.51076],[15.08658,37.50941],[15.08672,37.50937],[15.08667,37.5093],[15.08719,37.50803],[15.08795,37.50875],[15.0884,37.50884],[15.08883,37.5087],[15.09051,37.50872],[15.09141,37.50881],[15.09247,37.5091],[15.09265,37.50897],[15.09288,37.50776],[15.0985,37.50808],[15.0985,37.50849],[15.10038,37.50855],[15.1005,37.50868],[15.10177,37.50805],[15.10241,37.50827],[15.10294,37.50862],[15.10353,37.50947],[15.10382,37.51034]]],[[[15.10499,37.51235],[15.10476,37.51227],[15.1048,37.51195],[15.10441,37.51071],[15.10442,37.50933],[15.10493,37.50925],[15.10484,37.51019],[15.10524,37.51075],[15.10512,37.51196],[15.10499,37.51235]]],[[[15.10394,37.51047],[15.10363,37.50948],[15.10377,37.50945],[15.10468,37.51224],[15.10449,37.51226],[15.10394,37.51047]]]]},"properties":{"zona":"B3","linkzona":"CT00000684","fascia":"B","fascia_label":"Centrale","descr":"CARLO ALBERTO-BOVIO-VITT.EMANUELE III- --ALFONZETTI-COSTA-ASILO S. AGATA-C...","semestre":"2025-S2","loc_min":3.9,"loc_max":5.8,"loc_mid":4.85,"sale_min":1100.0,"sale_max":1600.0,"sup":"L","tipologia":"Abitazioni civili","stato":"NORMALE","trend":5.4,"trend_from":"2023-S2"}},{"type":"Feature","geometry":{"type":"Polygon","coordinates":[[[15.09163,37.4028],[15.09244,37.40311],[15.09175,37.40483],[15.09169,37.40539],[15.09235,37.40617],[15.09242,37.40645],[15.09186,37.40765],[15.09163,37.40841],[15.09128,37.40925],[15.09126,37.41244],[15.09072,37.41943],[15.0904,37.42261],[15.08996,37.42529],[15.08974,37.42624],[15.08983,37.42702],[15.08967,37.42861],[15.08926,37.43171],[15.08867,37.4335],[15.0886,37.43417],[15.08933,37.4343],[15.08911,37.43543],[15.08875,37.43829],[15.08854,37.43924],[15.08827,37.44004],[15.08807,37.44034],[15.08787,37.44103],[15.08783,37.44243],[15.08789,37.44282],[15.08728,37.44536],[15.0871,37.44735],[15.08697,37.44791],[15.08687,37.44984],[15.08654,37.45152],[15.0866,37.45227],[15.08636,37.45331],[15.08637,37.45449],[15.08627,37.45508],[15.08631,37.4557],[15.08616,37.45634],[15.08607,37.45817],[15.08584,37.45985],[15.08589,37.46062],[15.08577,37.46137],[15.08585,37.46209],[15.08575,37.46337],[15.08557,37.46336],[15.08551,37.46372],[15.07809,37.46297],[15.07531,37.46275],[15.07525,37.46208],[15.07358,37.46223],[15.07244,37.46219],[15.06759,37.4617],[15.06748,37.46202],[15.06575,37.46206],[15.06567,37.45697],[15.06563,37.4531],[15.06756,37.4532],[15.06752,37.45246],[15.06784,37.45152],[15.0681,37.4503],[15.06814,37.44885],[15.06821,37.44883],[15.06799,37.44699],[15.06817,37.444],[15.06832,37.44317],[15.06897,37.44091],[15.06898,37.44029],[15.06881,37.43859],[15.06895,37.43628],[15.06889,37.43558],[15.06856,37.43473],[15.06972,37.43418],[15.07076,37.43361],[15.07141,37.43338],[15.0717,37.43351],[15.07298,37.43302],[15.07434,37.43233],[15.07458,37.43197],[15.07559,37.43115],[15.07622,37.43055],[15.07675,37.42993],[15.07771,37.42824],[15.07801,37.42724],[15.07961,37.41941],[15.08015,37.41796],[15.08085,37.41674],[15.08425,37.41275],[15.08478,37.41219],[15.08681,37.41115],[15.08672,37.41102],[15.08632,37.41044],[15.08517,37.41109],[15.08334,37.41168],[15.08269,37.41174],[15.08282,37.41125],[15.0817,37.41062],[15.08234,37.40937],[15.08176,37.40935],[15.08197,37.40884],[15.08341,37.40746],[15.08368,37.40749],[15.08485,37.40732],[15.08505,37.40688],[15.08573,37.40687],[15.08588,37.4036],[15.08588,37.40244],[15.08605,37.40131],[15.08781,37.40183],[15.0884,37.40229],[15.08873,37.40239],[15.08852,37.40129],[15.0861,37.40065],[15.08583,37.39915],[15.08826,37.39972],[15.08777,37.3971],[15.08785,37.39537],[15.08777,37.39503],[15.08809,37.39355],[15.08814,37.3926],[15.08798,37.39081],[15.08485,37.3918],[15.08463,37.39179],[15.0846,37.39028],[15.08505,37.39026],[15.085,37.38796],[15.08539,37.38714],[15.08241,37.38761],[15.08184,37.38764],[15.07972,37.38861],[15.07898,37.38917],[15.0768,37.39008],[15.07615,37.38959],[15.07766,37.38845],[15.07983,37.38721],[15.07941,37.38671],[15.07862,37.38632],[15.0785,37.38612],[15.0757,37.38681],[15.07522,37.38669],[15.07475,37.38597],[15.07454,37.38296],[15.07515,37.38039],[15.07496,37.37937],[15.07392,37.37639],[15.07287,37.37672],[15.0726,37.37718],[15.0716,37.37768],[15.07017,37.37757],[15.06872,37.37774],[15.0678,37.37811],[15.06652,37.3779],[15.06561,37.3775],[15.06447,37.37726],[15.0637,37.37719],[15.06325,37.37773],[15.06239,37.37835],[15.06149,37.37858],[15.06069,37.37903],[15.05868,37.37727],[15.06441,37.37307],[15.06483,37.37344],[15.06604,37.37258],[15.06634,37.37213],[15.06705,37.37245],[15.06745,37.37246],[15.06956,37.3721],[15.06998,37.37192],[15.06913,37.37152],[15.06881,37.37106],[15.06543,37.36827],[15.06416,37.36736],[15.06329,37.36641],[15.0631,37.36651],[15.06232,37.36608],[15.06244,37.36581],[15.06297,37.36557],[15.06382,37.36541],[15.06409,37.36551],[15.07086,37.36597],[15.07909,37.36656],[15.0791,37.36668],[15.0809,37.36675],[15.08112,37.36686],[15.08144,37.36513],[15.08225,37.3651],[15.08301,37.3652],[15.08307,37.36501],[15.0845,37.36506],[15.08465,37.3616],[15.08649,37.36173],[15.0865,37.36122],[15.08656,37.35842],[15.08787,37.35843],[15.08962,37.35831],[15.09144,37.3584],[15.09142,37.35963],[15.09128,37.36022],[15.09118,37.3611],[15.09096,37.36211],[15.09098,37.36306],[15.09112,37.36329],[15.09099,37.36424],[15.09093,37.36533],[15.09081,37.36621],[15.09098,37.36661],[15.09088,37.36706],[15.09096,37.36748],[15.09084,37.36797],[15.09088,37.36838],[15.09074,37.36949],[15.09079,37.37001],[15.09069,37.37114],[15.09071,37.3719],[15.09063,37.37251],[15.09074,37.37273],[15.09077,37.37396],[15.09065,37.3749],[15.09076,37.37528],[15.0906,37.37709],[15.0908,37.37739],[15.09069,37.37877],[15.09054,37.37956],[15.09068,37.38087],[15.09055,37.3824],[15.09072,37.38307],[15.09065,37.38363],[15.09073,37.38447],[15.09064,37.38497],[15.09069,37.38648],[15.09063,37.38676],[15.09066,37.38863],[15.09057,37.39049],[15.0908,37.3911],[15.09073,37.39214],[15.09058,37.39309],[15.09095,37.39471],[15.09191,37.39699],[15.09209,37.3978],[15.092,37.39961],[15.09033,37.39965],[15.09068,37.40143],[15.09138,37.40163],[15.09151,37.40188],[15.09127,37.40226],[15.09087,37.40252],[15.09163,37.4028]],[[15.08574,37.38322],[15.08525,37.38335],[15.08406,37.38463],[15.08358,37.385],[15.07876,37.38606],[15.0796,37.38678],[15.08011,37.38706],[15.08111,37.3868],[15.08267,37.3859],[15.08688,37.38538],[15.08608,37.38359],[15.08574,37.38322]]]},"properties":{"zona":"E4","linkzona":"CT00000705","fascia":"E","fascia_label":"Suburbana","descr":"S.F. La Rena, Vaccarizzo, Villaggio Paradiso Aranci, Villaggio Primosole,...","semestre":"2025-S2","loc_min":1.5,"loc_max":2.1,"loc_mid":1.8,"sup":"L","tipologia":"Abitazioni di tipo economico","stato":"NORMALE","trend":2.9,"trend_from":"2023-S2"}},{"type":"Feature","geometry":{"type":"MultiPolygon","coordinates":[[[[15.09035,37.49545],[15.09045,37.4959],[15.09034,37.49545],[15.09035,37.49545]]],[[[15.08946,37.49853],[15.08947,37.4989],[15.08976,37.49906],[15.08966,37.49946],[15.08927,37.50003],[15.0889,37.50019],[15.08828,37.49996],[15.08776,37.50024],[15.08729,37.50004],[15.08637,37.50109],[15.08536,37.50056],[15.085,37.5013],[15.08368,37.5012],[15.08366,37.5015],[15.07999,37.50081],[15.07992,37.50282],[15.07841,37.50285],[15.07869,37.50311],[15.07872,37.50364],[15.07853,37.50403],[15.07859,37.50466],[15.07877,37.50514],[15.07958,37.50512],[15.07977,37.5054],[15.08036,37.50541],[15.08038,37.5062],[15.08047,37.50645],[15.08044,37.5072],[15.08006,37.50735],[15.0796,37.50712],[15.07939,37.50739],[15.07907,37.50743],[15.07872,37.50742],[15.07866,37.50703],[15.07816,37.50677],[15.07791,37.50616],[15.07823,37.50587],[15.07728,37.50536],[15.07681,37.5056],[15.07673,37.50525],[15.07598,37.50497],[15.07528,37.50493],[15.07569,37.50423],[15.07519,37.50386],[15.07521,37.50277],[15.07569,37.50124],[15.07627,37.50041],[15.0756,37.50022],[15.07561,37.49954],[15.07592,37.49908],[15.07618,37.49905],[15.07638,37.49912],[15.07693,37.49875],[15.08007,37.49804],[15.07976,37.49772],[15.08312,37.49706],[15.08291,37.49622],[15.08349,37.49618],[15.08363,37.49653],[15.08437,37.49673],[15.08442,37.49698],[15.08483,37.49713],[15.08553,37.4976],[15.08613,37.49787],[15.08649,37.49762],[15.0876,37.49747],[15.08764,37.49775],[15.08893,37.49692],[15.08998,37.4974],[15.08924,37.49852],[15.08946,37.49853]]]]},"properties":{"zona":"B8","linkzona":"CT00001513","fascia":"B","fascia_label":"Centrale","descr":"Castello Ursino, S.Cristofaro, P.zza Macchiavelli, Velis, Plebiscito/P, Pr...","semestre":"2025-S2","loc_min":3.3,"loc_max":4.9,"loc_mid":4.1,"sale_min":1000.0,"sale_max":1450.0,"sup":"L","tipologia":"Abitazioni civili","stato":"NORMALE","trend":1.2,"trend_from":"2023-S2"}},{"type":"Feature","geometry":{"type":"Polygon","coordinates":[[[15.0825,37.51409],[15.08258,37.51475],[15.08298,37.51646],[15.08384,37.51655],[15.08418,37.51629],[15.08472,37.51632],[15.08504,37.51413],[15.08626,37.51421],[15.08667,37.51407],[15.08772,37.51409],[15.0879,37.51439],[15.089,37.51458],[15.08874,37.51593],[15.08761,37.51582],[15.08786,37.51722],[15.09042,37.51749],[15.09041,37.51817],[15.09155,37.51829],[15.0915,37.51863],[15.09347,37.51864],[15.09379,37.51857],[15.09417,37.51885],[15.09524,37.51887],[15.09511,37.51963],[15.09433,37.51955],[15.09431,37.51971],[15.09514,37.51979],[15.09486,37.52162],[15.09492,37.52165],[15.09465,37.52327],[15.09367,37.52316],[15.09365,37.52328],[15.0959,37.52339],[15.09595,37.52403],[15.09604,37.5245],[15.09695,37.52504],[15.0976,37.52527],[15.09563,37.52686],[15.0954,37.52713],[15.09465,37.52837],[15.09459,37.52843],[15.09262,37.52812],[15.09109,37.52803],[15.09104,37.52822],[15.09013,37.52807],[15.0866,37.52801],[15.08537,37.52795],[15.08493,37.52785],[15.08311,37.5272],[15.08281,37.52678],[15.08215,37.52647],[15.08088,37.52625],[15.07987,37.52629],[15.07899,37.52621],[15.07878,37.52593],[15.0771,37.5255],[15.07662,37.52502],[15.07618,37.52435],[15.07605,37.52385],[15.0758,37.52375],[15.07586,37.52278],[15.07625,37.52261],[15.07647,37.52228],[15.0774,37.52136],[15.07744,37.5208],[15.07765,37.52071],[15.07781,37.51984],[15.07759,37.51972],[15.07771,37.5191],[15.07803,37.51658],[15.07814,37.51655],[15.07876,37.51431],[15.07897,37.51399],[15.08051,37.51415],[15.08246,37.51421],[15.0825,37.51409]],[[15.09361,37.52344],[15.09487,37.52354],[15.09489,37.52342],[15.09363,37.52333],[15.09361,37.52344]]]},"properties":{"zona":"C5","linkzona":"CT00000691","fascia":"C","fascia_label":"Semicentrale","descr":"Lincoln, Torino, A.Moro, Canfora, Provincie/P, Sanzio, Giuffrida, Milo...","semestre":"2025-S2","loc_min":4.3,"loc_max":6.3,"loc_mid":5.3,"sale_min":1150.0,"sale_max":1700.0,"sup":"L","tipologia":"Abitazioni civili","stato":"NORMALE","trend":-2.8,"trend_from":"2023-S2"}},{"type":"Feature","geometry":{"type":"MultiPolygon","coordinates":[[[[15.09595,37.52403],[15.09645,37.52433],[15.09684,37.52408],[15.09756,37.52336],[15.098,37.52269],[15.09838,37.52236],[15.09796,37.52204],[15.09781,37.52156],[15.09725,37.5207],[15.09751,37.5196],[15.09727,37.51912],[15.09749,37.51885],[15.09808,37.5186],[15.09834,37.51834],[15.09907,37.51848],[15.09956,37.51885],[15.09978,37.51866],[15.10021,37.51889],[15.10156,37.51909],[15.10176,37.51926],[15.10244,37.51878],[15.10401,37.52004],[15.10418,37.52007],[15.10512,37.51933],[15.10536,37.51943],[15.10648,37.52048],[15.10803,37.5222],[15.11061,37.52424],[15.10999,37.52469],[15.10986,37.52497],[15.11022,37.52644],[15.11012,37.52647],[15.1105,37.52808],[15.11078,37.52829],[15.11042,37.52891],[15.11006,37.53003],[15.11043,37.53084],[15.11009,37.53136],[15.10955,37.53146],[15.10861,37.53125],[15.1073,37.53142],[15.10378,37.53178],[15.10267,37.53187],[15.10152,37.53176],[15.10042,37.53136],[15.10013,37.53178],[15.09937,37.5307],[15.09843,37.52977],[15.09782,37.52929],[15.09656,37.52868],[15.09597,37.52854],[15.09465,37.52837],[15.0954,37.52713],[15.09563,37.52686],[15.0976,37.52527],[15.09695,37.52504],[15.09604,37.5245],[15.09595,37.52403]]],[[[15.10047,37.53268],[15.10042,37.53279],[15.10007,37.53212],[15.10047,37.53268]]],[[[15.10043,37.53301],[15.10039,37.53301],[15.10042,37.53289],[15.10043,37.53301]]]]},"properties":{"zona":"C3","linkzona":"CT00000689","fascia":"C","fascia_label":"Semicentrale","descr":"PICANELLO  :BORRELLO- CAVALIERE- DE CARO - FARACI- PETRELLA - LICCIARD...","semestre":"2025-S2","loc_min":3.6,"loc_max":5.3,"loc_mid":4.45,"sale_min":1000.0,"sale_max":1500.0,"sup":"L","tipologia":"Abitazioni civili","stato":"NORMALE","trend":-1.1,"trend_from":"2023-S2"}},{"type":"Feature","geometry":{"type":"Polygon","coordinates":[[[15.06911,37.50986],[15.06932,37.50868],[15.06947,37.50848],[15.06966,37.50774],[15.06963,37.5072],[15.06986,37.5061],[15.07006,37.50451],[15.07005,37.50425],[15.07047,37.50437],[15.07055,37.50365],[15.07029,37.5036],[15.07025,37.5036],[15.07005,37.5031],[15.06971,37.50279],[15.07128,37.50236],[15.07194,37.50167],[15.07216,37.50036],[15.07248,37.50031],[15.07273,37.49988],[15.07236,37.49928],[15.07273,37.49899],[15.0728,37.49824],[15.07477,37.49809],[15.07507,37.498],[15.07618,37.49905],[15.07592,37.49908],[15.07561,37.49954],[15.0756,37.50022],[15.07627,37.50041],[15.07569,37.50124],[15.07521,37.50277],[15.07519,37.50386],[15.07569,37.50423],[15.07528,37.50493],[15.07598,37.50497],[15.07673,37.50525],[15.07681,37.5056],[15.07728,37.50536],[15.07823,37.50587],[15.07791,37.50616],[15.07816,37.50677],[15.07866,37.50703],[15.07872,37.50742],[15.07907,37.50743],[15.07872,37.50749],[15.07849,37.5078],[15.07764,37.50783],[15.07655,37.50825],[15.07654,37.50845],[15.07564,37.50841],[15.07404,37.50828],[15.07278,37.50796],[15.07296,37.50765],[15.07201,37.50743],[15.07187,37.50894],[15.07142,37.51025],[15.06911,37.50986]]]},"properties":{"zona":"C8","fascia":"C","fascia_label":"Semicentrale","redefined":true,"loc_min":null,"loc_max":null,"loc_mid":null}},{"type":"Feature","geometry":{"type":"Polygon","coordinates":[[[15.11278,37.53234],[15.11241,37.5324],[15.11071,37.53164],[15.1106,37.53132],[15.11009,37.53136],[15.11043,37.53084],[15.11006,37.53003],[15.11042,37.52891],[15.11078,37.52829],[15.1105,37.52808],[15.11012,37.52647],[15.11022,37.52644],[15.10986,37.52497],[15.10999,37.52469],[15.11061,37.52424],[15.10803,37.5222],[15.10648,37.52048],[15.10536,37.51943],[15.10575,37.51909],[15.10686,37.51868],[15.10768,37.51853],[15.10819,37.5184],[15.10849,37.51885],[15.10918,37.51946],[15.10966,37.51954],[15.10995,37.51939],[15.11026,37.51983],[15.11047,37.51944],[15.11203,37.51962],[15.11253,37.5198],[15.11323,37.52054],[15.11368,37.52092],[15.11425,37.52106],[15.11514,37.52171],[15.11605,37.52222],[15.11623,37.52257],[15.11713,37.52324],[15.11753,37.52338],[15.11749,37.52385],[15.11729,37.52407],[15.11755,37.52439],[15.11732,37.52474],[15.11729,37.52537],[15.11708,37.5258],[15.11666,37.52611],[15.11654,37.52664],[15.11701,37.52676],[15.11677,37.52734],[15.11676,37.52774],[15.11614,37.5284],[15.1161,37.52911],[15.11585,37.52967],[15.11505,37.53058],[15.1148,37.53044],[15.11546,37.52964],[15.11545,37.52927],[15.11436,37.52951],[15.1135,37.52928],[15.11346,37.52964],[15.11294,37.53035],[15.11232,37.53042],[15.11229,37.53097],[15.11186,37.53141],[15.11207,37.53167],[15.11264,37.53186],[15.11315,37.53163],[15.1139,37.5318],[15.11278,37.53234]]]},"properties":{"zona":"C4","linkzona":"CT00000690","fascia":"C","fascia_label":"Semicentrale","descr":"S. GIOVANNI LI CUTI-A. DE GASPERI - ALDEBARAN - A. ALAGONA - DEL  ROTO...","semestre":"2025-S2","loc_min":5.0,"loc_max":7.5,"loc_mid":6.25,"sale_min":1500.0,"sale_max":2200.0,"sup":"L","tipologia":"Abitazioni civili","stato":"NORMALE","trend":0.0,"trend_from":"2023-S2"}},{"type":"Feature","geometry":{"type":"Polygon","coordinates":[[[15.05916,37.49378],[15.05945,37.49385],[15.06046,37.49501],[15.06046,37.49521],[15.0592,37.49535],[15.06134,37.49554],[15.06128,37.49573],[15.06304,37.49692],[15.0621,37.49724],[15.06179,37.49751],[15.06109,37.49768],[15.06033,37.49821],[15.05925,37.49858],[15.0589,37.49857],[15.05826,37.49908],[15.05781,37.49923],[15.0576,37.49962],[15.05692,37.5],[15.05575,37.50011],[15.05507,37.50029],[15.05352,37.50085],[15.05287,37.50141],[15.05111,37.50168],[15.04952,37.50221],[15.04894,37.50224],[15.04832,37.50287],[15.04826,37.50369],[15.04753,37.50394],[15.04482,37.50384],[15.04413,37.50391],[15.04399,37.50485],[15.04369,37.50624],[15.04496,37.50548],[15.04634,37.50516],[15.04721,37.50506],[15.0464,37.50603],[15.04607,37.50749],[15.04616,37.50762],[15.04536,37.50819],[15.04546,37.50841],[15.04426,37.50889],[15.04403,37.50923],[15.04357,37.50933],[15.04383,37.50987],[15.04368,37.50999],[15.04362,37.51],[15.04127,37.51153],[15.04102,37.51168],[15.0401,37.51188],[15.03929,37.51241],[15.03781,37.51231],[15.03546,37.5113],[15.03603,37.51076],[15.0368,37.51057],[15.03624,37.51036],[15.03584,37.51067],[15.03525,37.51077],[15.03353,37.51026],[15.03312,37.5095],[15.03291,37.50865],[15.03267,37.50808],[15.03159,37.5071],[15.03121,37.50688],[15.03045,37.50619],[15.02989,37.50532],[15.02972,37.50446],[15.02992,37.50374],[15.0306,37.50244],[15.03135,37.50081],[15.03042,37.50046],[15.02973,37.50031],[15.02883,37.50031],[15.02858,37.50079],[15.02767,37.50137],[15.02742,37.50162],[15.0266,37.50163],[15.02571,37.50035],[15.02626,37.49997],[15.02642,37.4994],[15.02632,37.49895],[15.02641,37.4986],[15.02691,37.49794],[15.02622,37.49779],[15.02571,37.49741],[15.02572,37.49705],[15.02604,37.49647],[15.02578,37.49629],[15.02547,37.49672],[15.02478,37.49664],[15.02408,37.4963],[15.02341,37.4963],[15.02265,37.49701],[15.0224,37.49679],[15.02219,37.49628],[15.02178,37.49624],[15.02155,37.49583],[15.02169,37.4955],[15.0213,37.4944],[15.02087,37.4943],[15.02018,37.49462],[15.01945,37.49467],[15.01913,37.49452],[15.01975,37.49393],[15.01956,37.49337],[15.01997,37.49286],[15.01962,37.4923],[15.01975,37.49124],[15.01966,37.4909],[15.01986,37.4903],[15.01983,37.48993],[15.01935,37.48935],[15.01939,37.48848],[15.01969,37.48818],[15.0204,37.48706],[15.02026,37.48683],[15.02089,37.48668],[15.02194,37.48655],[15.02375,37.48648],[15.02501,37.48668],[15.02691,37.48728],[15.02799,37.48741],[15.02911,37.48772],[15.02991,37.48766],[15.03114,37.48765],[15.03164,37.48777],[15.03254,37.48777],[15.0337,37.48799],[15.03471,37.4881],[15.035,37.48841],[15.03584,37.4889],[15.03615,37.48941],[15.03707,37.48992],[15.03775,37.49016],[15.03845,37.49074],[15.03924,37.49074],[15.04024,37.49093],[15.04061,37.49118],[15.04153,37.49158],[15.04254,37.4916],[15.04348,37.49174],[15.04354,37.49147],[15.04391,37.49139],[15.04502,37.49142],[15.04508,37.4917],[15.04567,37.49174],[15.04571,37.49221],[15.04595,37.49244],[15.04642,37.49234],[15.04702,37.49255],[15.04714,37.49218],[15.04757,37.49219],[15.04759,37.49247],[15.04814,37.49263],[15.04835,37.49293],[15.04832,37.4934],[15.0493,37.49365],[15.04999,37.49393],[15.05126,37.49409],[15.05205,37.49431],[15.05408,37.49439],[15.05566,37.49458],[15.05671,37.49427],[15.05916,37.49378]]]},"properties":{"zona":"E2","linkzona":"CT00000050","fascia":"E","fascia_label":"Suburbana","descr":"S. Giorgio, Monte Po, Del Potatore, del Falcetto, Dittaino, Gela","semestre":"2025-S2","loc_min":2.8,"loc_max":4.0,"loc_mid":3.4,"sale_min":820.0,"sale_max":1200.0,"sup":"L","tipologia":"Abitazioni civili","stato":"NORMALE","trend":1.5,"trend_from":"2023-S2"}},{"type":"Feature","geometry":{"type":"Polygon","coordinates":[[[15.09223,37.49545],[15.09233,37.49617],[15.09021,37.49955],[15.09093,37.49997],[15.09382,37.50012],[15.09435,37.49981],[15.09448,37.4987],[15.09356,37.49771],[15.0951,37.49523],[15.09638,37.49573],[15.09541,37.49728],[15.09525,37.49875],[15.09589,37.49882],[15.09586,37.49903],[15.09522,37.499],[15.09509,37.50024],[15.09575,37.50127],[15.09743,37.50137],[15.09877,37.49991],[15.09886,37.49924],[15.09851,37.49897],[15.09871,37.49716],[15.09904,37.49717],[15.09961,37.49275],[15.09866,37.49152],[15.09875,37.49129],[15.09945,37.49135],[15.0996,37.49121],[15.09998,37.48829],[15.0999,37.48802],[15.09906,37.48696],[15.09946,37.48397],[15.09961,37.48398],[15.09923,37.48676],[15.09964,37.48697],[15.10048,37.48801],[15.10051,37.4882],[15.10021,37.49048],[15.10042,37.49131],[15.10033,37.4916],[15.10022,37.49336],[15.10005,37.49426],[15.09975,37.49733],[15.09946,37.49858],[15.09942,37.49937],[15.09917,37.50044],[15.0983,37.50143],[15.09814,37.50152],[15.09693,37.5028],[15.09666,37.50317],[15.09705,37.50388],[15.09836,37.505],[15.09968,37.50564],[15.09988,37.5058],[15.10067,37.50585],[15.10094,37.50573],[15.10103,37.50572],[15.10126,37.50593],[15.10167,37.50585],[15.10242,37.50593],[15.1027,37.50618],[15.10277,37.50624],[15.10285,37.50629],[15.10287,37.50631],[15.10295,37.50637],[15.1031,37.50648],[15.10342,37.5067],[15.10344,37.50673],[15.10348,37.50677],[15.10363,37.50692],[15.10363,37.50693],[15.10382,37.50709],[15.10389,37.50719],[15.10398,37.5073],[15.10399,37.50736],[15.10407,37.50743],[15.10452,37.50759],[15.1046,37.50792],[15.10466,37.508],[15.10497,37.50822],[15.10479,37.50857],[15.1048,37.50858],[15.10503,37.50887],[15.10493,37.50925],[15.10442,37.50933],[15.10441,37.51071],[15.1048,37.51195],[15.10476,37.51227],[15.10468,37.51224],[15.10377,37.50945],[15.10363,37.50948],[15.10394,37.51047],[15.10449,37.51226],[15.10446,37.51226],[15.10382,37.51034],[15.10353,37.50947],[15.10294,37.50862],[15.10241,37.50827],[15.10177,37.50805],[15.1005,37.50868],[15.10038,37.50855],[15.09944,37.5076],[15.10015,37.50723],[15.09857,37.50643],[15.09773,37.50659],[15.09589,37.50651],[15.09576,37.50634],[15.09319,37.50627],[15.09258,37.5063],[15.09108,37.50622],[15.08886,37.50615],[15.08824,37.50628],[15.08792,37.50681],[15.08719,37.5069],[15.08732,37.5062],[15.08782,37.50531],[15.08759,37.50488],[15.08607,37.50481],[15.08559,37.50699],[15.08549,37.50686],[15.08455,37.50683],[15.0838,37.50775],[15.08312,37.50786],[15.08283,37.50858],[15.082,37.50837],[15.08101,37.5085],[15.08124,37.50791],[15.08094,37.5078],[15.08072,37.50743],[15.08014,37.50751],[15.07939,37.50739],[15.0796,37.50712],[15.08006,37.50735],[15.08044,37.5072],[15.08047,37.50645],[15.08038,37.5062],[15.08036,37.50541],[15.07977,37.5054],[15.07958,37.50512],[15.07877,37.50514],[15.07859,37.50466],[15.07853,37.50403],[15.07872,37.50364],[15.07869,37.50311],[15.07841,37.50285],[15.07992,37.50282],[15.07999,37.50081],[15.08366,37.5015],[15.08368,37.5012],[15.085,37.5013],[15.08536,37.50056],[15.08637,37.50109],[15.08729,37.50004],[15.08776,37.50024],[15.08828,37.49996],[15.0889,37.50019],[15.08927,37.50003],[15.08966,37.49946],[15.08976,37.49906],[15.08947,37.4989],[15.08946,37.49853],[15.0905,37.49698],[15.0906,37.49684],[15.09061,37.49682],[15.09064,37.49673],[15.09052,37.49621],[15.09047,37.49598],[15.09045,37.4959],[15.09035,37.49545],[15.09141,37.49544],[15.09145,37.49618],[15.09206,37.4962],[15.09205,37.49546],[15.09223,37.49545]]]},"properties":{"zona":"B1","linkzona":"CT00000047","fascia":"B","fascia_label":"Centrale","descr":"Teatro Massimo, Civita, Antico Corso, Duomo, Sangiuliano, Alcala, Dusmet, ...","semestre":"2025-S2","loc_min":4.4,"loc_max":6.6,"loc_mid":5.5,"sale_min":1250.0,"sale_max":1850.0,"sup":"L","tipologia":"Abitazioni civili","stato":"NORMALE","trend":-1.8,"trend_from":"2023-S2"}},{"type":"Feature","geometry":{"type":"MultiPolygon","coordinates":[[[[15.10446,37.51226],[15.10449,37.51226],[15.10468,37.51224],[15.10476,37.51227],[15.10499,37.51235],[15.10512,37.51196],[15.10541,37.5125],[15.10591,37.51288],[15.10576,37.51324],[15.1054,37.51333],[15.10544,37.51337],[15.10557,37.51397],[15.10606,37.51441],[15.10653,37.51458],[15.10689,37.51406],[15.10625,37.51343],[15.10597,37.51339],[15.10623,37.5128],[15.10695,37.51304],[15.10822,37.51473],[15.10861,37.51513],[15.10908,37.51599],[15.1091,37.5164],[15.10812,37.51752],[15.10819,37.51839],[15.10768,37.51853],[15.10686,37.51868],[15.10575,37.51909],[15.10536,37.51943],[15.10512,37.51933],[15.10418,37.52007],[15.10401,37.52004],[15.10244,37.51878],[15.10176,37.51926],[15.10156,37.51909],[15.10021,37.51889],[15.09978,37.51866],[15.09956,37.51885],[15.09907,37.51848],[15.09834,37.51834],[15.09808,37.5186],[15.09749,37.51885],[15.09727,37.51912],[15.09751,37.5196],[15.09725,37.5207],[15.09781,37.52156],[15.09796,37.52204],[15.09838,37.52236],[15.098,37.52269],[15.09756,37.52336],[15.09684,37.52408],[15.09645,37.52433],[15.09595,37.52403],[15.0959,37.52339],[15.09365,37.52328],[15.09367,37.52316],[15.09465,37.52327],[15.09492,37.52165],[15.09486,37.52162],[15.09514,37.51979],[15.09431,37.51971],[15.09433,37.51955],[15.09511,37.51963],[15.09524,37.51887],[15.09417,37.51885],[15.09379,37.51857],[15.09347,37.51864],[15.0915,37.51863],[15.09155,37.51829],[15.09041,37.51817],[15.09042,37.51749],[15.08786,37.51722],[15.08761,37.51582],[15.08874,37.51593],[15.089,37.51458],[15.0879,37.51439],[15.08772,37.51409],[15.08794,37.51408],[15.08809,37.51298],[15.08838,37.51292],[15.09083,37.51329],[15.09114,37.51231],[15.09507,37.51292],[15.09523,37.51281],[15.09609,37.51293],[15.0963,37.51243],[15.09684,37.51252],[15.09696,37.51236],[15.09769,37.51247],[15.09782,37.51273],[15.09869,37.5134],[15.09875,37.51375],[15.10061,37.51404],[15.10105,37.51323],[15.1027,37.51352],[15.10348,37.51338],[15.10336,37.51313],[15.10413,37.51308],[15.10431,37.51277],[15.10376,37.51277],[15.10385,37.51235],[15.10446,37.51226]]],[[[15.09361,37.52344],[15.09363,37.52333],[15.09489,37.52342],[15.09487,37.52354],[15.09361,37.52344]]]]},"properties":{"zona":"C1","linkzona":"CT00000051","fascia":"C","fascia_label":"Semicentrale","descr":"PROVINCIE-VENETO/P-LEOPARDI/P-ASIAGO-MESSINA/P-JONIO-LIBERTA/P-ITALIA-...","semestre":"2025-S2","loc_min":4.8,"loc_max":7.1,"loc_mid":5.95,"sale_min":1300.0,"sale_max":1850.0,"sup":"L","tipologia":"Abitazioni civili","stato":"NORMALE","trend":1.7,"trend_from":"2023-S2"}},{"type":"Feature","geometry":{"type":"Polygon","coordinates":[[[15.07005,37.5031],[15.06999,37.50357],[15.07025,37.5036],[15.07029,37.5036],[15.07023,37.5042],[15.07005,37.50425],[15.07006,37.50451],[15.06986,37.5061],[15.06963,37.5072],[15.06966,37.50774],[15.06947,37.50848],[15.06932,37.50868],[15.06911,37.50986],[15.06744,37.50956],[15.06741,37.50954],[15.0673,37.50922],[15.06591,37.50808],[15.06562,37.50773],[15.06561,37.50714],[15.06465,37.507],[15.06371,37.50914],[15.06243,37.50863],[15.06205,37.50833],[15.06168,37.5085],[15.06008,37.50833],[15.05935,37.5082],[15.05917,37.50835],[15.05836,37.50825],[15.05344,37.50744],[15.0532,37.50808],[15.0519,37.50787],[15.05181,37.50841],[15.05092,37.5086],[15.05063,37.50894],[15.05051,37.50978],[15.05054,37.51044],[15.05029,37.51047],[15.0475,37.51017],[15.04693,37.51355],[15.04794,37.51383],[15.04796,37.51337],[15.04942,37.51361],[15.04933,37.51416],[15.05037,37.51429],[15.05027,37.51492],[15.05049,37.51599],[15.04924,37.5159],[15.04803,37.51551],[15.04785,37.51586],[15.04691,37.51601],[15.04714,37.51665],[15.04632,37.5175],[15.04527,37.5181],[15.04516,37.51828],[15.04544,37.51907],[15.04553,37.51978],[15.04634,37.52058],[15.04591,37.52072],[15.04551,37.52105],[15.04506,37.5218],[15.04421,37.52159],[15.04347,37.52121],[15.04254,37.52041],[15.04088,37.51944],[15.03944,37.51865],[15.03955,37.51806],[15.03899,37.51842],[15.03857,37.5184],[15.03824,37.51816],[15.03764,37.51799],[15.0376,37.51769],[15.03695,37.51673],[15.0368,37.51592],[15.037,37.51457],[15.03635,37.51434],[15.0361,37.51404],[15.03589,37.51346],[15.03516,37.51264],[15.03498,37.51214],[15.03506,37.51172],[15.03546,37.51132],[15.0378,37.51234],[15.03925,37.51243],[15.0393,37.51242],[15.03949,37.51234],[15.04001,37.51195],[15.04077,37.51176],[15.04083,37.5118],[15.04121,37.51162],[15.04368,37.50999],[15.04383,37.50987],[15.04357,37.50933],[15.04403,37.50923],[15.04426,37.50889],[15.04546,37.50841],[15.04536,37.50819],[15.04616,37.50762],[15.04607,37.50749],[15.0464,37.50603],[15.04721,37.50506],[15.04634,37.50516],[15.04496,37.50548],[15.04369,37.50624],[15.04399,37.50485],[15.04413,37.50391],[15.04482,37.50384],[15.04753,37.50394],[15.04826,37.50369],[15.04832,37.50287],[15.04894,37.50224],[15.04952,37.50221],[15.05111,37.50168],[15.05287,37.50141],[15.05352,37.50085],[15.05507,37.50029],[15.05575,37.50011],[15.05692,37.5],[15.0576,37.49962],[15.05781,37.49923],[15.05826,37.49908],[15.0589,37.49857],[15.05925,37.49858],[15.06033,37.49821],[15.06109,37.49768],[15.06179,37.49751],[15.0621,37.49724],[15.06304,37.49692],[15.06128,37.49573],[15.06134,37.49554],[15.0592,37.49535],[15.06046,37.49521],[15.06046,37.49501],[15.05945,37.49385],[15.05916,37.49378],[15.05913,37.49317],[15.05888,37.49273],[15.05915,37.4925],[15.05996,37.49249],[15.06083,37.49216],[15.06103,37.49167],[15.06189,37.49135],[15.06244,37.4913],[15.06295,37.49189],[15.06347,37.49225],[15.06405,37.49145],[15.06465,37.48882],[15.06422,37.48874],[15.0635,37.48827],[15.06378,37.48798],[15.06461,37.48823],[15.06472,37.48784],[15.07199,37.48838],[15.07223,37.48864],[15.07261,37.48851],[15.07327,37.48842],[15.07322,37.49033],[15.07293,37.49055],[15.07307,37.49105],[15.07341,37.4912],[15.07367,37.49179],[15.07464,37.49308],[15.07466,37.49327],[15.07437,37.49317],[15.07335,37.4938],[15.07327,37.49394],[15.07282,37.49767],[15.0728,37.49824],[15.07273,37.49899],[15.07236,37.49928],[15.07273,37.49988],[15.07248,37.50031],[15.07216,37.50036],[15.07194,37.50167],[15.07128,37.50236],[15.06971,37.50279],[15.07005,37.5031]]]},"properties":{"zona":"D3","linkzona":"CT00000035","fascia":"D","fascia_label":"Periferica","descr":"S.LEONE RAPISARDI, P.ZZA RISORGIMENTO, P.ZZA E. DI UNGHERIA, CARACCIOLO,...","semestre":"2025-S2","loc_min":3.5,"loc_max":5.2,"loc_mid":4.35,"sale_min":1050.0,"sale_max":1500.0,"sup":"L","tipologia":"Abitazioni civili","stato":"NORMALE","trend":0.0,"trend_from":"2023-S2"}},{"type":"Feature","geometry":{"type":"Polygon","coordinates":[[[15.06236,37.521],[15.06229,37.52112],[15.06259,37.52188],[15.06104,37.52277],[15.06067,37.52288],[15.05963,37.52295],[15.0586,37.52277],[15.05699,37.52291],[15.05616,37.52318],[15.05532,37.52315],[15.05516,37.52377],[15.05483,37.52408],[15.05441,37.52455],[15.05397,37.52465],[15.05354,37.52486],[15.05292,37.52493],[15.05223,37.52481],[15.05135,37.52504],[15.051,37.52529],[15.05075,37.52454],[15.05042,37.52398],[15.05064,37.52349],[15.04928,37.52385],[15.04825,37.52359],[15.04756,37.52331],[15.04679,37.52282],[15.04635,37.52357],[15.04559,37.52432],[15.04488,37.52468],[15.04492,37.5241],[15.04474,37.52254],[15.04479,37.52177],[15.04506,37.5218],[15.04551,37.52105],[15.04591,37.52072],[15.04634,37.52058],[15.04553,37.51978],[15.04544,37.51907],[15.04516,37.51828],[15.04527,37.5181],[15.04632,37.5175],[15.04714,37.51665],[15.04691,37.51601],[15.04785,37.51586],[15.04803,37.51551],[15.04924,37.5159],[15.05049,37.51599],[15.05027,37.51492],[15.05037,37.51429],[15.04933,37.51416],[15.04942,37.51361],[15.04796,37.51337],[15.04794,37.51383],[15.04693,37.51355],[15.0475,37.51017],[15.05029,37.51047],[15.05054,37.51044],[15.05051,37.50978],[15.05063,37.50894],[15.05092,37.5086],[15.05181,37.50841],[15.0519,37.50787],[15.0532,37.50808],[15.05344,37.50744],[15.05836,37.50825],[15.05917,37.50835],[15.05935,37.5082],[15.06008,37.50833],[15.06168,37.5085],[15.06205,37.50833],[15.06243,37.50863],[15.06371,37.50914],[15.06465,37.507],[15.06561,37.50714],[15.06562,37.50773],[15.06591,37.50808],[15.0673,37.50922],[15.06723,37.50957],[15.06658,37.50942],[15.06564,37.50943],[15.06563,37.51055],[15.06636,37.51146],[15.0664,37.51158],[15.06543,37.51281],[15.06578,37.51313],[15.06563,37.51382],[15.06489,37.51377],[15.06406,37.51409],[15.06358,37.51415],[15.06348,37.5148],[15.06288,37.51481],[15.06255,37.5146],[15.06221,37.51473],[15.06128,37.51474],[15.06066,37.51483],[15.0603,37.51554],[15.06026,37.51583],[15.06071,37.51595],[15.06216,37.51663],[15.06275,37.51606],[15.06293,37.51607],[15.06272,37.51717],[15.06181,37.51705],[15.06144,37.51742],[15.06079,37.51769],[15.06069,37.518],[15.05959,37.51879],[15.05885,37.51905],[15.05898,37.51948],[15.05951,37.51943],[15.06059,37.51963],[15.06205,37.52053],[15.06236,37.521]]]},"properties":{"zona":"D4","linkzona":"CT00000700","fascia":"D","fascia_label":"Periferica","descr":"Diaz, Rapisardi/P, Via Ota, Seb. Catania/P, Ballo, Sauro, Cadamosto","semestre":"2025-S2","loc_min":3.7,"loc_max":5.5,"loc_mid":4.6,"sale_min":1050.0,"sale_max":1500.0,"sup":"L","tipologia":"Abitazioni civili","stato":"NORMALE","trend":0.0,"trend_from":"2023-S2"}},{"type":"Feature","geometry":{"type":"MultiPolygon","coordinates":[[[[15.11278,37.53234],[15.11303,37.53259],[15.11325,37.53374],[15.11387,37.53467],[15.11431,37.5349],[15.11458,37.53452],[15.11552,37.53539],[15.11602,37.53551],[15.11601,37.53587],[15.11651,37.53616],[15.11666,37.53567],[15.11717,37.53616],[15.11691,37.53636],[15.11798,37.53727],[15.11886,37.53826],[15.11936,37.53869],[15.12089,37.53935],[15.1229,37.53949],[15.12194,37.54057],[15.12151,37.54085],[15.12143,37.54127],[15.12118,37.5416],[15.12132,37.54184],[15.12012,37.54212],[15.11994,37.54248],[15.12057,37.54282],[15.12008,37.54371],[15.12006,37.54407],[15.11938,37.54542],[15.11883,37.5457],[15.1184,37.5464],[15.11831,37.54776],[15.11815,37.54797],[15.11678,37.54814],[15.1157,37.5484],[15.11539,37.54814],[15.11465,37.54781],[15.11331,37.54702],[15.11314,37.54639],[15.11267,37.54556],[15.11186,37.54468],[15.11089,37.54438],[15.11048,37.54415],[15.10923,37.54307],[15.10898,37.5424],[15.10864,37.54204],[15.10776,37.5416],[15.10576,37.54094],[15.10514,37.54048],[15.10363,37.54008],[15.10264,37.53956],[15.10238,37.53906],[15.10245,37.53798],[15.10215,37.53764],[15.102,37.53697],[15.10145,37.53645],[15.10122,37.53488],[15.10069,37.53444],[15.10027,37.53387],[15.10039,37.53301],[15.10043,37.53301],[15.10042,37.53289],[15.10042,37.53279],[15.10047,37.53268],[15.10007,37.53212],[15.10013,37.53178],[15.10042,37.53136],[15.10152,37.53176],[15.10267,37.53187],[15.10378,37.53178],[15.1073,37.53142],[15.10861,37.53125],[15.10955,37.53146],[15.11009,37.53136],[15.1106,37.53132],[15.11071,37.53164],[15.11241,37.5324],[15.11278,37.53234]]],[[[15.11735,37.53627],[15.11792,37.53679],[15.11777,37.5369],[15.11709,37.53642],[15.11735,37.53627]]]]},"properties":{"zona":"D6","linkzona":"CT00000702","fascia":"D","fascia_label":"Periferica","descr":"CARRUBA-VILLAGGIO DUSMET-NUOVALUCELLO-  -  DEL ROVETO - DELLE OLIMPIADI ...","semestre":"2025-S2","loc_min":3.3,"loc_max":4.8,"loc_mid":4.05,"sale_min":910.0,"sale_max":1350.0,"sup":"L","tipologia":"Abitazioni civili","stato":"NORMALE","trend":-12.0,"trend_from":"2023-S2"}},{"type":"Feature","geometry":{"type":"Polygon","coordinates":[[[15.06406,37.52426],[15.06376,37.52363],[15.06371,37.52303],[15.0625,37.52272],[15.06259,37.5225],[15.06227,37.52221],[15.06251,37.52204],[15.06288,37.52233],[15.06341,37.52185],[15.06379,37.52219],[15.064,37.52194],[15.06603,37.52222],[15.06618,37.52171],[15.06889,37.52183],[15.06974,37.52219],[15.0697,37.52246],[15.06978,37.52232],[15.07046,37.52229],[15.07127,37.52237],[15.07182,37.52212],[15.0729,37.52233],[15.07338,37.52297],[15.0739,37.52301],[15.0738,37.52327],[15.0743,37.52361],[15.07538,37.52411],[15.07618,37.52435],[15.07662,37.52502],[15.0771,37.5255],[15.07878,37.52593],[15.07899,37.52621],[15.07987,37.52629],[15.08088,37.52625],[15.08215,37.52647],[15.08281,37.52678],[15.08311,37.5272],[15.08493,37.52785],[15.08537,37.52795],[15.0866,37.52801],[15.09013,37.52807],[15.09104,37.52822],[15.09109,37.52803],[15.09262,37.52812],[15.09459,37.52843],[15.09465,37.52837],[15.09597,37.52854],[15.09656,37.52868],[15.09782,37.52929],[15.09843,37.52977],[15.09937,37.5307],[15.10013,37.53178],[15.10007,37.53212],[15.10042,37.53279],[15.10042,37.53289],[15.10039,37.53301],[15.10027,37.53387],[15.10069,37.53444],[15.10054,37.53476],[15.09995,37.53513],[15.09908,37.5354],[15.09877,37.53611],[15.09758,37.53665],[15.09602,37.53658],[15.09542,37.53702],[15.09446,37.53666],[15.09386,37.53689],[15.09375,37.53663],[15.0932,37.53659],[15.09313,37.53608],[15.0929,37.53568],[15.09337,37.53506],[15.09319,37.53465],[15.0925,37.53448],[15.09211,37.53427],[15.09103,37.5342],[15.09034,37.53518],[15.08913,37.53548],[15.08922,37.53579],[15.08828,37.53594],[15.08744,37.53526],[15.08706,37.53436],[15.08687,37.53366],[15.08595,37.53368],[15.0857,37.53334],[15.08504,37.53344],[15.08501,37.53324],[15.08322,37.5333],[15.08325,37.53394],[15.08311,37.5343],[15.07677,37.53337],[15.07591,37.53393],[15.07551,37.53433],[15.0748,37.53472],[15.07374,37.53543],[15.0718,37.53747],[15.07148,37.53797],[15.07043,37.53794],[15.06928,37.53816],[15.06802,37.53854],[15.06752,37.53852],[15.06672,37.53868],[15.06421,37.53815],[15.06477,37.5379],[15.06452,37.53695],[15.06422,37.53659],[15.06438,37.53602],[15.06463,37.5358],[15.06419,37.53393],[15.0639,37.53309],[15.06395,37.53255],[15.06491,37.53178],[15.0656,37.53146],[15.06604,37.53085],[15.06597,37.53061],[15.06601,37.52757],[15.06558,37.52693],[15.06519,37.52659],[15.06501,37.52594],[15.06534,37.52563],[15.06428,37.52428],[15.06406,37.52426]]]},"properties":{"zona":"D2","linkzona":"CT00000034","fascia":"D","fascia_label":"Periferica","descr":"Via Galermo/P, S.Sofia/P, Nuovalucello, A.Doria, Fleming/P, Dell Ova/P","semestre":"2025-S2","loc_min":3.5,"loc_max":5.2,"loc_mid":4.35,"sale_min":1000.0,"sale_max":1450.0,"sup":"L","tipologia":"Abitazioni civili","stato":"NORMALE","trend":0.0,"trend_from":"2023-S2"}},{"type":"Feature","geometry":{"type":"Polygon","coordinates":[[[15.09542,37.53702],[15.09396,37.53787],[15.09332,37.53774],[15.09259,37.53784],[15.092,37.5382],[15.09124,37.53847],[15.09044,37.53838],[15.08997,37.53889],[15.08984,37.5394],[15.09048,37.53949],[15.09058,37.53968],[15.09044,37.5402],[15.0904,37.54096],[15.09058,37.54154],[15.09035,37.54208],[15.09039,37.54255],[15.09021,37.54361],[15.08959,37.54425],[15.0889,37.54422],[15.08892,37.54482],[15.08846,37.54511],[15.08786,37.54513],[15.08637,37.54539],[15.08518,37.54552],[15.08491,37.54565],[15.08419,37.54543],[15.08422,37.5448],[15.08371,37.5441],[15.08343,37.54314],[15.08326,37.54289],[15.08307,37.54216],[15.08231,37.5409],[15.08216,37.54043],[15.08174,37.54008],[15.08087,37.54064],[15.07937,37.54133],[15.07883,37.54198],[15.0785,37.54274],[15.07863,37.54363],[15.07858,37.54411],[15.07644,37.5428],[15.07601,37.54284],[15.0741,37.54339],[15.0741,37.54349],[15.07271,37.54388],[15.07106,37.54306],[15.06981,37.54312],[15.0696,37.54297],[15.06936,37.54213],[15.06956,37.54157],[15.07003,37.54106],[15.07043,37.54087],[15.07129,37.53973],[15.07122,37.5388],[15.07148,37.53797],[15.0718,37.53747],[15.07374,37.53543],[15.0748,37.53472],[15.07551,37.53433],[15.07591,37.53393],[15.07677,37.53337],[15.08311,37.5343],[15.08325,37.53394],[15.08322,37.5333],[15.08501,37.53324],[15.08504,37.53344],[15.0857,37.53334],[15.08595,37.53368],[15.08687,37.53366],[15.08706,37.53436],[15.08744,37.53526],[15.08828,37.53594],[15.08922,37.53579],[15.08913,37.53548],[15.09034,37.53518],[15.09103,37.5342],[15.09211,37.53427],[15.0925,37.53448],[15.09319,37.53465],[15.09337,37.53506],[15.0929,37.53568],[15.09313,37.53608],[15.0932,37.53659],[15.09375,37.53663],[15.09386,37.53689],[15.09446,37.53666],[15.09542,37.53702]]]},"properties":{"zona":"D5","linkzona":"CT00000701","fascia":"D","fascia_label":"Periferica","descr":"Barriera Canalicchio, P.zza Vicere, Romano, Del Bosco/P, Leucatia/P, Ari...","semestre":"2025-S2","loc_min":3.7,"loc_max":5.5,"loc_mid":4.6,"sale_min":900.0,"sale_max":1350.0,"sup":"L","tipologia":"Abitazioni civili","stato":"NORMALE","trend":8.2,"trend_from":"2023-S2"}},{"type":"Feature","geometry":{"type":"MultiPolygon","coordinates":[[[[15.07076,37.43361],[15.06972,37.43418],[15.06856,37.43473],[15.06889,37.43558],[15.06895,37.43628],[15.06881,37.43859],[15.06898,37.44029],[15.06897,37.44091],[15.06832,37.44317],[15.06817,37.444],[15.06799,37.44699],[15.06821,37.44883],[15.06814,37.44885],[15.0681,37.4503],[15.06784,37.45152],[15.06752,37.45246],[15.06756,37.4532],[15.06563,37.4531],[15.06567,37.45697],[15.05916,37.45702],[15.05285,37.45713],[15.05287,37.45755],[15.05069,37.45953],[15.05012,37.45915],[15.04904,37.46006],[15.0475,37.46089],[15.04701,37.46145],[15.04722,37.4618],[15.04759,37.4619],[15.04767,37.46223],[15.04743,37.46255],[15.04754,37.46287],[15.04842,37.46367],[15.04832,37.46377],[15.05191,37.46696],[15.05603,37.47054],[15.05604,37.47069],[15.05077,37.46609],[15.04854,37.46411],[15.04741,37.46486],[15.04707,37.46466],[15.047,37.46523],[15.04665,37.46541],[15.04616,37.46543],[15.04585,37.46593],[15.04596,37.46659],[15.04645,37.46686],[15.04616,37.46716],[15.04621,37.46769],[15.04529,37.46828],[15.04392,37.46976],[15.04367,37.46967],[15.0428,37.47061],[15.04188,37.47087],[15.04098,37.47057],[15.03951,37.47016],[15.03889,37.46988],[15.03814,37.4694],[15.03688,37.46891],[15.03431,37.46839],[15.03134,37.46762],[15.02974,37.46718],[15.02803,37.46675],[15.02623,37.46613],[15.02487,37.46573],[15.02356,37.46539],[15.02196,37.46483],[15.02102,37.4644],[15.0188,37.46375],[15.0188,37.46363],[15.01664,37.46301],[15.01597,37.46252],[15.01562,37.46198],[15.01492,37.46124],[15.01382,37.4606],[15.01257,37.46018],[15.01045,37.45966],[15.0105,37.45965],[15.01177,37.45833],[15.01391,37.45818],[15.01599,37.45789],[15.01741,37.45759],[15.01904,37.45715],[15.02026,37.45675],[15.02019,37.45665],[15.01763,37.45741],[15.01621,37.45771],[15.01404,37.45804],[15.01187,37.4582],[15.01148,37.45662],[15.01153,37.4561],[15.01053,37.45286],[15.01006,37.44971],[15.00983,37.44852],[15.00938,37.44538],[14.99662,37.44207],[14.99722,37.44065],[14.99785,37.43887],[14.99781,37.43827],[14.99758,37.4377],[14.99784,37.43636],[14.99806,37.43619],[14.99977,37.43589],[15.00055,37.43556],[15.00122,37.43555],[15.00293,37.43768],[15.00308,37.4378],[15.00512,37.43846],[15.00807,37.43926],[15.00857,37.43889],[15.00879,37.43892],[15.01228,37.43896],[15.01325,37.43888],[15.01486,37.43846],[15.0167,37.43789],[15.02044,37.43694],[15.02061,37.43687],[15.02439,37.43592],[15.02481,37.43579],[15.02467,37.43542],[15.02574,37.4356],[15.02599,37.43546],[15.02744,37.43967],[15.02792,37.43944],[15.0277,37.43831],[15.02762,37.43753],[15.02764,37.43658],[15.02835,37.43634],[15.02852,37.435],[15.02879,37.43389],[15.02948,37.43188],[15.03019,37.43039],[15.03093,37.42903],[15.0307,37.4286],[15.03149,37.42846],[15.03117,37.42802],[15.03177,37.42718],[15.03327,37.42538],[15.03643,37.42147],[15.03711,37.4209],[15.03774,37.42087],[15.03753,37.41973],[15.0383,37.41961],[15.04169,37.41677],[15.04169,37.41658],[15.04318,37.41546],[15.04293,37.41541],[15.04223,37.41596],[15.04182,37.41571],[15.04296,37.41161],[15.04224,37.41122],[15.04152,37.41072],[15.0396,37.40968],[15.041,37.4095],[15.04325,37.41025],[15.04487,37.40985],[15.04518,37.40988],[15.04734,37.41154],[15.04691,37.41401],[15.04647,37.41425],[15.0467,37.41458],[15.05215,37.41364],[15.05631,37.4124],[15.064,37.40885],[15.0645,37.40823],[15.06521,37.40792],[15.06502,37.40892],[15.06475,37.40888],[15.05956,37.41124],[15.05954,37.41141],[15.05891,37.41169],[15.05884,37.41685],[15.05859,37.41687],[15.05925,37.41759],[15.05953,37.41775],[15.06203,37.41741],[15.06286,37.41727],[15.06348,37.41707],[15.06532,37.41633],[15.0654,37.42071],[15.06919,37.42095],[15.0701,37.41844],[15.07018,37.41844],[15.06929,37.42096],[15.0706,37.42107],[15.07036,37.42301],[15.07016,37.42409],[15.07009,37.42515],[15.07088,37.42521],[15.07141,37.42582],[15.07125,37.42647],[15.06977,37.42656],[15.06955,37.4269],[15.06951,37.4278],[15.06952,37.42946],[15.06921,37.43064],[15.06916,37.43122],[15.0693,37.4326],[15.06978,37.43373],[15.07067,37.43348],[15.07076,37.43361]]],[[[15.06966,37.43067],[15.06986,37.43012],[15.07035,37.43036],[15.07054,37.43079],[15.06966,37.43067]]]]},"properties":{"zona":"E5","linkzona":"CT00000706","fascia":"E","fascia_label":"Suburbana","descr":"ZONA INDUSTRIALE - FONTANAROSSA - IUNGETTO - SAN MARTINO - PANTANO ARCI -...","semestre":"2025-S2","loc_min":null,"loc_max":null,"loc_mid":null,"nonres":true}},{"type":"Feature","geometry":{"type":"MultiPolygon","coordinates":[[[[15.06259,37.52188],[15.06251,37.52204],[15.06227,37.52221],[15.06259,37.5225],[15.0625,37.52272],[15.06371,37.52303],[15.06376,37.52363],[15.06406,37.52426],[15.06428,37.52428],[15.06534,37.52563],[15.06501,37.52594],[15.06519,37.52659],[15.06558,37.52693],[15.06601,37.52757],[15.06597,37.53061],[15.06604,37.53085],[15.0656,37.53146],[15.06491,37.53178],[15.06395,37.53255],[15.0639,37.53309],[15.06419,37.53393],[15.06463,37.5358],[15.06438,37.53602],[15.06422,37.53659],[15.06452,37.53695],[15.06477,37.5379],[15.06421,37.53815],[15.06385,37.53831],[15.06339,37.5383],[15.06178,37.53877],[15.06097,37.53866],[15.06052,37.53968],[15.06002,37.54005],[15.05917,37.54031],[15.0587,37.54061],[15.05798,37.54075],[15.05788,37.5412],[15.05729,37.54144],[15.05735,37.54184],[15.0572,37.54233],[15.05658,37.5428],[15.05642,37.54314],[15.05569,37.54295],[15.0555,37.54266],[15.05499,37.54259],[15.05498,37.54238],[15.05398,37.54207],[15.05283,37.54198],[15.05289,37.54144],[15.05215,37.54147],[15.05143,37.54104],[15.05072,37.54083],[15.05054,37.54053],[15.05008,37.54033],[15.05087,37.5394],[15.05156,37.5399],[15.05162,37.54017],[15.05228,37.54037],[15.05233,37.54052],[15.05308,37.54055],[15.05379,37.54035],[15.0546,37.53982],[15.05559,37.53959],[15.05576,37.53933],[15.05578,37.53885],[15.05603,37.53764],[15.0557,37.53623],[15.05571,37.53565],[15.05527,37.53556],[15.05634,37.53432],[15.0564,37.534],[15.05601,37.53354],[15.05555,37.53331],[15.05473,37.53321],[15.05388,37.533],[15.05337,37.53231],[15.05269,37.53257],[15.05247,37.53218],[15.05143,37.53208],[15.05102,37.53175],[15.0524,37.53085],[15.05214,37.53062],[15.05235,37.53036],[15.05281,37.53017],[15.05288,37.52972],[15.05271,37.52953],[15.05271,37.52908],[15.05328,37.52861],[15.05333,37.52812],[15.05366,37.52803],[15.05378,37.52769],[15.05446,37.52727],[15.05433,37.52665],[15.05402,37.52615],[15.05315,37.52535],[15.05396,37.52466],[15.05442,37.52456],[15.05502,37.52395],[15.05516,37.52377],[15.05525,37.52354],[15.05532,37.52315],[15.05616,37.52318],[15.05699,37.52291],[15.0586,37.52277],[15.05963,37.52295],[15.06067,37.52288],[15.06104,37.52277],[15.06259,37.52188]]],[[[15.04983,37.53991],[15.04907,37.53989],[15.04855,37.53957],[15.0483,37.53965],[15.04833,37.53871],[15.04851,37.53804],[15.04791,37.53802],[15.04838,37.53717],[15.04883,37.53726],[15.04941,37.53695],[15.04934,37.53739],[15.04953,37.53818],[15.04937,37.53837],[15.04967,37.53892],[15.04983,37.53991]]]]},"properties":{"zona":"D7","linkzona":"CT00000703","fascia":"D","fascia_label":"Periferica","descr":"Trappeto Cibali, V.le Tirreno, V.le Adriatico, S.Nullo/P, Seb. Catania/P...","semestre":"2025-S2","loc_min":2.9,"loc_max":4.3,"loc_mid":3.6,"sale_min":870.0,"sale_max":1300.0,"sup":"L","tipologia":"Abitazioni civili","stato":"NORMALE","trend":-1.4,"trend_from":"2023-S2"}},{"type":"Feature","geometry":{"type":"Polygon","coordinates":[[[15.0483,37.53965],[15.04855,37.53957],[15.04907,37.53989],[15.04983,37.53991],[15.05008,37.54033],[15.05054,37.54053],[15.05072,37.54083],[15.05143,37.54104],[15.05215,37.54147],[15.05289,37.54144],[15.05283,37.54198],[15.05398,37.54207],[15.05498,37.54238],[15.05499,37.54259],[15.0555,37.54266],[15.05569,37.54295],[15.05642,37.54314],[15.05603,37.54391],[15.05621,37.54422],[15.05675,37.54442],[15.05773,37.54417],[15.05831,37.54456],[15.05914,37.54439],[15.05933,37.54472],[15.05887,37.54551],[15.05858,37.5462],[15.05902,37.54705],[15.05945,37.54738],[15.05948,37.54777],[15.0591,37.54864],[15.05888,37.54934],[15.05903,37.54999],[15.05901,37.551],[15.05874,37.55108],[15.05816,37.55078],[15.05723,37.55248],[15.05686,37.55279],[15.05718,37.55309],[15.0573,37.55362],[15.05721,37.55396],[15.05645,37.55468],[15.05481,37.55523],[15.05489,37.55551],[15.05343,37.55651],[15.05292,37.55673],[15.0529,37.55725],[15.05139,37.55751],[15.05108,37.55762],[15.05122,37.55862],[15.05064,37.5584],[15.05014,37.55848],[15.0488,37.55839],[15.04844,37.55964],[15.04818,37.56031],[15.04786,37.56138],[15.04709,37.56198],[15.04637,37.56201],[15.04567,37.56221],[15.04485,37.56224],[15.04436,37.56236],[15.04383,37.56221],[15.04415,37.56178],[15.04438,37.56123],[15.04431,37.56072],[15.04414,37.56057],[15.04356,37.56071],[15.04282,37.56057],[15.04229,37.56147],[15.04178,37.56171],[15.041,37.56176],[15.04051,37.56197],[15.03991,37.56105],[15.03962,37.56094],[15.03983,37.56047],[15.0399,37.55947],[15.0406,37.55914],[15.04082,37.55859],[15.04081,37.55816],[15.04058,37.55684],[15.04051,37.55589],[15.03952,37.55563],[15.0394,37.55574],[15.03832,37.55571],[15.03787,37.55531],[15.03807,37.55506],[15.03789,37.55438],[15.0386,37.55434],[15.03923,37.55393],[15.03907,37.55369],[15.03925,37.55326],[15.03857,37.55283],[15.03873,37.55259],[15.03839,37.55216],[15.03827,37.55176],[15.03741,37.55129],[15.03636,37.55135],[15.03617,37.55092],[15.03579,37.55045],[15.03586,37.55025],[15.03657,37.54971],[15.03733,37.54949],[15.03754,37.5486],[15.03879,37.54795],[15.03886,37.54754],[15.03921,37.54741],[15.03938,37.54695],[15.04025,37.54623],[15.04084,37.54639],[15.04157,37.54614],[15.04243,37.5457],[15.04287,37.54518],[15.04351,37.54475],[15.0442,37.54451],[15.04432,37.54418],[15.04588,37.54331],[15.04638,37.54322],[15.04672,37.54233],[15.04739,37.54154],[15.04734,37.54139],[15.04769,37.54046],[15.0483,37.53965]]]},"properties":{"zona":"E7","linkzona":"CT00000708","fascia":"E","fascia_label":"Suburbana","descr":"S.G.Galermo: Via Badia, Orsa Minore, Grotta S.Giovanni, Macello","semestre":"2025-S2","loc_min":3.0,"loc_max":4.5,"loc_mid":3.75,"sale_min":800.0,"sale_max":1200.0,"sup":"L","tipologia":"Abitazioni civili","stato":"NORMALE","trend":4.2,"trend_from":"2023-S2"}}]}