{"type":"FeatureCollection","features":[{"type":"Feature","geometry":{"type":"Polygon","coordinates":[[[9.11844,39.25062],[9.11778,39.24979],[9.11699,39.24937],[9.1169,39.24927],[9.11521,39.24924],[9.11569,39.24794],[9.11587,39.24716],[9.11619,39.24672],[9.11779,39.24268],[9.11907,39.23988],[9.11918,39.23982],[9.11987,39.23833],[9.1205,39.23769],[9.12119,39.23731],[9.12377,39.23667],[9.12471,39.23701],[9.12484,39.23759],[9.12543,39.23909],[9.12566,39.24003],[9.12626,39.23975],[9.12684,39.24013],[9.12744,39.24009],[9.12806,39.24028],[9.12881,39.24099],[9.12942,39.24128],[9.12965,39.24115],[9.13137,39.24227],[9.13196,39.24316],[9.13239,39.24299],[9.13336,39.2439],[9.13222,39.24461],[9.13273,39.24479],[9.13375,39.24569],[9.1324,39.24665],[9.13367,39.24819],[9.13405,39.24877],[9.13523,39.25022],[9.13447,39.25114],[9.13412,39.25123],[9.13484,39.2521],[9.13539,39.25251],[9.13422,39.25301],[9.13419,39.2528],[9.133,39.25128],[9.13198,39.25189],[9.13145,39.25108],[9.13013,39.25162],[9.12945,39.25086],[9.12842,39.25132],[9.12844,39.25165],[9.12766,39.25187],[9.12654,39.25197],[9.12593,39.25225],[9.12435,39.2507],[9.12367,39.25018],[9.12312,39.25036],[9.12173,39.25172],[9.12076,39.25236],[9.11844,39.25062]]]},"properties":{"zona":"D12","linkzona":"CA00003349","fascia":"D","fascia_label":"Periferica","descr":"PIRRI CENTRO - MONREALE - SANTA MARIA CHIARA","semestre":"2025-S2","loc_min":7.5,"loc_max":9.5,"loc_mid":8.5,"sale_min":1800.0,"sale_max":2300.0,"sup":"L","tipologia":"Abitazioni civili","stato":"NORMALE","trend":9.0,"trend_from":"2023-S2"}},{"type":"Feature","geometry":{"type":"Polygon","coordinates":[[[9.11646,39.21217],[9.11634,39.2119],[9.11567,39.21157],[9.11552,39.21099],[9.11562,39.21048],[9.11788,39.20961],[9.11768,39.20942],[9.11764,39.2091],[9.11979,39.20835],[9.12089,39.20783],[9.12282,39.20653],[9.12322,39.20696],[9.12386,39.20765],[9.12318,39.2083],[9.12324,39.20946],[9.12309,39.21007],[9.1233,39.21248],[9.12347,39.21293],[9.12466,39.21417],[9.12548,39.21436],[9.12618,39.21389],[9.12724,39.21337],[9.12789,39.21326],[9.12939,39.21274],[9.12997,39.21276],[9.13073,39.21314],[9.13082,39.21488],[9.13074,39.21541],[9.13043,39.21578],[9.13048,39.21707],[9.13089,39.21745],[9.13128,39.21862],[9.13116,39.22004],[9.13264,39.22031],[9.13356,39.22073],[9.13379,39.22156],[9.13345,39.22216],[9.13199,39.22333],[9.13143,39.22395],[9.1313,39.22437],[9.12994,39.22475],[9.12923,39.22518],[9.12981,39.2259],[9.12787,39.22676],[9.12721,39.22678],[9.12684,39.22708],[9.12662,39.22758],[9.12557,39.22711],[9.12467,39.22683],[9.12298,39.22514],[9.12182,39.2238],[9.12151,39.22278],[9.12136,39.22147],[9.12087,39.22083],[9.12092,39.22051],[9.12149,39.21958],[9.12106,39.21855],[9.12059,39.21829],[9.12101,39.21802],[9.12031,39.217],[9.1206,39.21676],[9.12009,39.21603],[9.1196,39.21557],[9.11894,39.21466],[9.11805,39.21459],[9.11746,39.2144],[9.11824,39.2132],[9.11664,39.21275],[9.11646,39.21217]],[[9.1182,39.2104],[9.11803,39.20981],[9.11601,39.21059],[9.11623,39.21096],[9.1182,39.2104]]]},"properties":{"zona":"B2","linkzona":"CA00000011","fascia":"B","fascia_label":"Centrale","descr":"SAN BENEDETTO - TRIBUNALE - VIA SONNINO","semestre":"2025-S2","loc_min":7.8,"loc_max":9.8,"loc_mid":8.8,"sale_min":1900.0,"sale_max":2400.0,"sup":"L","tipologia":"Abitazioni civili","stato":"NORMALE","trend":3.5,"trend_from":"2023-S2"}},{"type":"Feature","geometry":{"type":"Polygon","coordinates":[[[9.15379,39.19668],[9.15424,39.19606],[9.15398,39.1955],[9.15351,39.19517],[9.15435,39.19474],[9.15415,39.1942],[9.15984,39.19275],[9.15975,39.19234],[9.16196,39.19144],[9.16481,39.19041],[9.1646,39.19096],[9.16458,39.19146],[9.16402,39.19124],[9.16218,39.19196],[9.16194,39.19247],[9.16246,39.19271],[9.16061,39.19315],[9.16028,39.19343],[9.16009,39.19445],[9.16018,39.19545],[9.16043,39.19623],[9.16124,39.19828],[9.16295,39.20085],[9.16385,39.20207],[9.16519,39.20368],[9.16604,39.20461],[9.16736,39.20586],[9.16891,39.20717],[9.16921,39.20749],[9.17076,39.20877],[9.17113,39.20916],[9.17295,39.21074],[9.17412,39.21162],[9.17468,39.21217],[9.17818,39.21437],[9.18089,39.21597],[9.18191,39.21652],[9.18103,39.21779],[9.17846,39.22475],[9.17516,39.22349],[9.17287,39.22277],[9.17125,39.22208],[9.16775,39.22068],[9.16729,39.22053],[9.16645,39.21999],[9.16519,39.21929],[9.1646,39.2191],[9.16453,39.219],[9.16401,39.21863],[9.16379,39.21829],[9.16226,39.21681],[9.16068,39.21577],[9.1604,39.21551],[9.1599,39.21516],[9.15857,39.21429],[9.1578,39.21372],[9.15656,39.21246],[9.15504,39.21079],[9.15478,39.21064],[9.1544,39.20943],[9.15464,39.20913],[9.15439,39.20817],[9.15399,39.20773],[9.15336,39.20743],[9.15331,39.20669],[9.15339,39.20539],[9.15378,39.2011],[9.15372,39.19938],[9.1537,39.197],[9.15379,39.19668]]]},"properties":{"zona":"D16","linkzona":"CA00003353","fascia":"D","fascia_label":"Periferica","descr":"POETTO","semestre":"2025-S2","loc_min":8.0,"loc_max":11.0,"loc_mid":9.5,"sale_min":2500.0,"sale_max":3400.0,"sup":"L","tipologia":"Abitazioni civili","stato":"NORMALE","trend":9.2,"trend_from":"2023-S2"}},{"type":"Feature","geometry":{"type":"MultiPolygon","coordinates":[[[[9.13539,39.25251],[9.13484,39.2521],[9.13412,39.25123],[9.13447,39.25114],[9.13523,39.25022],[9.13405,39.24877],[9.13367,39.24819],[9.1324,39.24665],[9.13375,39.24569],[9.13273,39.24479],[9.13222,39.24461],[9.13336,39.2439],[9.13239,39.24299],[9.13196,39.24316],[9.13137,39.24227],[9.12965,39.24115],[9.12942,39.24128],[9.12881,39.24099],[9.12806,39.24028],[9.12744,39.24009],[9.12684,39.24013],[9.12626,39.23975],[9.12566,39.24003],[9.12543,39.23909],[9.12484,39.23759],[9.12471,39.23701],[9.12453,39.23625],[9.12552,39.23611],[9.1267,39.23558],[9.12801,39.2352],[9.12952,39.23452],[9.12957,39.23434],[9.1313,39.23365],[9.13198,39.23331],[9.13233,39.23346],[9.13328,39.23306],[9.13404,39.23291],[9.13381,39.23232],[9.13447,39.23188],[9.13499,39.2318],[9.136,39.2327],[9.13793,39.23412],[9.13837,39.23435],[9.13909,39.23386],[9.13912,39.23365],[9.13993,39.23314],[9.13984,39.23298],[9.14014,39.23304],[9.14062,39.2336],[9.14267,39.23545],[9.14366,39.23615],[9.14693,39.23829],[9.14753,39.23848],[9.14899,39.23914],[9.15024,39.23963],[9.15143,39.24059],[9.15186,39.24014],[9.15264,39.24032],[9.15332,39.2403],[9.15414,39.24017],[9.1545,39.24339],[9.15536,39.24325],[9.15501,39.24396],[9.15415,39.24484],[9.15345,39.24527],[9.15059,39.24592],[9.14492,39.24787],[9.14299,39.24923],[9.13539,39.25251]]],[[[9.12944,39.23441],[9.12945,39.23428],[9.12948,39.2344],[9.12944,39.23441]]]]},"properties":{"zona":"D13","linkzona":"CA00003350","fascia":"D","fascia_label":"Periferica","descr":"PIRRI OVEST (IS BINGIAS - VIA VESALIO)","semestre":"2025-S2","loc_min":6.5,"loc_max":9.0,"loc_mid":7.75,"sale_min":1600.0,"sale_max":2300.0,"sup":"L","tipologia":"Abitazioni civili","stato":"NORMALE","trend":2.0,"trend_from":"2023-S2"}},{"type":"Feature","geometry":{"type":"Polygon","coordinates":[[[9.09877,39.25948],[9.09994,39.26011],[9.10164,39.26059],[9.10222,39.2608],[9.10201,39.26202],[9.10163,39.26345],[9.10327,39.2642],[9.10413,39.26469],[9.10442,39.26502],[9.10518,39.26544],[9.10606,39.26573],[9.10741,39.26522],[9.10705,39.26606],[9.10652,39.26671],[9.10547,39.26828],[9.10491,39.26921],[9.10408,39.26946],[9.10359,39.27158],[9.10359,39.27235],[9.10282,39.27266],[9.10183,39.27354],[9.10212,39.27419],[9.10285,39.27463],[9.10295,39.27544],[9.10132,39.27667],[9.10026,39.27787],[9.09925,39.27696],[9.09884,39.27857],[9.09834,39.2814],[9.09598,39.28117],[9.09521,39.28243],[9.09472,39.28222],[9.0939,39.28225],[9.09305,39.2818],[9.09208,39.28171],[9.09119,39.28128],[9.08975,39.28028],[9.08925,39.27975],[9.08837,39.27932],[9.08744,39.27845],[9.0871,39.27793],[9.08645,39.27766],[9.08603,39.2773],[9.08566,39.27625],[9.08347,39.27578],[9.08353,39.27496],[9.08388,39.27312],[9.08404,39.27273],[9.08346,39.2725],[9.08286,39.27246],[9.0822,39.27209],[9.08199,39.27137],[9.0822,39.27092],[9.08138,39.27088],[9.08072,39.2707],[9.07976,39.27094],[9.07808,39.27096],[9.0772,39.27109],[9.07549,39.27108],[9.07559,39.27079],[9.07663,39.26898],[9.07718,39.26828],[9.07755,39.26805],[9.07668,39.26774],[9.0774,39.26626],[9.07886,39.26379],[9.07905,39.26266],[9.07985,39.26125],[9.08064,39.25893],[9.08117,39.25815],[9.08208,39.25723],[9.08228,39.25734],[9.08274,39.25764],[9.08349,39.25842],[9.08349,39.259],[9.08315,39.2593],[9.08298,39.25986],[9.08336,39.26053],[9.08486,39.26162],[9.08533,39.26208],[9.08544,39.26249],[9.08702,39.26243],[9.08766,39.26255],[9.08914,39.26194],[9.09149,39.26023],[9.09255,39.25963],[9.09373,39.25887],[9.09476,39.2587],[9.09877,39.25948]]]},"properties":{"zona":"E5","linkzona":"CA00003327","fascia":"E","fascia_label":"Suburbana","descr":"SU STANGIONI - SAN LORENZO","semestre":"2025-S2","loc_min":null,"loc_max":null,"loc_mid":null,"nonres":true}},{"type":"Feature","geometry":{"type":"Polygon","coordinates":[[[9.11907,39.23988],[9.11892,39.2396],[9.12005,39.23723],[9.12051,39.23725],[9.12357,39.23645],[9.12302,39.23501],[9.12216,39.23538],[9.12041,39.23372],[9.11975,39.23442],[9.11805,39.23364],[9.1172,39.23368],[9.11677,39.23351],[9.11673,39.23279],[9.11503,39.23184],[9.11458,39.23174],[9.11306,39.23027],[9.11129,39.23109],[9.11103,39.23006],[9.11096,39.22883],[9.11114,39.22836],[9.1132,39.22747],[9.11445,39.22718],[9.11588,39.22654],[9.11682,39.22539],[9.11811,39.22335],[9.11825,39.22325],[9.11843,39.22385],[9.11879,39.22423],[9.11859,39.22456],[9.118,39.22463],[9.11795,39.2256],[9.11828,39.22577],[9.11816,39.22661],[9.11849,39.22711],[9.1195,39.22734],[9.11972,39.22684],[9.12002,39.22682],[9.12182,39.2238],[9.12298,39.22514],[9.12467,39.22683],[9.12557,39.22711],[9.12662,39.22758],[9.12773,39.22845],[9.12731,39.22923],[9.12673,39.22993],[9.12743,39.23059],[9.12826,39.23174],[9.12925,39.23342],[9.12945,39.23428],[9.12944,39.23441],[9.12948,39.2344],[9.12952,39.23452],[9.12801,39.2352],[9.1267,39.23558],[9.12552,39.23611],[9.12453,39.23625],[9.12471,39.23701],[9.12377,39.23667],[9.12119,39.23731],[9.1205,39.23769],[9.11987,39.23833],[9.11918,39.23982],[9.11907,39.23988]]]},"properties":{"zona":"C2","linkzona":"CA00003328","fascia":"C","fascia_label":"Semicentrale","descr":"LA VEGA - FONSARDA","semestre":"2025-S2","loc_min":6.5,"loc_max":9.0,"loc_mid":7.75,"sale_min":1800.0,"sale_max":2400.0,"sup":"L","tipologia":"Abitazioni civili","stato":"NORMALE","trend":4.0,"trend_from":"2023-S2"}},{"type":"Feature","geometry":{"type":"Polygon","coordinates":[[[9.11773,39.21832],[9.11808,39.2191],[9.11785,39.21985],[9.11743,39.22019],[9.11714,39.2209],[9.11738,39.22172],[9.11682,39.22166],[9.11625,39.22135],[9.11621,39.22138],[9.11618,39.22141],[9.11582,39.22063],[9.11503,39.22046],[9.11483,39.22075],[9.11425,39.22059],[9.1141,39.22022],[9.11459,39.21885],[9.11494,39.2184],[9.11438,39.21777],[9.11403,39.21708],[9.11474,39.21701],[9.11676,39.2158],[9.11712,39.21706],[9.11743,39.21711],[9.11753,39.21791],[9.11773,39.21832]]]},"properties":{"zona":"B4","linkzona":"CA00002237","fascia":"B","fascia_label":"Centrale","descr":"CASTELLO","semestre":"2025-S2","loc_min":6.7,"loc_max":9.2,"loc_mid":7.95,"sale_min":1800.0,"sale_max":2600.0,"sup":"L","tipologia":"Abitazioni civili","stato":"NORMALE","trend":8.2,"trend_from":"2023-S2"}},{"type":"Feature","geometry":{"type":"Polygon","coordinates":[[[9.12182,39.2238],[9.12002,39.22682],[9.11972,39.22684],[9.1195,39.22734],[9.11849,39.22711],[9.11816,39.22661],[9.11828,39.22577],[9.11795,39.2256],[9.118,39.22463],[9.11859,39.22456],[9.11879,39.22423],[9.11843,39.22385],[9.11825,39.22325],[9.11782,39.22302],[9.11738,39.22172],[9.11714,39.2209],[9.11743,39.22019],[9.11785,39.21985],[9.11808,39.2191],[9.11773,39.21832],[9.11753,39.21791],[9.11743,39.21711],[9.11712,39.21706],[9.11676,39.2158],[9.11716,39.21454],[9.11746,39.2144],[9.11805,39.21459],[9.11894,39.21466],[9.1196,39.21557],[9.12009,39.21603],[9.1206,39.21676],[9.12031,39.217],[9.12101,39.21802],[9.12059,39.21829],[9.12106,39.21855],[9.12149,39.21958],[9.12092,39.22051],[9.12087,39.22083],[9.12136,39.22147],[9.12151,39.22278],[9.12182,39.2238]]]},"properties":{"zona":"B3","linkzona":"CA00000012","fascia":"B","fascia_label":"Centrale","descr":"VILLANOVA","semestre":"2025-S2","loc_min":7.0,"loc_max":9.5,"loc_mid":8.25,"sale_min":1800.0,"sale_max":2700.0,"sup":"L","tipologia":"Abitazioni civili","stato":"NORMALE","trend":11.5,"trend_from":"2023-S2"}},{"type":"Feature","geometry":{"type":"Polygon","coordinates":[[[9.13356,39.22073],[9.13381,39.22089],[9.13551,39.22102],[9.13722,39.22088],[9.13865,39.22043],[9.13976,39.21944],[9.14031,39.2187],[9.14062,39.21805],[9.14092,39.21815],[9.14077,39.21913],[9.1399,39.22094],[9.1396,39.22183],[9.1393,39.22344],[9.13919,39.22344],[9.13872,39.22602],[9.13853,39.22996],[9.1386,39.23038],[9.13918,39.23209],[9.13984,39.23298],[9.13993,39.23314],[9.13912,39.23365],[9.13909,39.23386],[9.13837,39.23435],[9.13793,39.23412],[9.136,39.2327],[9.13499,39.2318],[9.13447,39.23188],[9.13381,39.23232],[9.13404,39.23291],[9.13328,39.23306],[9.13233,39.23346],[9.13198,39.23331],[9.1313,39.23365],[9.12957,39.23434],[9.12952,39.23452],[9.12948,39.2344],[9.12945,39.23428],[9.12925,39.23342],[9.12826,39.23174],[9.12743,39.23059],[9.12673,39.22993],[9.12731,39.22923],[9.12773,39.22845],[9.12662,39.22758],[9.12684,39.22708],[9.12721,39.22678],[9.12787,39.22676],[9.12981,39.2259],[9.12923,39.22518],[9.12994,39.22475],[9.1313,39.22437],[9.13143,39.22395],[9.13199,39.22333],[9.13345,39.22216],[9.13379,39.22156],[9.13356,39.22073]]]},"properties":{"zona":"C5","linkzona":"CA00003331","fascia":"C","fascia_label":"Semicentrale","descr":"GENNERUXI - VIA CASTIGLIONE","semestre":"2025-S2","loc_min":7.8,"loc_max":11.0,"loc_mid":9.4,"sale_min":2050.0,"sale_max":2700.0,"sup":"L","tipologia":"Abitazioni civili","stato":"NORMALE","trend":8.7,"trend_from":"2023-S2"}},{"type":"Feature","geometry":{"type":"Polygon","coordinates":[[[9.11103,39.23006],[9.11079,39.23113],[9.10983,39.23074],[9.10943,39.23115],[9.10801,39.23073],[9.10774,39.2309],[9.10696,39.23007],[9.10592,39.2294],[9.1058,39.22892],[9.10647,39.22788],[9.10634,39.22708],[9.1058,39.22677],[9.10509,39.22662],[9.10418,39.22676],[9.10272,39.22783],[9.10181,39.22775],[9.10057,39.22713],[9.10085,39.22653],[9.10079,39.22622],[9.10127,39.22585],[9.10085,39.22564],[9.09949,39.22424],[9.09955,39.22411],[9.10071,39.22278],[9.10231,39.22085],[9.10291,39.21999],[9.10433,39.21897],[9.10473,39.21936],[9.10556,39.21864],[9.10614,39.21856],[9.10718,39.21949],[9.10591,39.21995],[9.10674,39.22111],[9.10738,39.22021],[9.10821,39.22035],[9.109,39.21999],[9.10957,39.21994],[9.11022,39.22008],[9.11025,39.22044],[9.11097,39.22093],[9.11133,39.22167],[9.11197,39.22191],[9.11246,39.2227],[9.11279,39.223],[9.11181,39.22369],[9.11248,39.22409],[9.11334,39.22444],[9.1142,39.22444],[9.11475,39.22378],[9.11511,39.22417],[9.11561,39.2229],[9.11575,39.22194],[9.11618,39.22141],[9.11621,39.22138],[9.11625,39.22135],[9.11682,39.22166],[9.11738,39.22172],[9.11782,39.22302],[9.11825,39.22325],[9.11811,39.22335],[9.11682,39.22539],[9.11588,39.22654],[9.11445,39.22718],[9.1132,39.22747],[9.11114,39.22836],[9.11096,39.22883],[9.11103,39.23006]]]},"properties":{"zona":"C3","linkzona":"CA00003329","fascia":"C","fascia_label":"Semicentrale","descr":"VIA POLA - VIALE MERELLO - BUONCAMINO","semestre":"2025-S2","loc_min":7.5,"loc_max":10.5,"loc_mid":9.0,"sale_min":1750.0,"sale_max":2600.0,"sup":"L","tipologia":"Abitazioni civili","stato":"NORMALE","trend":9.1,"trend_from":"2023-S2"}},{"type":"Feature","geometry":{"type":"Polygon","coordinates":[[[9.13356,39.22073],[9.13264,39.22031],[9.13116,39.22004],[9.13128,39.21862],[9.13089,39.21745],[9.13048,39.21707],[9.13043,39.21578],[9.13074,39.21541],[9.13082,39.21488],[9.13073,39.21314],[9.12997,39.21276],[9.12939,39.21274],[9.12789,39.21326],[9.12724,39.21337],[9.12618,39.21389],[9.12548,39.21436],[9.12466,39.21417],[9.12347,39.21293],[9.1233,39.21248],[9.12309,39.21007],[9.12324,39.20946],[9.12318,39.2083],[9.12386,39.20765],[9.12322,39.20696],[9.12282,39.20653],[9.12369,39.20575],[9.12389,39.20536],[9.12208,39.20442],[9.12268,39.20376],[9.12471,39.20226],[9.12298,39.20125],[9.12481,39.20009],[9.12779,39.20034],[9.12824,39.20082],[9.12869,39.20085],[9.12769,39.20201],[9.12932,39.20292],[9.1268,39.20469],[9.12745,39.2053],[9.12842,39.20476],[9.12888,39.20548],[9.13045,39.20539],[9.13141,39.20588],[9.13159,39.20611],[9.13175,39.20714],[9.1319,39.2073],[9.13389,39.20715],[9.13461,39.20782],[9.136,39.20886],[9.13567,39.20926],[9.13841,39.21017],[9.13996,39.21075],[9.14119,39.21134],[9.14208,39.21193],[9.14267,39.21238],[9.14436,39.2138],[9.14361,39.21611],[9.14313,39.21679],[9.1417,39.21792],[9.14077,39.21913],[9.14092,39.21815],[9.14062,39.21805],[9.14031,39.2187],[9.13976,39.21944],[9.13865,39.22043],[9.13722,39.22088],[9.13551,39.22102],[9.13381,39.22089],[9.13356,39.22073]]]},"properties":{"zona":"C4","linkzona":"CA00003330","fascia":"C","fascia_label":"Semicentrale","descr":"MONTE URPINU - BONARIA","semestre":"2025-S2","loc_min":7.7,"loc_max":11.5,"loc_mid":9.6,"sale_min":2100.0,"sale_max":2900.0,"sup":"L","tipologia":"Abitazioni civili","stato":"NORMALE","trend":8.5,"trend_from":"2023-S2"}},{"type":"Feature","geometry":{"type":"Polygon","coordinates":[[[9.13984,39.23298],[9.13918,39.23209],[9.1386,39.23038],[9.13853,39.22996],[9.13872,39.22602],[9.13919,39.22344],[9.1393,39.22344],[9.1396,39.22183],[9.1399,39.22094],[9.14077,39.21913],[9.1417,39.21792],[9.14313,39.21679],[9.14361,39.21611],[9.14436,39.2138],[9.14267,39.21238],[9.14246,39.21102],[9.14249,39.21069],[9.14308,39.20904],[9.14327,39.20826],[9.14344,39.20603],[9.14356,39.20532],[9.14462,39.20573],[9.14852,39.20575],[9.15171,39.20618],[9.15318,39.20737],[9.15336,39.20743],[9.15399,39.20773],[9.15439,39.20817],[9.15464,39.20913],[9.1544,39.20943],[9.15478,39.21065],[9.15502,39.21081],[9.15659,39.21253],[9.15788,39.21382],[9.15826,39.21413],[9.15859,39.21432],[9.15945,39.2149],[9.16013,39.21533],[9.1607,39.2158],[9.16226,39.21684],[9.16379,39.21833],[9.16399,39.21865],[9.16412,39.21877],[9.16453,39.21904],[9.16457,39.21912],[9.16476,39.21917],[9.16431,39.22018],[9.16238,39.22248],[9.16111,39.22373],[9.15659,39.22065],[9.1538,39.2188],[9.15201,39.21771],[9.15148,39.21752],[9.15179,39.22035],[9.15247,39.22587],[9.15414,39.24016],[9.15332,39.2403],[9.15264,39.24032],[9.15186,39.24014],[9.15143,39.24059],[9.15024,39.23963],[9.14899,39.23914],[9.14753,39.23848],[9.14693,39.23829],[9.14366,39.23615],[9.14267,39.23545],[9.14062,39.2336],[9.14014,39.23304],[9.13984,39.23298]]]},"properties":{"zona":"E2","linkzona":"CA00001571","fascia":"E","fascia_label":"Suburbana","descr":"MEDAU SU CRAMU","semestre":"2025-S2","loc_min":3.2,"loc_max":4.5,"loc_mid":3.85,"sale_min":900.0,"sale_max":1200.0,"sup":"L","tipologia":"Abitazioni civili","stato":"NORMALE","trend":0.0,"trend_from":"2023-S2"}},{"type":"Feature","geometry":{"type":"MultiPolygon","coordinates":[[[[9.11646,39.21217],[9.11664,39.21275],[9.11824,39.2132],[9.11746,39.2144],[9.11716,39.21454],[9.11676,39.2158],[9.11474,39.21701],[9.11403,39.21708],[9.11438,39.21777],[9.11494,39.2184],[9.11459,39.21885],[9.1141,39.22022],[9.11425,39.22059],[9.11483,39.22075],[9.11503,39.22046],[9.11582,39.22063],[9.11618,39.22141],[9.11575,39.22194],[9.11561,39.2229],[9.11511,39.22417],[9.11475,39.22378],[9.1142,39.22444],[9.11334,39.22444],[9.11248,39.22409],[9.11181,39.22369],[9.11279,39.223],[9.11246,39.2227],[9.11197,39.22191],[9.11133,39.22167],[9.11097,39.22093],[9.11025,39.22044],[9.11022,39.22008],[9.10957,39.21994],[9.109,39.21999],[9.10821,39.22035],[9.10738,39.22021],[9.10674,39.22111],[9.10591,39.21995],[9.10718,39.21949],[9.10614,39.21856],[9.10556,39.21864],[9.10473,39.21936],[9.10433,39.21897],[9.10291,39.21999],[9.10358,39.21899],[9.10418,39.21856],[9.10558,39.2169],[9.10591,39.21708],[9.10647,39.21629],[9.10579,39.21609],[9.10636,39.2156],[9.10703,39.21467],[9.10803,39.21447],[9.10747,39.21374],[9.10578,39.21357],[9.10558,39.21315],[9.10629,39.21287],[9.10679,39.21252],[9.10759,39.21149],[9.10745,39.21142],[9.10839,39.21011],[9.10895,39.2094],[9.10944,39.20961],[9.10992,39.20925],[9.10707,39.213],[9.11003,39.21398],[9.11093,39.21352],[9.11013,39.21267],[9.11071,39.21236],[9.1114,39.2131],[9.11205,39.21298],[9.11366,39.21208],[9.11294,39.21113],[9.11348,39.21076],[9.11455,39.21202],[9.11547,39.21161],[9.11484,39.21057],[9.1142,39.21017],[9.11368,39.21031],[9.11353,39.21001],[9.11484,39.20955],[9.11327,39.20691],[9.11417,39.20659],[9.11542,39.20871],[9.11729,39.20914],[9.11768,39.20942],[9.11788,39.20961],[9.11562,39.21048],[9.11552,39.21099],[9.11567,39.21157],[9.11577,39.21206],[9.11634,39.2119],[9.11646,39.21217]]],[[[9.1182,39.2104],[9.11623,39.21096],[9.11601,39.21059],[9.11803,39.20981],[9.1182,39.2104]]]]},"properties":{"zona":"B1","linkzona":"CA00001562","fascia":"B","fascia_label":"Centrale","descr":"MARINA - STAMPACE","semestre":"2025-S2","loc_min":7.7,"loc_max":10.8,"loc_mid":9.25,"sale_min":2000.0,"sale_max":2800.0,"sup":"L","tipologia":"Abitazioni civili","stato":"NORMALE","trend":10.8,"trend_from":"2023-S2"}},{"type":"Feature","geometry":{"type":"MultiPolygon","coordinates":[[[[9.12824,39.20082],[9.12823,39.2008],[9.12853,39.20078],[9.13832,39.20166],[9.14051,39.20315],[9.1408,39.20301],[9.14335,39.20467],[9.14298,39.2048],[9.14356,39.20532],[9.14344,39.20603],[9.14327,39.20826],[9.14308,39.20904],[9.14249,39.21069],[9.14246,39.21102],[9.14225,39.21184],[9.14208,39.21193],[9.14119,39.21134],[9.13996,39.21075],[9.13841,39.21017],[9.13567,39.20926],[9.136,39.20886],[9.13461,39.20782],[9.13389,39.20715],[9.1319,39.2073],[9.13175,39.20714],[9.13159,39.20611],[9.13141,39.20588],[9.13045,39.20539],[9.12888,39.20548],[9.12842,39.20476],[9.12745,39.2053],[9.1268,39.20469],[9.12932,39.20292],[9.12769,39.20201],[9.12869,39.20085],[9.12824,39.20082]]],[[[9.12862,39.19999],[9.12851,39.20017],[9.12692,39.20001],[9.11464,39.19944],[9.10979,39.19562],[9.10966,39.19539],[9.11458,39.19927],[9.11505,39.19935],[9.11977,39.19957],[9.1198,39.19962],[9.1269,39.19995],[9.12784,39.19996],[9.12862,39.19999]]]]},"properties":{"zona":"D3","linkzona":"CA00000015","fascia":"D","fascia_label":"Periferica","descr":"AMSICORA - MONTE MIXI","semestre":"2025-S2","loc_min":7.2,"loc_max":9.5,"loc_mid":8.35,"sale_min":1900.0,"sale_max":2500.0,"sup":"L","tipologia":"Abitazioni civili","stato":"NORMALE","trend":3.1,"trend_from":"2023-S2"}},{"type":"Feature","geometry":{"type":"Polygon","coordinates":[[[9.15336,39.20743],[9.15318,39.20737],[9.15171,39.20618],[9.14852,39.20575],[9.14462,39.20573],[9.14356,39.20532],[9.14298,39.2048],[9.14335,39.20467],[9.1408,39.20301],[9.14076,39.20282],[9.14156,39.20157],[9.148,39.19806],[9.14826,39.19809],[9.15114,39.19654],[9.15351,39.19517],[9.15398,39.1955],[9.15424,39.19606],[9.15379,39.19668],[9.1537,39.197],[9.15372,39.19938],[9.15378,39.2011],[9.15339,39.20539],[9.15331,39.20669],[9.15336,39.20743]]]},"properties":{"zona":"D4","linkzona":"CA00001564","fascia":"D","fascia_label":"Periferica","descr":"QUARTIERE DEL SOLE - LA PALMA","semestre":"2025-S2","loc_min":7.5,"loc_max":11.0,"loc_mid":9.25,"sale_min":2100.0,"sale_max":2900.0,"sup":"L","tipologia":"Abitazioni civili","stato":"NORMALE","trend":8.8,"trend_from":"2023-S2"}},{"type":"Feature","geometry":{"type":"Polygon","coordinates":[[[9.11907,39.23988],[9.11779,39.24268],[9.11619,39.24672],[9.11587,39.24716],[9.11579,39.24719],[9.115,39.24933],[9.11488,39.24947],[9.11154,39.25038],[9.11121,39.24956],[9.11028,39.24783],[9.11004,39.24711],[9.10967,39.24672],[9.1084,39.24701],[9.10851,39.24736],[9.10791,39.24737],[9.10772,39.24702],[9.10707,39.24719],[9.10712,39.24751],[9.10597,39.24778],[9.10579,39.24731],[9.10383,39.24781],[9.10425,39.24615],[9.10434,39.24587],[9.10306,39.24474],[9.10274,39.24377],[9.10194,39.24289],[9.10288,39.24231],[9.10155,39.24127],[9.10094,39.24053],[9.10123,39.24034],[9.10084,39.23986],[9.10054,39.23908],[9.10153,39.23849],[9.10184,39.23813],[9.10178,39.23778],[9.1031,39.23778],[9.10451,39.23745],[9.10579,39.23679],[9.10481,39.23554],[9.10441,39.2354],[9.10491,39.23489],[9.10562,39.23456],[9.1058,39.23475],[9.10657,39.23472],[9.10748,39.2344],[9.10717,39.23397],[9.10847,39.23342],[9.10787,39.23319],[9.10733,39.23265],[9.10748,39.23247],[9.10774,39.2309],[9.10801,39.23073],[9.10943,39.23115],[9.10983,39.23074],[9.11079,39.23113],[9.11103,39.23006],[9.11129,39.23109],[9.11306,39.23027],[9.11458,39.23174],[9.11503,39.23184],[9.11673,39.23279],[9.11677,39.23351],[9.1172,39.23368],[9.11805,39.23364],[9.11975,39.23442],[9.12041,39.23372],[9.12216,39.23538],[9.12302,39.23501],[9.12357,39.23645],[9.12051,39.23725],[9.12005,39.23723],[9.11892,39.2396],[9.11907,39.23988]]]},"properties":{"zona":"D10","linkzona":"CA00003347","fascia":"D","fascia_label":"Periferica","descr":"IS MIRRIONIS - MONTE CLARO","semestre":"2025-S2","loc_min":6.5,"loc_max":8.7,"loc_mid":7.6,"sale_min":1700.0,"sale_max":2300.0,"sup":"L","tipologia":"Abitazioni civili","stato":"NORMALE","trend":5.6,"trend_from":"2023-S2"}},{"type":"Feature","geometry":{"type":"Polygon","coordinates":[[[9.10774,39.2309],[9.10748,39.23247],[9.10733,39.23265],[9.10787,39.23319],[9.10847,39.23342],[9.10717,39.23397],[9.10748,39.2344],[9.10657,39.23472],[9.1058,39.23475],[9.10562,39.23456],[9.10491,39.23489],[9.10441,39.2354],[9.10481,39.23554],[9.10579,39.23679],[9.10451,39.23745],[9.1031,39.23778],[9.10178,39.23778],[9.10184,39.23813],[9.10153,39.23849],[9.10054,39.23908],[9.10084,39.23986],[9.10123,39.24034],[9.10094,39.24053],[9.10155,39.24127],[9.10288,39.24231],[9.10194,39.24289],[9.10274,39.24377],[9.10306,39.24474],[9.10434,39.24587],[9.10425,39.24615],[9.10361,39.24556],[9.10296,39.24605],[9.10228,39.24542],[9.10191,39.2453],[9.10185,39.24701],[9.09795,39.24689],[9.09694,39.24606],[9.09563,39.24644],[9.09423,39.24526],[9.09256,39.24411],[9.09239,39.24535],[9.0906,39.24452],[9.09091,39.24408],[9.08993,39.24369],[9.08985,39.24344],[9.08906,39.24328],[9.08856,39.24377],[9.08814,39.24386],[9.08628,39.24318],[9.08612,39.24379],[9.0854,39.24329],[9.08631,39.24218],[9.08656,39.24098],[9.08883,39.23989],[9.08895,39.23997],[9.0902,39.23924],[9.09089,39.23848],[9.09132,39.23688],[9.09118,39.23658],[9.09126,39.23556],[9.09075,39.23541],[9.09027,39.23501],[9.08923,39.23476],[9.0885,39.23475],[9.08778,39.23441],[9.08714,39.23375],[9.08717,39.23274],[9.08789,39.23214],[9.08813,39.23217],[9.0889,39.23166],[9.08932,39.23241],[9.0897,39.23179],[9.09151,39.23031],[9.09369,39.22881],[9.09443,39.2286],[9.09541,39.22789],[9.09586,39.22716],[9.09603,39.22615],[9.09751,39.22492],[9.09816,39.22453],[9.09855,39.22349],[9.0988,39.22308],[9.09921,39.22322],[9.09955,39.22411],[9.09949,39.22424],[9.10085,39.22564],[9.10127,39.22585],[9.10079,39.22622],[9.10085,39.22653],[9.10057,39.22713],[9.10181,39.22775],[9.10272,39.22783],[9.10418,39.22676],[9.10509,39.22662],[9.1058,39.22677],[9.10634,39.22708],[9.10647,39.22788],[9.1058,39.22892],[9.10592,39.2294],[9.10696,39.23007],[9.10774,39.2309]]]},"properties":{"zona":"D2","linkzona":"CA00000014","fascia":"D","fascia_label":"Periferica","descr":"SANT`AVENDRACE  - SAN MICHELE","semestre":"2025-S2","loc_min":6.5,"loc_max":8.5,"loc_mid":7.5,"sale_min":1700.0,"sale_max":2300.0,"sup":"L","tipologia":"Abitazioni civili","stato":"NORMALE","trend":4.9,"trend_from":"2023-S2"}},{"type":"Feature","geometry":{"type":"MultiPolygon","coordinates":[[[[9.08188,39.24773],[9.08162,39.24796],[9.08139,39.24865],[9.08087,39.24788],[9.08105,39.24753],[9.08073,39.24709],[9.07989,39.24887],[9.0793,39.24842],[9.07867,39.24731],[9.07757,39.24668],[9.07755,39.24739],[9.078,39.24728],[9.07865,39.24753],[9.07837,39.24795],[9.07703,39.24785],[9.07582,39.24737],[9.07418,39.24694],[9.07331,39.24656],[9.07197,39.2456],[9.07147,39.24565],[9.0707,39.24526],[9.07079,39.24498],[9.07044,39.2445],[9.0695,39.24412],[9.06886,39.24357],[9.06822,39.24343],[9.06785,39.24424],[9.06706,39.24471],[9.06687,39.24414],[9.0665,39.24392],[9.06601,39.24249],[9.06631,39.24197],[9.06539,39.24119],[9.06577,39.24041],[9.06525,39.24017],[9.06497,39.23954],[9.06488,39.2386],[9.06416,39.23848],[9.06332,39.2386],[9.06199,39.23927],[9.06156,39.23975],[9.06035,39.24039],[9.05991,39.24049],[9.05903,39.241],[9.05586,39.24193],[9.05384,39.24237],[9.05255,39.24281],[9.05113,39.24341],[9.05055,39.24382],[9.04971,39.24408],[9.04933,39.24436],[9.04892,39.2454],[9.0489,39.24578],[9.04951,39.24723],[9.04968,39.24885],[9.05028,39.25041],[9.04997,39.25123],[9.05028,39.25149],[9.05047,39.25216],[9.05081,39.25263],[9.05069,39.25296],[9.05091,39.2539],[9.05069,39.25418],[9.04963,39.2544],[9.04891,39.25505],[9.04838,39.2552],[9.04796,39.25606],[9.04745,39.25652],[9.04743,39.2569],[9.04644,39.25726],[9.04643,39.25778],[9.04588,39.25826],[9.04481,39.25966],[9.04364,39.2614],[9.0427,39.26168],[9.04178,39.26212],[9.04047,39.26342],[9.0399,39.2636],[9.03883,39.26434],[9.03758,39.26458],[9.03692,39.26515],[9.03664,39.26577],[9.03589,39.26572],[9.03516,39.26645],[9.03544,39.26743],[9.03453,39.26773],[9.03349,39.26752],[9.03348,39.26848],[9.03287,39.26851],[9.03308,39.26768],[9.03285,39.26717],[9.03215,39.26687],[9.03133,39.26714],[9.03111,39.26687],[9.03028,39.26682],[9.02983,39.26705],[9.0292,39.2671],[9.02783,39.26741],[9.02588,39.26712],[9.02562,39.26678],[9.02498,39.2666],[9.02456,39.26682],[9.02311,39.26674],[9.02225,39.26688],[9.02133,39.2664],[9.02038,39.26639],[9.01926,39.26695],[9.01868,39.26696],[9.01723,39.2679],[9.01666,39.26794],[9.01569,39.2682],[9.01538,39.26786],[9.01454,39.26806],[9.01407,39.26778],[9.01328,39.26797],[9.01294,39.26787],[9.01297,39.26711],[9.01225,39.26736],[9.01159,39.26725],[9.01063,39.26643],[9.00937,39.26549],[9.00934,39.26488],[9.00912,39.26471],[9.00774,39.26454],[9.00735,39.26373],[9.00718,39.26308],[9.0064,39.26296],[9.00651,39.26212],[9.00555,39.26235],[9.00562,39.26155],[9.00609,39.26137],[9.00668,39.26079],[9.00799,39.26018],[9.00895,39.25932],[9.00897,39.2591],[9.00993,39.25868],[9.01026,39.2584],[9.01082,39.2583],[9.01181,39.25789],[9.01266,39.25679],[9.01316,39.25629],[9.01313,39.25575],[9.01271,39.25518],[9.01213,39.2548],[9.01231,39.25453],[9.0131,39.25433],[9.01474,39.25553],[9.01561,39.25565],[9.01639,39.25558],[9.01686,39.25518],[9.01733,39.2552],[9.01773,39.25551],[9.01825,39.25547],[9.01902,39.25485],[9.01866,39.25429],[9.01746,39.25416],[9.01634,39.25414],[9.01438,39.25258],[9.01496,39.2522],[9.01503,39.25115],[9.01601,39.25146],[9.0168,39.25144],[9.01702,39.25111],[9.01767,39.25102],[9.0186,39.25144],[9.01915,39.2513],[9.01967,39.25154],[9.02045,39.25161],[9.02103,39.25202],[9.02174,39.2523],[9.02279,39.25238],[9.02336,39.25254],[9.02422,39.25212],[9.02494,39.25199],[9.02624,39.25241],[9.02671,39.25225],[9.02896,39.25192],[9.02954,39.25158],[9.02809,39.25062],[9.02729,39.25024],[9.02609,39.25011],[9.02509,39.25028],[9.02278,39.25011],[9.0212,39.24934],[9.02098,39.24875],[9.02145,39.24794],[9.021,39.24703],[9.02053,39.24687],[9.01944,39.24676],[9.01883,39.24707],[9.01774,39.24707],[9.0173,39.24662],[9.01688,39.24651],[9.01558,39.24666],[9.01314,39.2475],[9.01247,39.24788],[9.0115,39.24825],[9.01148,39.24747],[9.01127,39.24705],[9.01155,39.24651],[9.01162,39.24575],[9.01086,39.245],[9.01126,39.24465],[9.01212,39.24233],[9.01189,39.24178],[9.01173,39.24071],[9.01204,39.24029],[9.01249,39.24019],[9.01327,39.23901],[9.01395,39.23856],[9.0145,39.23793],[9.01535,39.23743],[9.01738,39.23694],[9.01872,39.23695],[9.01876,39.23641],[9.01993,39.23589],[9.02081,39.23528],[9.02237,39.23462],[9.02287,39.23452],[9.02413,39.23398],[9.02426,39.23371],[9.02557,39.23368],[9.02569,39.23261],[9.02633,39.23218],[9.02584,39.23203],[9.02482,39.23138],[9.02506,39.23079],[9.02506,39.23015],[9.02635,39.23028],[9.02719,39.22986],[9.02817,39.23029],[9.02846,39.23003],[9.02806,39.2293],[9.02843,39.22846],[9.02914,39.22792],[9.0294,39.22748],[9.03018,39.22704],[9.03081,39.22649],[9.03168,39.22633],[9.03219,39.22673],[9.03269,39.22744],[9.03284,39.22843],[9.03332,39.22954],[9.03401,39.22972],[9.03506,39.22921],[9.03638,39.22897],[9.03743,39.22985],[9.03825,39.23087],[9.03982,39.23263],[9.03992,39.23348],[9.04026,39.23394],[9.0415,39.23248],[9.04122,39.23207],[9.03846,39.22944],[9.03814,39.22907],[9.03723,39.22757],[9.03622,39.22552],[9.03552,39.22443],[9.03533,39.22384],[9.03534,39.22289],[9.03634,39.22193],[9.03613,39.22036],[9.0357,39.21946],[9.03451,39.21882],[9.0345,39.21934],[9.03393,39.2199],[9.03409,39.22081],[9.03365,39.22128],[9.03264,39.22144],[9.03169,39.22139],[9.03073,39.22105],[9.03016,39.22063],[9.02871,39.21932],[9.02816,39.21821],[9.02829,39.21782],[9.02882,39.2179],[9.02945,39.21726],[9.02941,39.21678],[9.02868,39.21561],[9.02809,39.21524],[9.02811,39.21439],[9.02784,39.21349],[9.02704,39.21287],[9.02612,39.21285],[9.02609,39.21224],[9.02671,39.21172],[9.02638,39.21144],[9.02655,39.20954],[9.02693,39.20865],[9.02467,39.20774],[9.02471,39.20748],[9.02554,39.20724],[9.02602,39.20663],[9.02536,39.20625],[9.02331,39.20696],[9.02244,39.20631],[9.02217,39.20592],[9.02208,39.20511],[9.02281,39.20516],[9.02329,39.20478],[9.0225,39.20444],[9.0219,39.20463],[9.02152,39.20406],[9.02074,39.20362],[9.02006,39.20371],[9.01903,39.20348],[9.01897,39.20332],[9.02038,39.20284],[9.021,39.20291],[9.02118,39.20239],[9.02153,39.20226],[9.02163,39.20184],[9.02258,39.20148],[9.02294,39.20075],[9.0236,39.20126],[9.02509,39.20103],[9.02592,39.20061],[9.02609,39.20003],[9.02665,39.19976],[9.02734,39.1989],[9.02739,39.19854],[9.0278,39.19832],[9.02905,39.19854],[9.03013,39.19846],[9.02985,39.19763],[9.03031,39.19732],[9.03104,39.1973],[9.03201,39.19696],[9.03217,39.19675],[9.03161,39.19574],[9.02962,39.19379],[9.02888,39.19284],[9.02854,39.19222],[9.02851,39.19168],[9.03062,39.1912],[9.03202,39.19174],[9.03192,39.19132],[9.03084,39.19043],[9.03048,39.18989],[9.02931,39.18887],[9.02813,39.1876],[9.02727,39.18689],[9.027,39.18604],[9.02617,39.18505],[9.02561,39.1841],[9.02585,39.18395],[9.02587,39.18254],[9.02445,39.18007],[9.02438,39.17881],[9.02501,39.17805],[9.02514,39.17773],[9.02598,39.17664],[9.02634,39.17632],[9.02716,39.17614],[9.02807,39.1757],[9.02804,39.17525],[9.02692,39.17466],[9.02651,39.17414],[9.026,39.17386],[9.02476,39.1738],[9.02457,39.17339],[9.02382,39.17295],[9.02365,39.17257],[9.02253,39.17151],[9.0219,39.1712],[9.01974,39.16967],[9.01788,39.1679],[9.01722,39.16696],[9.01599,39.16626],[9.01616,39.16567],[9.01683,39.16523],[9.01678,39.16461],[9.01609,39.16327],[9.01593,39.16256],[9.01595,39.16169],[9.0166,39.16129],[9.01693,39.16076],[9.01625,39.16015],[9.01568,39.15999],[9.0158,39.15954],[9.01624,39.15909],[9.01644,39.15857],[9.01739,39.15796],[9.01817,39.15808],[9.02007,39.15921],[9.02085,39.16029],[9.02069,39.16069],[9.01969,39.16125],[9.02049,39.16124],[9.02184,39.16089],[9.02381,39.1606],[9.02512,39.15971],[9.02523,39.15919],[9.02521,39.1583],[9.02556,39.15808],[9.02642,39.15791],[9.02686,39.15899],[9.02757,39.16013],[9.02853,39.16142],[9.03056,39.16386],[9.0327,39.16591],[9.0474,39.15745],[9.04743,39.15748],[9.03275,39.16593],[9.03379,39.16699],[9.03397,39.1676],[9.0345,39.16788],[9.03469,39.16823],[9.03641,39.17],[9.0371,39.17084],[9.03876,39.1725],[9.03965,39.17293],[9.0392,39.17338],[9.03945,39.17369],[9.04336,39.1772],[9.04545,39.17915],[9.04705,39.18071],[9.04867,39.18207],[9.05044,39.18379],[9.05231,39.18547],[9.0541,39.18723],[9.05537,39.18842],[9.05697,39.18982],[9.06072,39.19297],[9.06183,39.1935],[9.06233,39.1936],[9.06305,39.19304],[9.06389,39.1926],[9.06444,39.19288],[9.06393,39.19362],[9.06323,39.19418],[9.06349,39.19465],[9.06428,39.19545],[9.06533,39.19627],[9.06764,39.1977],[9.06856,39.1985],[9.07036,39.19947],[9.0725,39.20045],[9.07379,39.20091],[9.08081,39.19669],[9.08915,39.19335],[9.09256,39.19254],[9.09253,39.19264],[9.08919,39.19342],[9.08087,39.19676],[9.07675,39.19923],[9.07686,39.19957],[9.0811,39.20228],[9.07948,39.20415],[9.07849,39.2048],[9.0754,39.2073],[9.0759,39.2077],[9.07596,39.2081],[9.07581,39.2089],[9.07661,39.20819],[9.07727,39.20791],[9.07814,39.20842],[9.07916,39.2088],[9.08034,39.2097],[9.08094,39.20923],[9.07974,39.20832],[9.07926,39.20831],[9.0818,39.20621],[9.08456,39.20456],[9.08528,39.20497],[9.08997,39.20795],[9.09154,39.20897],[9.09248,39.20905],[9.09331,39.20798],[9.09554,39.20315],[9.09699,39.19873],[9.0971,39.19579],[9.0972,39.19577],[9.09713,39.19853],[9.0956,39.20317],[9.09338,39.208],[9.09091,39.21117],[9.0914,39.2116],[9.09275,39.21218],[9.09254,39.21276],[9.096,39.21424],[9.09588,39.21452],[9.09614,39.21471],[9.09662,39.21482],[9.09739,39.21554],[9.09636,39.21668],[9.09693,39.21805],[9.09632,39.21895],[9.09562,39.2204],[9.09463,39.22219],[9.08957,39.2317],[9.0897,39.23179],[9.08932,39.23241],[9.0889,39.23166],[9.08813,39.23217],[9.08789,39.23214],[9.08717,39.23274],[9.08714,39.23375],[9.08778,39.23441],[9.0885,39.23475],[9.08923,39.23476],[9.09027,39.23501],[9.09075,39.23541],[9.09126,39.23556],[9.09118,39.23658],[9.09132,39.23688],[9.09089,39.23848],[9.0902,39.23924],[9.08895,39.23997],[9.08883,39.23989],[9.08656,39.24098],[9.08631,39.24218],[9.0854,39.24329],[9.08521,39.24341],[9.08383,39.24522],[9.08297,39.2462],[9.08266,39.24673],[9.08188,39.24773]]],[[[9.11104,39.20131],[9.11088,39.20135],[9.10996,39.20258],[9.10957,39.20274],[9.10486,39.20406],[9.10446,39.20438],[9.10009,39.20767],[9.10001,39.20765],[9.10395,39.20469],[9.10479,39.20399],[9.10983,39.20258],[9.11085,39.20122],[9.11104,39.20131]]]]},"properties":{"zona":"E1","linkzona":"CA00001570","fascia":"E","fascia_label":"Suburbana","descr":"VILLAGGIO PESCATORI E ZONA LAGUNARE","semestre":"2025-S2","loc_min":2.5,"loc_max":3.5,"loc_mid":3.0,"sale_min":700.0,"sale_max":1000.0,"sup":"L","tipologia":"Abitazioni civili","stato":"NORMALE","trend":9.1,"trend_from":"2023-S2"}},{"type":"Feature","geometry":{"type":"Polygon","coordinates":[[[9.11587,39.24716],[9.11569,39.24794],[9.11521,39.24924],[9.1169,39.24927],[9.11699,39.24937],[9.11567,39.24939],[9.11503,39.2496],[9.11414,39.25175],[9.11313,39.25344],[9.11262,39.25418],[9.11101,39.25247],[9.10932,39.25101],[9.10841,39.24983],[9.10719,39.25027],[9.10572,39.25093],[9.10437,39.25121],[9.10307,39.25165],[9.10298,39.25179],[9.10241,39.25432],[9.10215,39.25575],[9.10243,39.2586],[9.10243,39.2598],[9.10222,39.26078],[9.10164,39.26059],[9.09994,39.26011],[9.09877,39.25948],[9.09476,39.2587],[9.09373,39.25887],[9.09255,39.25963],[9.09149,39.26023],[9.08914,39.26194],[9.08766,39.26255],[9.08702,39.26243],[9.08544,39.26249],[9.08533,39.26208],[9.08486,39.26162],[9.08336,39.26053],[9.08298,39.25986],[9.08315,39.2593],[9.08349,39.259],[9.08349,39.25842],[9.08274,39.25764],[9.08228,39.25734],[9.08208,39.25723],[9.08413,39.25539],[9.08468,39.2539],[9.08312,39.25194],[9.08338,39.25171],[9.08139,39.24865],[9.08162,39.24796],[9.08188,39.24773],[9.08266,39.24673],[9.08297,39.2462],[9.08383,39.24522],[9.08521,39.24341],[9.0854,39.24329],[9.08612,39.24379],[9.08628,39.24318],[9.08814,39.24386],[9.08856,39.24377],[9.08906,39.24328],[9.08985,39.24344],[9.08993,39.24369],[9.09091,39.24408],[9.0906,39.24452],[9.09239,39.24535],[9.09256,39.24411],[9.09423,39.24526],[9.09563,39.24644],[9.09694,39.24606],[9.09795,39.24689],[9.10185,39.24701],[9.10191,39.2453],[9.10228,39.24542],[9.10296,39.24605],[9.10361,39.24556],[9.10425,39.24615],[9.10383,39.24781],[9.10579,39.24731],[9.10597,39.24778],[9.10712,39.24751],[9.10707,39.24719],[9.10772,39.24702],[9.10791,39.24737],[9.10851,39.24736],[9.1084,39.24701],[9.10967,39.24672],[9.11004,39.24711],[9.11028,39.24783],[9.11121,39.24956],[9.11154,39.25038],[9.11488,39.24947],[9.115,39.24933],[9.11579,39.24719],[9.11587,39.24716]]]},"properties":{"zona":"D9","linkzona":"CA00003346","fascia":"D","fascia_label":"Periferica","descr":"MULINU BECCIU - FANGARIO - BROTZU","semestre":"2025-S2","loc_min":5.5,"loc_max":7.7,"loc_mid":6.6,"sale_min":1400.0,"sale_max":2000.0,"sup":"L","tipologia":"Abitazioni civili","stato":"NORMALE","trend":1.5,"trend_from":"2023-S2"}},{"type":"Feature","geometry":{"type":"Polygon","coordinates":[[[9.10291,39.21999],[9.10231,39.22085],[9.10071,39.22278],[9.09955,39.22411],[9.09921,39.22322],[9.0988,39.22308],[9.09855,39.22349],[9.09816,39.22453],[9.09751,39.22492],[9.09603,39.22615],[9.09586,39.22716],[9.09541,39.22789],[9.09443,39.2286],[9.09369,39.22881],[9.09151,39.23031],[9.0897,39.23179],[9.08957,39.2317],[9.09463,39.22219],[9.09562,39.2204],[9.09632,39.21895],[9.09693,39.21805],[9.09636,39.21668],[9.09739,39.21554],[9.09662,39.21482],[9.09614,39.21471],[9.09598,39.21456],[9.0982,39.21138],[9.09873,39.21039],[9.09991,39.21081],[9.09908,39.21241],[9.09956,39.21258],[9.09925,39.21325],[9.09919,39.2138],[9.09952,39.21387],[9.09993,39.21253],[9.10119,39.21043],[9.10275,39.21094],[9.10558,39.20726],[9.10672,39.20779],[9.10406,39.21127],[9.10577,39.21203],[9.1072,39.21014],[9.10749,39.21028],[9.10852,39.2092],[9.10894,39.2094],[9.10839,39.21011],[9.10745,39.21142],[9.10759,39.21149],[9.10679,39.21252],[9.10629,39.21287],[9.10558,39.21315],[9.10578,39.21357],[9.10747,39.21374],[9.10803,39.21447],[9.10703,39.21467],[9.10636,39.2156],[9.10579,39.21609],[9.10647,39.21629],[9.10591,39.21708],[9.10558,39.2169],[9.10418,39.21856],[9.10358,39.21899],[9.10291,39.21999]]]},"properties":{"zona":"D14","linkzona":"CA00003351","fascia":"D","fascia_label":"Periferica","descr":"LA PLAYA - VIA SAN PAOLO","semestre":"2025-S2","loc_min":4.5,"loc_max":6.0,"loc_mid":5.25,"sup":"L","tipologia":"Abitazioni di tipo economico","stato":"NORMALE","trend":10.5,"trend_from":"2023-S2"}},{"type":"Feature","geometry":{"type":"Polygon","coordinates":[[[9.13422,39.25301],[9.13107,39.25524],[9.12889,39.25684],[9.12751,39.25804],[9.12567,39.26062],[9.12553,39.26113],[9.12357,39.26195],[9.12191,39.26233],[9.11782,39.26352],[9.11665,39.26368],[9.11571,39.26177],[9.11537,39.26121],[9.11479,39.26073],[9.11524,39.26027],[9.11413,39.25929],[9.11362,39.2579],[9.11344,39.25687],[9.11322,39.25646],[9.11325,39.25584],[9.11262,39.25418],[9.11313,39.25344],[9.11414,39.25175],[9.11503,39.2496],[9.11567,39.24939],[9.11699,39.24937],[9.11778,39.24979],[9.11844,39.25062],[9.12076,39.25236],[9.12173,39.25172],[9.12312,39.25036],[9.12367,39.25018],[9.12435,39.2507],[9.12593,39.25225],[9.12654,39.25197],[9.12766,39.25187],[9.12844,39.25165],[9.12842,39.25132],[9.12945,39.25086],[9.13013,39.25162],[9.13145,39.25108],[9.13198,39.25189],[9.133,39.25128],[9.13419,39.2528],[9.13422,39.25301]]]},"properties":{"zona":"D11","linkzona":"CA00003348","fascia":"D","fascia_label":"Periferica","descr":"PIRRI NORD (BARRACCA MANNA - IS ARGIOLAS - S. TERESA)","semestre":"2025-S2","loc_min":5.8,"loc_max":8.2,"loc_mid":7.0,"sale_min":1650.0,"sale_max":2300.0,"sup":"L","tipologia":"Abitazioni civili","stato":"NORMALE","trend":6.1,"trend_from":"2023-S2"}},{"type":"Feature","geometry":{"type":"Polygon","coordinates":[[[9.15351,39.19517],[9.15114,39.19654],[9.14826,39.19809],[9.148,39.19806],[9.14156,39.20157],[9.14076,39.20282],[9.1408,39.20301],[9.14051,39.20315],[9.13832,39.20166],[9.12853,39.20078],[9.12823,39.2008],[9.12851,39.20017],[9.12862,39.19999],[9.12784,39.19996],[9.12901,39.19955],[9.13147,39.19649],[9.13191,39.19604],[9.1349,39.19353],[9.13538,39.1938],[9.13651,39.19279],[9.13919,39.19366],[9.13913,39.19345],[9.13645,39.19224],[9.13847,39.19054],[9.13911,39.18993],[9.14127,39.18744],[9.14158,39.18667],[9.14261,39.1863],[9.14283,39.18604],[9.14368,39.18571],[9.14469,39.18547],[9.14531,39.18471],[9.14589,39.18429],[9.14679,39.1829],[9.1476,39.18268],[9.14775,39.18299],[9.14884,39.18342],[9.14896,39.18381],[9.14879,39.18424],[9.14932,39.18457],[9.15034,39.18584],[9.15103,39.18601],[9.15143,39.18638],[9.15217,39.1863],[9.1532,39.18589],[9.1532,39.18526],[9.15423,39.1851],[9.15451,39.1847],[9.15533,39.18428],[9.15599,39.1838],[9.15629,39.18314],[9.15688,39.18293],[9.15717,39.18254],[9.15778,39.18254],[9.15888,39.1818],[9.15869,39.1809],[9.15937,39.18066],[9.15987,39.18071],[9.16015,39.18113],[9.16077,39.18139],[9.16074,39.18171],[9.16025,39.18224],[9.16054,39.18255],[9.16028,39.18285],[9.16092,39.18333],[9.16142,39.18325],[9.16185,39.18267],[9.16245,39.18245],[9.16269,39.18201],[9.1637,39.18227],[9.16449,39.18225],[9.16443,39.18305],[9.16391,39.18333],[9.16398,39.18432],[9.16445,39.1844],[9.16492,39.18514],[9.16602,39.18536],[9.1668,39.18636],[9.16721,39.18666],[9.16755,39.18732],[9.16882,39.18808],[9.16906,39.18863],[9.16898,39.18902],[9.16834,39.19017],[9.16746,39.1907],[9.1668,39.19066],[9.1646,39.19096],[9.16481,39.19041],[9.16196,39.19144],[9.15975,39.19234],[9.15984,39.19275],[9.15415,39.1942],[9.15435,39.19474],[9.15351,39.19517]]]},"properties":{"zona":"D15","linkzona":"CA00003352","fascia":"D","fascia_label":"Periferica","descr":"SAN BARTOLOMEO - SANT`ELIA - CALAMOSCA","semestre":"2025-S2","loc_min":5.8,"loc_max":7.7,"loc_mid":6.75,"sale_min":1700.0,"sale_max":2200.0,"sup":"L","tipologia":"Abitazioni civili","stato":"NORMALE","trend":6.3,"trend_from":"2023-S2"}}]}