{"type":"FeatureCollection","features":[{"type":"Feature","geometry":{"type":"Polygon","coordinates":[[[12.57254,44.03386],[12.5677,44.02899],[12.56774,44.02893],[12.56825,44.02794],[12.56827,44.02708],[12.56863,44.026],[12.57096,44.02568],[12.57185,44.02563],[12.57183,44.02606],[12.57283,44.02609],[12.57381,44.02592],[12.57598,44.02634],[12.57776,44.027],[12.57784,44.02731],[12.57878,44.02783],[12.58075,44.02774],[12.58267,44.02594],[12.58426,44.02476],[12.58503,44.02385],[12.59105,44.02717],[12.59023,44.02857],[12.58939,44.02944],[12.59339,44.02998],[12.59373,44.0296],[12.59383,44.02904],[12.59773,44.02919],[12.59768,44.02867],[12.60105,44.02979],[12.60043,44.02889],[12.60787,44.02588],[12.60807,44.02601],[12.6109,44.02899],[12.60185,44.03465],[12.59165,44.04098],[12.5915,44.04076],[12.59006,44.04111],[12.58786,44.04135],[12.58749,44.04115],[12.58591,44.04123],[12.58506,44.04142],[12.5764,44.04191],[12.57597,44.04172],[12.57626,44.04147],[12.57903,44.03957],[12.57964,44.03893],[12.57974,44.03839],[12.57961,44.03683],[12.57623,44.03686],[12.5759,44.03692],[12.57425,44.03554],[12.57254,44.03386]]]},"properties":{"zona":"D8","linkzona":"RN00000742","fascia":"D","fascia_label":"Periferica","descr":"ZONA ARTIGIANALE SUD - GROSRIMINI","semestre":"2025-S2","loc_min":6.5,"loc_max":9.5,"loc_mid":8.0,"sale_min":1850.0,"sale_max":2500.0,"sup":"L","tipologia":"Abitazioni civili","stato":"NORMALE"}},{"type":"Feature","geometry":{"type":"Polygon","coordinates":[[[12.53212,44.08982],[12.53122,44.09013],[12.52564,44.09402],[12.52564,44.09412],[12.52558,44.09407],[12.52359,44.09539],[12.52152,44.09352],[12.52015,44.09444],[12.51811,44.09257],[12.5188,44.09214],[12.51956,44.09208],[12.51554,44.08827],[12.51877,44.08619],[12.52061,44.08517],[12.5209,44.08465],[12.52248,44.08307],[12.52369,44.08222],[12.52487,44.08164],[12.52567,44.08183],[12.53057,44.07886],[12.53217,44.07786],[12.53334,44.07722],[12.53631,44.07529],[12.53664,44.07558],[12.53943,44.07753],[12.54041,44.07677],[12.54315,44.07862],[12.54297,44.07884],[12.54552,44.08047],[12.54701,44.08135],[12.54732,44.08169],[12.54549,44.0805],[12.54039,44.08405],[12.53634,44.08681],[12.53599,44.08714],[12.53212,44.08982]]]},"properties":{"zona":"D1","linkzona":"RN00000191","fascia":"D","fascia_label":"Periferica","descr":"VISERBA E VISERBELLA MONTE FERROVIA","semestre":"2025-S2","loc_min":7.0,"loc_max":9.0,"loc_mid":8.0,"sale_min":1950.0,"sale_max":2650.0,"sup":"L","tipologia":"Abitazioni civili","stato":"NORMALE"}},{"type":"Feature","geometry":{"type":"Polygon","coordinates":[[[12.60001,44.04706],[12.59823,44.04891],[12.5983,44.04909],[12.59828,44.0491],[12.59777,44.04937],[12.59446,44.04766],[12.59249,44.04659],[12.59189,44.04642],[12.59117,44.04653],[12.5909,44.0458],[12.58991,44.04207],[12.59165,44.04098],[12.60185,44.03465],[12.6109,44.02899],[12.61574,44.02599],[12.61583,44.02602],[12.6187,44.02419],[12.6201,44.02337],[12.62534,44.02013],[12.62645,44.02075],[12.62819,44.02202],[12.62834,44.02215],[12.6224,44.02691],[12.61438,44.03328],[12.61031,44.03649],[12.60787,44.03891],[12.60001,44.04704],[12.60001,44.04706]]]},"properties":{"zona":"D9","linkzona":"RN00000743","fascia":"D","fascia_label":"Periferica","descr":"BELLARIVA - MIRAMARE A MONTE DELLA FERROVIA","semestre":"2025-S2","loc_min":8.0,"loc_max":12.0,"loc_mid":10.0,"sale_min":2000.0,"sale_max":2700.0,"sup":"L","tipologia":"Abitazioni civili","stato":"NORMALE"}},{"type":"Feature","geometry":{"type":"Polygon","coordinates":[[[12.46462,44.01747],[12.46375,44.01921],[12.46317,44.02105],[12.46244,44.0215],[12.4609,44.02198],[12.46304,44.02354],[12.46121,44.02541],[12.45952,44.02705],[12.45896,44.02668],[12.45857,44.02713],[12.45689,44.02842],[12.45573,44.02951],[12.45415,44.02895],[12.45103,44.02802],[12.44984,44.02779],[12.4489,44.02747],[12.44789,44.02689],[12.44598,44.0254],[12.44538,44.02448],[12.44491,44.024],[12.44417,44.02384],[12.4433,44.02303],[12.44269,44.02262],[12.44013,44.02053],[12.43813,44.01878],[12.43958,44.01787],[12.43956,44.01718],[12.44018,44.01642],[12.44048,44.01576],[12.44146,44.01491],[12.44223,44.01443],[12.44284,44.01372],[12.44354,44.01358],[12.4443,44.01317],[12.44469,44.01275],[12.44504,44.01199],[12.44573,44.0121],[12.4482,44.01024],[12.4497,44.00883],[12.45076,44.00832],[12.45257,44.00934],[12.45417,44.01066],[12.45432,44.00999],[12.45531,44.01003],[12.45525,44.01063],[12.45611,44.01072],[12.45611,44.01112],[12.45803,44.01147],[12.45796,44.01199],[12.4584,44.01213],[12.45857,44.01274],[12.45893,44.01314],[12.45973,44.01315],[12.46097,44.01422],[12.46105,44.01506],[12.46206,44.01573],[12.46279,44.01514],[12.46333,44.0158],[12.4638,44.01595],[12.46449,44.01731],[12.46462,44.01747]]]},"properties":{"zona":"E3","linkzona":"RN00000746","fascia":"E","fascia_label":"Suburbana","descr":"CORPOLO`","semestre":"2025-S2","loc_min":5.5,"loc_max":7.9,"loc_mid":6.7,"sale_min":1600.0,"sale_max":1950.0,"sup":"L","tipologia":"Abitazioni civili","stato":"NORMALE"}},{"type":"Feature","geometry":{"type":"Polygon","coordinates":[[[12.58886,44.0575],[12.58999,44.05691],[12.59116,44.05609],[12.59195,44.05538],[12.59379,44.05348],[12.59403,44.05349],[12.59828,44.0491],[12.5983,44.04909],[12.59795,44.04945],[12.59926,44.05013],[12.59905,44.05058],[12.59969,44.05093],[12.60171,44.05204],[12.60038,44.05344],[12.59862,44.05502],[12.59796,44.05576],[12.59701,44.05656],[12.59603,44.05767],[12.59529,44.05727],[12.59473,44.05695],[12.59085,44.0608],[12.59017,44.06041],[12.59081,44.06012],[12.59085,44.0596],[12.59033,44.05918],[12.58819,44.05781],[12.58886,44.0575]]]},"properties":{"zona":"C2","linkzona":"RN00000737","fascia":"C","fascia_label":"Semicentrale","descr":"LUNGOMARE G. DI VITTORIO TRA P.LE TOSCANINI E P.LE CROCE","semestre":"2025-S2","loc_min":8.5,"loc_max":12.4,"loc_mid":10.45,"sale_min":2300.0,"sale_max":3200.0,"sup":"L","tipologia":"Abitazioni civili","stato":"NORMALE"}},{"type":"Feature","geometry":{"type":"Polygon","coordinates":[[[12.55184,44.0646],[12.55201,44.06441],[12.55295,44.06448],[12.55353,44.0643],[12.55394,44.06456],[12.5552,44.06423],[12.55579,44.06428],[12.55727,44.06392],[12.55849,44.064],[12.55939,44.06427],[12.55996,44.06407],[12.56243,44.06455],[12.56196,44.06509],[12.56003,44.06636],[12.56011,44.06649],[12.56239,44.06661],[12.56328,44.06657],[12.56599,44.06594],[12.56673,44.06539],[12.56602,44.06487],[12.56493,44.06431],[12.56368,44.06392],[12.56387,44.06371],[12.56388,44.0637],[12.56416,44.06335],[12.56684,44.06481],[12.56855,44.06605],[12.56913,44.06678],[12.57036,44.06821],[12.57148,44.06962],[12.57298,44.07259],[12.57385,44.07497],[12.57427,44.07662],[12.57478,44.07916],[12.57031,44.0783],[12.57003,44.07709],[12.56915,44.07647],[12.56771,44.07624],[12.56665,44.07646],[12.56597,44.07623],[12.56479,44.07641],[12.56507,44.07714],[12.56293,44.0767],[12.56276,44.07658],[12.56237,44.07653],[12.56231,44.07649],[12.5623,44.07548],[12.56067,44.07335],[12.56064,44.07321],[12.55928,44.07156],[12.56001,44.07121],[12.55939,44.07047],[12.55976,44.07039],[12.55824,44.06888],[12.55657,44.06742],[12.55599,44.06753],[12.55476,44.06664],[12.55294,44.06559],[12.55199,44.06495],[12.55184,44.0646]]]},"properties":{"zona":"B2","linkzona":"RN00000515","fascia":"B","fascia_label":"Centrale","descr":"SAN GIULIANO MARE - DA PARCO XXV APRILE ALLA DARSENA","semestre":"2025-S2","loc_min":8.5,"loc_max":12.0,"loc_mid":10.25,"sale_min":2200.0,"sale_max":3300.0,"sup":"L","tipologia":"Abitazioni civili","stato":"NORMALE"}},{"type":"Feature","geometry":{"type":"Polygon","coordinates":[[[12.53631,44.07529],[12.53703,44.0749],[12.5405,44.07272],[12.54475,44.07008],[12.54629,44.06961],[12.54543,44.06931],[12.54102,44.06867],[12.54135,44.06504],[12.54177,44.06187],[12.54205,44.06179],[12.54503,44.0633],[12.5464,44.06371],[12.54696,44.0637],[12.54683,44.06291],[12.55058,44.06357],[12.55578,44.06334],[12.55598,44.06306],[12.55694,44.06294],[12.55937,44.06311],[12.56198,44.06363],[12.56387,44.06371],[12.56368,44.06392],[12.56315,44.06435],[12.56243,44.06455],[12.55996,44.06407],[12.55939,44.06427],[12.55849,44.064],[12.55727,44.06392],[12.55579,44.06428],[12.5552,44.06423],[12.55394,44.06456],[12.55353,44.0643],[12.55295,44.06448],[12.55201,44.06441],[12.55184,44.0646],[12.55199,44.06495],[12.55294,44.06559],[12.55476,44.06664],[12.55599,44.06753],[12.55657,44.06742],[12.55824,44.06888],[12.55976,44.07039],[12.55939,44.07047],[12.56001,44.07121],[12.55928,44.07156],[12.55914,44.07141],[12.5575,44.07224],[12.55512,44.07385],[12.54755,44.07909],[12.54552,44.08047],[12.54297,44.07884],[12.54315,44.07862],[12.54041,44.07677],[12.53943,44.07753],[12.53664,44.07558],[12.53631,44.07529]]]},"properties":{"zona":"C4","linkzona":"RN00000873","fascia":"C","fascia_label":"Semicentrale","descr":"CELLE - CIMITERO - FERROVIA RAVENNA","semestre":"2025-S2","loc_min":7.5,"loc_max":11.0,"loc_mid":9.25,"sale_min":1950.0,"sale_max":2700.0,"sup":"L","tipologia":"Abitazioni civili","stato":"NORMALE"}},{"type":"Feature","geometry":{"type":"Polygon","coordinates":[[[12.56913,44.06678],[12.56963,44.06675],[12.57101,44.06609],[12.57198,44.06579],[12.57291,44.06565],[12.5748,44.06487],[12.57937,44.06425],[12.57992,44.06391],[12.5807,44.06393],[12.58048,44.06306],[12.57958,44.06181],[12.57966,44.06163],[12.58155,44.06074],[12.5818,44.06075],[12.5859,44.05888],[12.58664,44.05875],[12.58832,44.05801],[12.59033,44.05918],[12.59085,44.0596],[12.59081,44.06012],[12.59017,44.06041],[12.59085,44.0608],[12.59473,44.05695],[12.59529,44.05727],[12.59602,44.05767],[12.59459,44.05895],[12.59266,44.06078],[12.59036,44.06326],[12.58659,44.06713],[12.58566,44.06797],[12.58424,44.06973],[12.58329,44.07053],[12.5805,44.07359],[12.57952,44.07449],[12.57868,44.07556],[12.5767,44.07756],[12.57533,44.07914],[12.57479,44.07916],[12.57427,44.07662],[12.57385,44.07497],[12.57298,44.07259],[12.57148,44.06962],[12.57036,44.06821],[12.56913,44.06678]]]},"properties":{"zona":"B7","linkzona":"RN00000977","fascia":"B","fascia_label":"Centrale","descr":"MARINA CENTRO","semestre":"2025-S2","loc_min":9.5,"loc_max":14.0,"loc_mid":11.75,"sale_min":2450.0,"sale_max":3400.0,"sup":"L","tipologia":"Abitazioni civili","stato":"NORMALE"}},{"type":"Feature","geometry":{"type":"Polygon","coordinates":[[[12.59165,44.04098],[12.58991,44.04207],[12.5909,44.0458],[12.59117,44.04653],[12.59189,44.04642],[12.59249,44.04659],[12.59446,44.04766],[12.59777,44.04937],[12.59828,44.0491],[12.59403,44.05349],[12.59379,44.05348],[12.59195,44.05538],[12.59116,44.05609],[12.58999,44.05691],[12.58886,44.0575],[12.58819,44.05781],[12.58054,44.05299],[12.5769,44.05021],[12.57665,44.04836],[12.57618,44.04683],[12.57564,44.04468],[12.57521,44.04464],[12.57286,44.04302],[12.57198,44.04273],[12.57145,44.04303],[12.57063,44.04247],[12.57072,44.04209],[12.57077,44.04173],[12.57216,44.0421],[12.57551,44.04194],[12.57597,44.04172],[12.5764,44.04191],[12.58506,44.04142],[12.58591,44.04123],[12.58749,44.04115],[12.58786,44.04135],[12.59006,44.04111],[12.5915,44.04076],[12.59165,44.04098]]]},"properties":{"zona":"C3","linkzona":"RN00000738","fascia":"C","fascia_label":"Semicentrale","descr":"LAGOMAGGIO - OSPEDALE","semestre":"2025-S2","loc_min":8.0,"loc_max":12.0,"loc_mid":10.0,"sale_min":2050.0,"sale_max":3000.0,"sup":"L","tipologia":"Abitazioni civili","stato":"NORMALE"}},{"type":"Feature","geometry":{"type":"Polygon","coordinates":[[[12.56646,44.0562],[12.5658,44.05642],[12.56473,44.0571],[12.56339,44.0589],[12.56265,44.05965],[12.56265,44.06013],[12.56295,44.06079],[12.56361,44.06168],[12.56393,44.06311],[12.56416,44.06335],[12.56388,44.0637],[12.56387,44.06371],[12.56198,44.06363],[12.55937,44.06311],[12.55694,44.06294],[12.55598,44.06306],[12.55578,44.06334],[12.55058,44.06357],[12.54683,44.06291],[12.54595,44.06283],[12.54468,44.06248],[12.54462,44.06246],[12.54403,44.06218],[12.54345,44.06192],[12.54403,44.06217],[12.54463,44.06246],[12.54454,44.06151],[12.54384,44.06138],[12.54195,44.06069],[12.54236,44.05707],[12.54277,44.05653],[12.54272,44.05601],[12.54321,44.05535],[12.54512,44.05335],[12.54703,44.05156],[12.55032,44.04821],[12.55128,44.04737],[12.55277,44.04625],[12.55477,44.04534],[12.55495,44.04537],[12.55934,44.04418],[12.56052,44.04404],[12.56595,44.04261],[12.56791,44.04234],[12.57072,44.04209],[12.57063,44.04247],[12.57145,44.04303],[12.57198,44.04273],[12.57286,44.04302],[12.57521,44.04464],[12.57564,44.04468],[12.57618,44.04683],[12.57665,44.04836],[12.5769,44.05021],[12.58054,44.05299],[12.58819,44.05781],[12.59033,44.05918],[12.58832,44.05801],[12.58664,44.05875],[12.5859,44.05888],[12.5818,44.06075],[12.58155,44.06074],[12.57966,44.06163],[12.57958,44.06181],[12.58048,44.06306],[12.5807,44.06393],[12.57992,44.06391],[12.57937,44.06425],[12.5748,44.06487],[12.57291,44.06565],[12.57198,44.06579],[12.57101,44.06609],[12.57044,44.0652],[12.57281,44.06421],[12.57269,44.06403],[12.57363,44.06359],[12.57315,44.0629],[12.57423,44.06232],[12.57582,44.06067],[12.57787,44.05842],[12.57775,44.05782],[12.57689,44.05715],[12.57449,44.05493],[12.57328,44.05394],[12.57231,44.05366],[12.57079,44.05524],[12.56875,44.056],[12.56751,44.05627],[12.56646,44.0562]]]},"properties":{"zona":"B5","linkzona":"RN00000736","fascia":"B","fascia_label":"Centrale","descr":"CORONA URBANA","semestre":"2025-S2","loc_min":8.5,"loc_max":12.0,"loc_mid":10.25,"sale_min":2100.0,"sale_max":3100.0,"sup":"L","tipologia":"Abitazioni civili","stato":"NORMALE"}},{"type":"Feature","geometry":{"type":"MultiPolygon","coordinates":[[[[12.46913,44.08073],[12.46681,44.07861],[12.46652,44.0784],[12.47172,44.07518],[12.47233,44.07485],[12.47584,44.07267],[12.47708,44.07201],[12.47738,44.07164],[12.47794,44.07011],[12.47883,44.06888],[12.47952,44.06832],[12.48102,44.06857],[12.48447,44.06887],[12.48692,44.069],[12.48758,44.07219],[12.48766,44.07322],[12.48704,44.07336],[12.48525,44.07338],[12.48392,44.07359],[12.48243,44.07369],[12.48176,44.0751],[12.48107,44.07557],[12.48088,44.07609],[12.48182,44.07693],[12.48213,44.07742],[12.48147,44.07808],[12.48076,44.07849],[12.4808,44.0792],[12.47335,44.08173],[12.47264,44.08188],[12.47053,44.08258],[12.47078,44.08222],[12.46913,44.08073]]],[[[12.47156,44.06054],[12.47168,44.05928],[12.47183,44.05923],[12.47186,44.0578],[12.47227,44.05758],[12.47316,44.0577],[12.47476,44.05737],[12.47585,44.05753],[12.47777,44.05682],[12.48029,44.05613],[12.48128,44.05583],[12.48226,44.05593],[12.48275,44.0566],[12.48358,44.05683],[12.48401,44.05719],[12.48398,44.05796],[12.48523,44.05868],[12.4852,44.05955],[12.48542,44.05947],[12.48658,44.05941],[12.48752,44.05957],[12.48966,44.06027],[12.49137,44.0604],[12.49229,44.06001],[12.49355,44.05982],[12.49378,44.06003],[12.49853,44.06109],[12.4998,44.06205],[12.50019,44.06217],[12.50147,44.06134],[12.50341,44.06307],[12.50129,44.06352],[12.49985,44.06395],[12.49956,44.06474],[12.49963,44.06964],[12.49117,44.06914],[12.48694,44.06892],[12.48388,44.06872],[12.48315,44.06855],[12.48092,44.06845],[12.47941,44.06815],[12.47452,44.068],[12.47273,44.06772],[12.47263,44.06696],[12.47286,44.06551],[12.47286,44.06476],[12.47338,44.06423],[12.47357,44.0619],[12.47404,44.06139],[12.47238,44.06091],[12.47156,44.06054]]]]},"properties":{"zona":"E2","linkzona":"RN00000745","fascia":"E","fascia_label":"Suburbana","descr":"S.GIUSTINA - ZONA IKEA","semestre":"2025-S2","loc_min":5.9,"loc_max":7.9,"loc_mid":6.9,"sale_min":1600.0,"sale_max":1900.0,"sup":"L","tipologia":"Abitazioni civili","stato":"NORMALE"}},{"type":"Feature","geometry":{"type":"MultiPolygon","coordinates":[[[[12.56416,44.06335],[12.56393,44.06311],[12.56361,44.06168],[12.56295,44.06079],[12.56265,44.06013],[12.56265,44.05965],[12.56339,44.0589],[12.56473,44.0571],[12.5658,44.05642],[12.56646,44.0562],[12.56751,44.05627],[12.56875,44.056],[12.57079,44.05524],[12.57231,44.05366],[12.57328,44.05394],[12.57449,44.05493],[12.57689,44.05715],[12.57775,44.05782],[12.57787,44.05842],[12.57582,44.06067],[12.57423,44.06232],[12.57315,44.0629],[12.57363,44.06359],[12.57269,44.06403],[12.57281,44.06421],[12.57044,44.0652],[12.57101,44.06609],[12.56963,44.06675],[12.56913,44.06678],[12.56855,44.06605],[12.56684,44.06481],[12.56416,44.06335]]],[[[12.56243,44.06455],[12.56315,44.06435],[12.56368,44.06392],[12.56493,44.06431],[12.56602,44.06487],[12.56673,44.06539],[12.56599,44.06594],[12.56328,44.06657],[12.56239,44.06661],[12.56011,44.06649],[12.56003,44.06636],[12.56196,44.06509],[12.56243,44.06455]]]]},"properties":{"zona":"B1","linkzona":"RN00000513","fascia":"B","fascia_label":"Centrale","descr":"CENTRO STORICO E BORGO SAN GIULIANO","semestre":"2025-S2","loc_min":9.5,"loc_max":13.0,"loc_mid":11.25,"sale_min":2200.0,"sale_max":3200.0,"sup":"L","tipologia":"Abitazioni civili","stato":"NORMALE"}},{"type":"Feature","geometry":{"type":"Polygon","coordinates":[[[12.54552,44.08047],[12.54755,44.07909],[12.55512,44.07385],[12.5575,44.07224],[12.55914,44.07141],[12.55928,44.07156],[12.56064,44.07321],[12.56067,44.07335],[12.5623,44.07548],[12.56231,44.07649],[12.5617,44.07613],[12.56067,44.0765],[12.55968,44.07744],[12.55906,44.07776],[12.55858,44.07749],[12.55811,44.07763],[12.5574,44.07814],[12.55659,44.07797],[12.55623,44.07849],[12.55541,44.0786],[12.55493,44.07934],[12.55412,44.07947],[12.5538,44.08021],[12.55292,44.08028],[12.55265,44.08082],[12.5519,44.08075],[12.55122,44.08133],[12.55054,44.08155],[12.5501,44.08215],[12.5495,44.08228],[12.54888,44.08269],[12.54839,44.08277],[12.54682,44.08366],[12.54629,44.08415],[12.54556,44.08436],[12.54633,44.08342],[12.54741,44.08266],[12.55024,44.08094],[12.54993,44.0807],[12.54787,44.08195],[12.54732,44.08169],[12.54701,44.08135],[12.54552,44.08047]]]},"properties":{"zona":"C1","linkzona":"RN00000517","fascia":"C","fascia_label":"Semicentrale","descr":"RIVABELLA","semestre":"2025-S2","loc_min":7.5,"loc_max":11.2,"loc_mid":9.35,"sale_min":2050.0,"sale_max":2800.0,"sup":"L","tipologia":"Abitazioni civili","stato":"NORMALE"}},{"type":"Feature","geometry":{"type":"Polygon","coordinates":[[[12.6109,44.02899],[12.60807,44.02601],[12.60787,44.02588],[12.60043,44.02889],[12.60105,44.02979],[12.59768,44.02867],[12.59773,44.02919],[12.59383,44.02904],[12.59373,44.0296],[12.59339,44.02998],[12.58939,44.02944],[12.59023,44.02857],[12.59105,44.02717],[12.58503,44.02385],[12.58426,44.02476],[12.58267,44.02594],[12.58075,44.02774],[12.57878,44.02783],[12.57784,44.02731],[12.57776,44.027],[12.57598,44.02634],[12.57381,44.02592],[12.57283,44.02609],[12.57183,44.02606],[12.57185,44.02563],[12.57096,44.02568],[12.56863,44.026],[12.56827,44.02708],[12.56825,44.02794],[12.56774,44.02893],[12.56713,44.02834],[12.56586,44.02898],[12.56516,44.02917],[12.56444,44.02876],[12.56463,44.02814],[12.56525,44.02842],[12.56564,44.02825],[12.56583,44.02769],[12.56543,44.02668],[12.56414,44.02688],[12.5636,44.02622],[12.56208,44.02705],[12.56233,44.02756],[12.56092,44.0284],[12.55868,44.02678],[12.5554,44.02841],[12.55382,44.02639],[12.55243,44.02734],[12.55068,44.02819],[12.54988,44.0271],[12.54975,44.02502],[12.54785,44.02316],[12.54582,44.02458],[12.5446,44.02536],[12.54479,44.02585],[12.54462,44.0267],[12.54472,44.02765],[12.54441,44.02829],[12.54367,44.02885],[12.54353,44.02925],[12.54367,44.03023],[12.54249,44.03135],[12.54176,44.03173],[12.54018,44.03221],[12.54024,44.03285],[12.53935,44.03343],[12.54078,44.03409],[12.53916,44.03496],[12.5382,44.03521],[12.53812,44.03607],[12.53754,44.03662],[12.53843,44.03714],[12.53869,44.03776],[12.53982,44.03878],[12.54,44.03977],[12.54035,44.04056],[12.54064,44.04079],[12.54036,44.04113],[12.53994,44.04217],[12.53947,44.04277],[12.53887,44.04263],[12.53831,44.04318],[12.53717,44.04356],[12.53557,44.0421],[12.53456,44.04148],[12.53406,44.04147],[12.53019,44.0428],[12.52965,44.04286],[12.52793,44.04195],[12.5264,44.04157],[12.52525,44.04144],[12.52391,44.04018],[12.52288,44.03965],[12.52157,44.03841],[12.52116,44.03772],[12.52059,44.0373],[12.5202,44.03659],[12.51906,44.03542],[12.51882,44.03589],[12.51817,44.03649],[12.51737,44.03761],[12.51576,44.03881],[12.51557,44.03947],[12.5139,44.03884],[12.51371,44.03862],[12.51268,44.03898],[12.51228,44.03937],[12.51308,44.03971],[12.51335,44.04001],[12.51231,44.04082],[12.51308,44.04132],[12.51178,44.0422],[12.51197,44.0428],[12.51086,44.04384],[12.51288,44.04461],[12.51327,44.0449],[12.51357,44.04558],[12.51279,44.04792],[12.51121,44.04753],[12.51116,44.04617],[12.5115,44.04546],[12.51103,44.04525],[12.50846,44.04505],[12.50675,44.04437],[12.50547,44.04336],[12.50502,44.04288],[12.50401,44.04242],[12.50352,44.04257],[12.50311,44.04323],[12.50198,44.04401],[12.50132,44.04407],[12.50003,44.04459],[12.49884,44.0455],[12.49785,44.04597],[12.49772,44.04626],[12.49892,44.04766],[12.50027,44.04906],[12.50114,44.04946],[12.50178,44.0495],[12.50258,44.04995],[12.50406,44.05055],[12.50402,44.05002],[12.50464,44.04907],[12.50494,44.04911],[12.50795,44.0504],[12.51008,44.05105],[12.50821,44.05313],[12.50834,44.05348],[12.50771,44.05432],[12.50789,44.05443],[12.50957,44.05466],[12.51189,44.05489],[12.51439,44.05499],[12.51469,44.0551],[12.51454,44.05634],[12.51674,44.05545],[12.5176,44.05556],[12.51548,44.05641],[12.51622,44.05739],[12.51626,44.05807],[12.51501,44.05941],[12.51487,44.05998],[12.5175,44.06045],[12.51725,44.062],[12.5174,44.06359],[12.51787,44.06358],[12.51802,44.06408],[12.51733,44.06481],[12.51621,44.06623],[12.51886,44.06653],[12.51926,44.06933],[12.51756,44.06986],[12.51526,44.07047],[12.51155,44.07044],[12.50916,44.07005],[12.50774,44.07008],[12.50766,44.07362],[12.50863,44.07354],[12.50931,44.0732],[12.50992,44.07261],[12.51157,44.07251],[12.51175,44.07273],[12.51333,44.07255],[12.51342,44.07305],[12.51413,44.07298],[12.5144,44.07348],[12.516,44.07406],[12.51727,44.07422],[12.51805,44.07468],[12.5176,44.07566],[12.51823,44.07588],[12.51801,44.07653],[12.51986,44.07748],[12.52018,44.07703],[12.52094,44.07728],[12.52143,44.07712],[12.52164,44.07671],[12.52383,44.0779],[12.52472,44.07855],[12.52459,44.07966],[12.52389,44.08013],[12.52269,44.08053],[12.52487,44.08164],[12.52369,44.08222],[12.52248,44.08307],[12.5209,44.08465],[12.52061,44.08517],[12.51877,44.08619],[12.51554,44.08827],[12.51442,44.08891],[12.5119,44.09051],[12.5102,44.09145],[12.50944,44.09201],[12.50802,44.09277],[12.50446,44.09494],[12.50215,44.09644],[12.50017,44.09762],[12.5003,44.09771],[12.49764,44.09923],[12.49608,44.10018],[12.49296,44.10222],[12.48783,44.10542],[12.48611,44.10644],[12.48488,44.10791],[12.48496,44.108],[12.48473,44.10795],[12.48068,44.1129],[12.47687,44.10983],[12.47554,44.10974],[12.4702,44.10982],[12.46898,44.10989],[12.46864,44.11043],[12.46646,44.11014],[12.46522,44.11013],[12.46471,44.10982],[12.46364,44.10967],[12.46184,44.10966],[12.46114,44.1094],[12.46081,44.10876],[12.45888,44.1089],[12.45653,44.10872],[12.45456,44.10898],[12.45247,44.10855],[12.45412,44.10781],[12.45464,44.10742],[12.4548,44.10673],[12.45472,44.10616],[12.45433,44.10584],[12.45289,44.10577],[12.45236,44.10549],[12.45406,44.10476],[12.45498,44.10407],[12.45555,44.10319],[12.45551,44.10287],[12.45453,44.10188],[12.45421,44.10134],[12.45401,44.10034],[12.45443,44.09931],[12.45433,44.09799],[12.45506,44.09686],[12.45661,44.09504],[12.45996,44.09495],[12.46005,44.09477],[12.46003,44.09192],[12.45968,44.09127],[12.46085,44.09183],[12.46216,44.09274],[12.46338,44.09329],[12.46795,44.09336],[12.46963,44.09348],[12.47046,44.09335],[12.4705,44.09184],[12.47079,44.09073],[12.47155,44.08993],[12.47226,44.08963],[12.47207,44.08876],[12.47157,44.08731],[12.47094,44.08726],[12.471,44.08648],[12.47136,44.08608],[12.46983,44.08463],[12.46864,44.08391],[12.46722,44.08383],[12.46598,44.0831],[12.46386,44.08139],[12.46367,44.08099],[12.46325,44.08039],[12.46652,44.0784],[12.46681,44.07861],[12.46913,44.08073],[12.47078,44.08222],[12.47053,44.08258],[12.47264,44.08188],[12.47335,44.08173],[12.4808,44.0792],[12.48076,44.07849],[12.48147,44.07808],[12.48213,44.07742],[12.48182,44.07693],[12.48088,44.07609],[12.48107,44.07557],[12.48176,44.0751],[12.48243,44.07369],[12.48408,44.07362],[12.48542,44.0734],[12.48663,44.07344],[12.48778,44.07325],[12.48765,44.07218],[12.48693,44.06894],[12.5014,44.06975],[12.49968,44.06961],[12.4996,44.06467],[12.49989,44.06398],[12.50129,44.06352],[12.50341,44.06307],[12.50147,44.06134],[12.50019,44.06217],[12.4998,44.06205],[12.49853,44.06109],[12.49436,44.06014],[12.49363,44.05978],[12.49229,44.05997],[12.49132,44.06037],[12.48972,44.06024],[12.4881,44.05969],[12.48662,44.05935],[12.48532,44.0594],[12.48528,44.05863],[12.48406,44.05796],[12.48405,44.05716],[12.48357,44.05679],[12.48275,44.05652],[12.48226,44.05589],[12.48123,44.05581],[12.47916,44.05644],[12.47789,44.05671],[12.47591,44.0575],[12.47521,44.05734],[12.47431,44.05738],[12.47332,44.05762],[12.47242,44.05755],[12.4719,44.05756],[12.47181,44.05768],[12.47179,44.05851],[12.47127,44.05852],[12.47104,44.05563],[12.47202,44.05564],[12.47207,44.05299],[12.46801,44.05199],[12.46448,44.04959],[12.46552,44.04842],[12.46731,44.04681],[12.46879,44.04583],[12.47232,44.04545],[12.47548,44.04499],[12.47642,44.04454],[12.47693,44.04472],[12.47777,44.04432],[12.48007,44.04455],[12.48054,44.04453],[12.48328,44.04471],[12.4837,44.04462],[12.48389,44.04387],[12.48439,44.04321],[12.48443,44.04241],[12.48535,44.04153],[12.4869,44.04075],[12.48785,44.04091],[12.48898,44.04033],[12.49007,44.03932],[12.48963,44.03884],[12.48847,44.03802],[12.49014,44.03675],[12.49131,44.03532],[12.49018,44.03472],[12.49122,44.03405],[12.49104,44.03384],[12.49273,44.03248],[12.49345,44.03311],[12.49527,44.03093],[12.49619,44.03064],[12.49746,44.03039],[12.49806,44.02936],[12.49849,44.02943],[12.49984,44.02849],[12.4989,44.02796],[12.49851,44.02716],[12.49904,44.02656],[12.49857,44.02557],[12.498,44.02524],[12.49779,44.0243],[12.49806,44.02377],[12.49794,44.02345],[12.49674,44.02249],[12.49541,44.02172],[12.49457,44.02103],[12.49419,44.02052],[12.49408,44.01998],[12.49438,44.01964],[12.49355,44.01835],[12.49212,44.01743],[12.49091,44.01605],[12.4906,44.0162],[12.48995,44.01538],[12.48887,44.01478],[12.48803,44.01415],[12.48749,44.01349],[12.48615,44.01303],[12.4856,44.01272],[12.48328,44.01212],[12.48254,44.01147],[12.48135,44.01107],[12.48078,44.01111],[12.47994,44.01177],[12.47868,44.01251],[12.47818,44.01245],[12.47766,44.01308],[12.47669,44.01352],[12.47565,44.01445],[12.47457,44.01491],[12.47328,44.01569],[12.47266,44.01593],[12.47244,44.01648],[12.47166,44.01689],[12.47144,44.01736],[12.47176,44.01827],[12.47021,44.01917],[12.46946,44.01857],[12.46859,44.01875],[12.46904,44.01928],[12.46834,44.01946],[12.46814,44.0192],[12.46727,44.019],[12.46776,44.01865],[12.46756,44.01789],[12.46638,44.01776],[12.46449,44.01731],[12.4638,44.01595],[12.46333,44.0158],[12.46279,44.01514],[12.46206,44.01573],[12.46105,44.01506],[12.46097,44.01422],[12.45973,44.01315],[12.45893,44.01314],[12.45857,44.01274],[12.4584,44.01213],[12.45796,44.01199],[12.45803,44.01147],[12.45611,44.01112],[12.45611,44.01072],[12.45525,44.01063],[12.45531,44.01003],[12.45539,44.00979],[12.45675,44.009],[12.45705,44.00903],[12.46058,44.00587],[12.46163,44.00387],[12.46278,44.00246],[12.46293,44.00199],[12.46258,44.00171],[12.461,44.00159],[12.46049,44.00024],[12.46017,43.99989],[12.46006,43.999],[12.46025,43.99852],[12.46024,43.99762],[12.4596,43.99594],[12.45905,43.99595],[12.45847,43.9957],[12.4578,43.99575],[12.45711,43.99544],[12.45514,43.99546],[12.45426,43.99508],[12.45446,43.99462],[12.45441,43.99366],[12.45478,43.993],[12.45455,43.99254],[12.45473,43.99181],[12.45453,43.99153],[12.45432,43.99041],[12.45471,43.99005],[12.45506,43.98902],[12.45607,43.98725],[12.45602,43.98517],[12.45532,43.98389],[12.45409,43.98395],[12.45309,43.98329],[12.45214,43.98292],[12.45114,43.98274],[12.451,43.98232],[12.44922,43.98079],[12.44928,43.98057],[12.44757,43.97949],[12.4479,43.97849],[12.44928,43.97807],[12.45151,43.97625],[12.45247,43.97524],[12.45298,43.97337],[12.45417,43.97302],[12.45248,43.97098],[12.4519,43.97084],[12.45299,43.96932],[12.46114,43.97341],[12.46341,43.97466],[12.46707,43.97596],[12.46839,43.97663],[12.46853,43.97706],[12.46904,43.97718],[12.46982,43.97776],[12.47051,43.97783],[12.47179,43.97849],[12.47285,43.97864],[12.47404,43.97926],[12.47606,43.97996],[12.4766,43.97983],[12.47826,43.98036],[12.47884,43.98073],[12.47989,43.98078],[12.48158,43.98104],[12.48293,43.98084],[12.48587,43.9814],[12.48674,43.98188],[12.48843,43.98233],[12.48956,43.98307],[12.4902,43.98336],[12.49102,43.98335],[12.49188,43.98302],[12.4926,43.98303],[12.49408,43.98419],[12.49505,43.98513],[12.49619,43.9864],[12.49687,43.98618],[12.49833,43.98622],[12.49887,43.98586],[12.49914,43.98627],[12.50017,43.98696],[12.50112,43.98718],[12.50224,43.98696],[12.50253,43.98741],[12.50351,43.98825],[12.50302,43.98897],[12.50401,43.98916],[12.50458,43.99043],[12.50374,43.99061],[12.504,43.99107],[12.50597,43.99088],[12.50627,43.9917],[12.50701,43.99149],[12.50778,43.99105],[12.50858,43.99093],[12.50823,43.99157],[12.50918,43.99205],[12.50951,43.99109],[12.51013,43.99093],[12.51262,43.99119],[12.51318,43.99116],[12.51364,43.99145],[12.51382,43.99229],[12.51477,43.99209],[12.51561,43.99146],[12.51698,43.99218],[12.5176,43.9923],[12.5179,43.99177],[12.51722,43.99118],[12.51721,43.99081],[12.51794,43.99069],[12.51887,43.99148],[12.51999,43.99151],[12.52062,43.99108],[12.52119,43.99159],[12.52215,43.99184],[12.52276,43.99134],[12.52346,43.99157],[12.52438,43.99223],[12.52566,43.99275],[12.52654,43.99263],[12.52748,43.99268],[12.52807,43.99291],[12.52852,43.99244],[12.52946,43.99206],[12.53202,43.99199],[12.53261,43.99225],[12.53324,43.99229],[12.53473,43.99208],[12.53503,43.99286],[12.53495,43.99364],[12.5352,43.99399],[12.53558,43.99509],[12.53683,43.9955],[12.53677,43.99606],[12.53702,43.99642],[12.53768,43.99666],[12.53911,43.99572],[12.54008,43.99553],[12.53952,43.99445],[12.53912,43.99312],[12.53926,43.99262],[12.54106,43.99196],[12.5416,43.9914],[12.54333,43.99026],[12.54394,43.99074],[12.54467,43.99019],[12.54537,43.98987],[12.54567,43.9887],[12.54672,43.988],[12.54957,43.98677],[12.55029,43.98666],[12.55159,43.98674],[12.55185,43.98698],[12.55296,43.98716],[12.55377,43.98744],[12.5543,43.98738],[12.55555,43.98844],[12.55631,43.9887],[12.55905,43.98869],[12.55983,43.98858],[12.55987,43.98917],[12.56039,43.98994],[12.56342,43.99068],[12.56369,43.99052],[12.56657,43.9911],[12.56715,43.9909],[12.56779,43.99148],[12.56961,43.99247],[12.57031,43.9932],[12.57177,43.99392],[12.57169,43.99502],[12.57184,43.99531],[12.57372,43.99474],[12.5751,43.99453],[12.57455,43.99284],[12.57397,43.9929],[12.57389,43.9918],[12.5744,43.98869],[12.57551,43.98896],[12.57604,43.98631],[12.57669,43.98531],[12.57817,43.98254],[12.57896,43.98275],[12.58059,43.9827],[12.58339,43.98198],[12.58778,43.98339],[12.58806,43.98306],[12.58789,43.9826],[12.59164,43.98252],[12.5944,43.98362],[12.59422,43.98397],[12.59755,43.98395],[12.59869,43.9842],[12.59962,43.98408],[12.60043,43.98444],[12.60071,43.98477],[12.60136,43.98476],[12.60102,43.98562],[12.60135,43.98585],[12.60168,43.98663],[12.60251,43.98685],[12.60333,43.98742],[12.60422,43.98713],[12.60499,43.98794],[12.60548,43.98825],[12.60315,43.99099],[12.60237,43.99199],[12.60213,43.99348],[12.60171,43.99386],[12.60263,43.99467],[12.6041,43.9957],[12.60448,43.99575],[12.60551,43.99533],[12.60564,43.99462],[12.60546,43.99313],[12.60639,43.99275],[12.60703,43.99275],[12.60672,43.99363],[12.60671,43.99494],[12.60687,43.99612],[12.60738,43.9965],[12.60826,43.99664],[12.6092,43.99644],[12.60875,43.99508],[12.60883,43.99475],[12.60955,43.99434],[12.6104,43.99412],[12.61086,43.9942],[12.61121,43.99468],[12.61148,43.99574],[12.61195,43.99562],[12.61222,43.99521],[12.61204,43.99454],[12.61239,43.99411],[12.61348,43.99433],[12.6141,43.9949],[12.61449,43.99624],[12.61437,43.99644],[12.61306,43.99659],[12.61276,43.99708],[12.6132,43.99767],[12.61465,43.99732],[12.61747,43.99811],[12.61758,43.9993],[12.61629,44.00057],[12.61671,44.00081],[12.61767,44.00077],[12.61947,44.00015],[12.62097,44.00028],[12.62104,44.00048],[12.62073,44.00182],[12.61975,44.00282],[12.61939,44.00337],[12.61817,44.00561],[12.61807,44.00603],[12.61841,44.00709],[12.61825,44.00782],[12.61888,44.00859],[12.61859,44.01183],[12.61825,44.01341],[12.6185,44.01425],[12.62163,44.01687],[12.62281,44.01778],[12.62426,44.01907],[12.62442,44.02001],[12.62434,44.02056],[12.61997,44.02327],[12.61574,44.02599],[12.6109,44.02899]]]},"properties":{"zona":"R5","linkzona":"RN00000979","fascia":"R","fascia_label":"Extraurbana","descr":"ZONA AGRICOLA","semestre":"2025-S2","loc_min":6.0,"loc_max":8.0,"loc_mid":7.0,"sale_min":1600.0,"sale_max":1950.0,"sup":"L","tipologia":"Abitazioni civili","stato":"NORMALE"}},{"type":"Feature","geometry":{"type":"Polygon","coordinates":[[[12.51554,44.08827],[12.51956,44.09208],[12.5188,44.09214],[12.51811,44.09257],[12.52015,44.09444],[12.52152,44.09352],[12.52359,44.09539],[12.52558,44.09407],[12.52562,44.09417],[12.52005,44.09801],[12.51726,44.10015],[12.51673,44.10046],[12.51418,44.10253],[12.51052,44.10554],[12.50883,44.10686],[12.50867,44.10717],[12.50517,44.11001],[12.50512,44.11012],[12.50269,44.11215],[12.50063,44.11383],[12.50087,44.11397],[12.50066,44.11389],[12.50048,44.11375],[12.49988,44.11264],[12.49865,44.11196],[12.49793,44.11133],[12.49738,44.11105],[12.49493,44.11058],[12.49396,44.11053],[12.49365,44.11031],[12.49211,44.1098],[12.49124,44.11],[12.49025,44.10936],[12.48942,44.10863],[12.48856,44.10879],[12.48821,44.10924],[12.48738,44.10939],[12.48623,44.10901],[12.48531,44.10885],[12.48496,44.108],[12.48488,44.10791],[12.48611,44.10644],[12.48783,44.10542],[12.49296,44.10222],[12.49608,44.10018],[12.49764,44.09923],[12.5003,44.09771],[12.50017,44.09762],[12.50215,44.09644],[12.50446,44.09494],[12.50802,44.09277],[12.50944,44.09201],[12.5102,44.09145],[12.5119,44.09051],[12.51442,44.08891],[12.51554,44.08827]]]},"properties":{"zona":"D3","linkzona":"RN00000521","fascia":"D","fascia_label":"Periferica","descr":"TORRE PEDRERA MONTE","semestre":"2025-S2","loc_min":6.0,"loc_max":9.0,"loc_mid":7.5,"sale_min":1600.0,"sale_max":2200.0,"sup":"L","tipologia":"Abitazioni civili","stato":"NORMALE"}},{"type":"Feature","geometry":{"type":"Polygon","coordinates":[[[12.52487,44.08164],[12.52269,44.08053],[12.52389,44.08013],[12.52459,44.07966],[12.52472,44.07855],[12.52383,44.0779],[12.52164,44.07671],[12.52143,44.07712],[12.52094,44.07728],[12.52018,44.07703],[12.51986,44.07748],[12.51801,44.07653],[12.51823,44.07588],[12.5176,44.07566],[12.51805,44.07468],[12.51727,44.07422],[12.516,44.07406],[12.5144,44.07348],[12.51413,44.07298],[12.51342,44.07305],[12.51333,44.07255],[12.51175,44.07273],[12.51157,44.07251],[12.50992,44.07261],[12.50931,44.0732],[12.50863,44.07354],[12.50766,44.07362],[12.50774,44.07008],[12.50916,44.07005],[12.51155,44.07044],[12.51526,44.07047],[12.51756,44.06986],[12.51926,44.06933],[12.51886,44.06653],[12.51957,44.06655],[12.52029,44.06635],[12.52436,44.06539],[12.52781,44.06415],[12.52777,44.06403],[12.52898,44.06297],[12.53084,44.06195],[12.5335,44.06122],[12.53469,44.06102],[12.53946,44.06048],[12.54144,44.06106],[12.54345,44.06192],[12.54403,44.06218],[12.54462,44.06246],[12.54468,44.06248],[12.54595,44.06283],[12.54683,44.06291],[12.54696,44.0637],[12.5464,44.06371],[12.54503,44.0633],[12.54205,44.06179],[12.54177,44.06187],[12.54135,44.06504],[12.54102,44.06867],[12.54543,44.06931],[12.54629,44.06961],[12.54475,44.07008],[12.5405,44.07272],[12.53703,44.0749],[12.53631,44.07529],[12.53334,44.07722],[12.53217,44.07786],[12.53057,44.07886],[12.52567,44.08183],[12.52487,44.08164]]]},"properties":{"zona":"D4","linkzona":"RN00000734","fascia":"D","fascia_label":"Periferica","descr":"ZONA INDUSTRIALE NORD - TURCHETTA","semestre":"2025-S2","loc_min":6.5,"loc_max":9.5,"loc_mid":8.0,"sale_min":1800.0,"sale_max":2650.0,"sup":"L","tipologia":"Abitazioni civili","stato":"NORMALE"}},{"type":"Feature","geometry":{"type":"Polygon","coordinates":[[[12.55068,44.02819],[12.55106,44.02933],[12.55268,44.03164],[12.55349,44.03347],[12.55355,44.03432],[12.55406,44.03699],[12.55464,44.03892],[12.55558,44.04025],[12.5562,44.04064],[12.55544,44.04159],[12.55295,44.04366],[12.55106,44.04468],[12.55041,44.04462],[12.54869,44.04393],[12.54687,44.04372],[12.54629,44.04353],[12.54514,44.04257],[12.54401,44.04225],[12.54315,44.04251],[12.5426,44.04244],[12.54169,44.04144],[12.54064,44.04079],[12.54035,44.04056],[12.54,44.03977],[12.53982,44.03878],[12.53869,44.03776],[12.53843,44.03714],[12.53754,44.03662],[12.53812,44.03607],[12.5382,44.03521],[12.53916,44.03496],[12.54078,44.03409],[12.53935,44.03343],[12.54024,44.03285],[12.54018,44.03221],[12.54176,44.03173],[12.54249,44.03135],[12.54367,44.03023],[12.54353,44.02925],[12.54367,44.02885],[12.54441,44.02829],[12.54472,44.02765],[12.54462,44.0267],[12.54479,44.02585],[12.5446,44.02536],[12.54582,44.02458],[12.54785,44.02316],[12.54975,44.02502],[12.54988,44.0271],[12.55068,44.02819]]]},"properties":{"zona":"D6","linkzona":"RN00000740","fascia":"D","fascia_label":"Periferica","descr":"COLLE COVIGNANO","semestre":"2025-S2","loc_min":6.0,"loc_max":9.0,"loc_mid":7.5,"sale_min":1900.0,"sale_max":2650.0,"sup":"L","tipologia":"Abitazioni civili","stato":"NORMALE"}},{"type":"Feature","geometry":{"type":"Polygon","coordinates":[[[12.52564,44.09412],[12.52591,44.09415],[12.52823,44.09567],[12.52855,44.0959],[12.52778,44.09669],[12.52583,44.09797],[12.52494,44.09846],[12.52344,44.09973],[12.5233,44.10001],[12.52216,44.10061],[12.52058,44.10189],[12.52011,44.10261],[12.51861,44.10365],[12.51709,44.10457],[12.5168,44.10495],[12.5159,44.10546],[12.51483,44.10663],[12.51458,44.10711],[12.51402,44.10761],[12.51321,44.10805],[12.51195,44.109],[12.5117,44.10938],[12.51006,44.11055],[12.50894,44.1116],[12.5087,44.11231],[12.50741,44.11288],[12.50558,44.11395],[12.50399,44.11529],[12.50374,44.11562],[12.50294,44.11521],[12.50087,44.11397],[12.50063,44.11383],[12.50269,44.11215],[12.50512,44.11012],[12.50517,44.11001],[12.50867,44.10717],[12.50883,44.10686],[12.51052,44.10554],[12.51418,44.10253],[12.51673,44.10046],[12.51726,44.10015],[12.52005,44.09801],[12.52562,44.09417],[12.52558,44.09407],[12.52564,44.09412]]]},"properties":{"zona":"D2","linkzona":"RN00000201","fascia":"D","fascia_label":"Periferica","descr":"TORRE PEDRERA MARE","semestre":"2025-S2","loc_min":7.5,"loc_max":11.0,"loc_mid":9.25,"sale_min":1850.0,"sale_max":2650.0,"sup":"L","tipologia":"Abitazioni civili","stato":"NORMALE"}},{"type":"Feature","geometry":{"type":"Polygon","coordinates":[[[12.45661,44.09504],[12.45671,44.09452],[12.45575,44.09438],[12.45462,44.09473],[12.45303,44.09582],[12.45226,44.09608],[12.45152,44.09578],[12.45167,44.09524],[12.45566,44.09303],[12.45697,44.09185],[12.4573,44.09121],[12.4576,44.08983],[12.45649,44.08935],[12.45563,44.08925],[12.45447,44.08944],[12.45283,44.09002],[12.45227,44.09001],[12.45172,44.08916],[12.45157,44.08843],[12.45239,44.08726],[12.45232,44.08652],[12.45256,44.08571],[12.45359,44.08561],[12.45587,44.08513],[12.45696,44.08431],[12.46009,44.08242],[12.46326,44.0804],[12.46367,44.08099],[12.46386,44.08139],[12.46598,44.0831],[12.46722,44.08383],[12.46864,44.08391],[12.46983,44.08463],[12.47136,44.08608],[12.471,44.08648],[12.47094,44.08726],[12.47157,44.08731],[12.47207,44.08876],[12.47226,44.08963],[12.47155,44.08993],[12.47079,44.09073],[12.4705,44.09184],[12.47046,44.09335],[12.46963,44.09348],[12.46795,44.09336],[12.46338,44.09329],[12.46216,44.09274],[12.46085,44.09183],[12.45968,44.09127],[12.46003,44.09192],[12.46005,44.09477],[12.45996,44.09495],[12.45661,44.09504]]]},"properties":{"zona":"E1","linkzona":"RN00000522","fascia":"E","fascia_label":"Suburbana","descr":"S.VITO","semestre":"2025-S2","loc_min":6.0,"loc_max":8.0,"loc_mid":7.0,"sale_min":1600.0,"sale_max":1900.0,"sup":"L","tipologia":"Abitazioni civili","stato":"NORMALE"}},{"type":"Feature","geometry":{"type":"Polygon","coordinates":[[[12.55106,44.04468],[12.55277,44.04625],[12.55128,44.04737],[12.55032,44.04821],[12.54703,44.05156],[12.54512,44.05335],[12.54321,44.05535],[12.54272,44.05601],[12.54277,44.05653],[12.54236,44.05707],[12.54195,44.06069],[12.54384,44.06138],[12.54454,44.06151],[12.54463,44.06246],[12.54403,44.06217],[12.54345,44.06192],[12.54144,44.06106],[12.53946,44.06048],[12.53469,44.06102],[12.5335,44.06122],[12.53084,44.06195],[12.52898,44.06297],[12.52777,44.06403],[12.52781,44.06415],[12.52436,44.06539],[12.52029,44.06635],[12.51957,44.06655],[12.51886,44.06653],[12.51621,44.06623],[12.51733,44.06481],[12.51802,44.06408],[12.51787,44.06358],[12.5174,44.06359],[12.51725,44.062],[12.5175,44.06045],[12.51487,44.05998],[12.51501,44.05941],[12.51626,44.05807],[12.51622,44.05739],[12.51548,44.05641],[12.5176,44.05556],[12.51674,44.05545],[12.51454,44.05634],[12.51469,44.0551],[12.51439,44.05499],[12.51189,44.05489],[12.50957,44.05466],[12.50789,44.05443],[12.50771,44.05432],[12.50834,44.05348],[12.50821,44.05313],[12.51008,44.05105],[12.50795,44.0504],[12.50494,44.04911],[12.50464,44.04907],[12.50402,44.05002],[12.50406,44.05055],[12.50258,44.04995],[12.50178,44.0495],[12.50114,44.04946],[12.50027,44.04906],[12.49892,44.04766],[12.49772,44.04626],[12.49785,44.04597],[12.49884,44.0455],[12.50003,44.04459],[12.50132,44.04407],[12.50198,44.04401],[12.50311,44.04323],[12.50352,44.04257],[12.50401,44.04242],[12.50502,44.04288],[12.50547,44.04336],[12.50675,44.04437],[12.50846,44.04505],[12.51103,44.04525],[12.5115,44.04546],[12.51116,44.04617],[12.51121,44.04753],[12.51279,44.04792],[12.51357,44.04558],[12.51327,44.0449],[12.51288,44.04461],[12.51086,44.04384],[12.51197,44.0428],[12.51178,44.0422],[12.51308,44.04132],[12.51231,44.04082],[12.51335,44.04001],[12.51308,44.03971],[12.51228,44.03937],[12.51268,44.03898],[12.51371,44.03862],[12.5139,44.03884],[12.51557,44.03947],[12.51576,44.03881],[12.51737,44.03761],[12.51817,44.03649],[12.51882,44.03589],[12.51906,44.03542],[12.5202,44.03659],[12.52059,44.0373],[12.52116,44.03772],[12.52157,44.03841],[12.52288,44.03965],[12.52391,44.04018],[12.52525,44.04144],[12.5264,44.04157],[12.52793,44.04195],[12.52965,44.04286],[12.53019,44.0428],[12.53406,44.04147],[12.53456,44.04148],[12.53557,44.0421],[12.53717,44.04356],[12.53831,44.04318],[12.53887,44.04263],[12.53947,44.04277],[12.53994,44.04217],[12.54036,44.04113],[12.54064,44.04079],[12.54169,44.04144],[12.5426,44.04244],[12.54315,44.04251],[12.54401,44.04225],[12.54514,44.04257],[12.54629,44.04353],[12.54687,44.04372],[12.54869,44.04393],[12.55041,44.04462],[12.55106,44.04468]]]},"properties":{"zona":"D5","linkzona":"RN00000739","fascia":"D","fascia_label":"Periferica","descr":"VIA MARECCHIESE A MONTE DELLA STATALE","semestre":"2025-S2","loc_min":6.5,"loc_max":9.5,"loc_mid":8.0,"sale_min":1750.0,"sale_max":2550.0,"sup":"L","tipologia":"Abitazioni civili","stato":"NORMALE"}},{"type":"Feature","geometry":{"type":"Polygon","coordinates":[[[12.62819,44.02202],[12.63077,44.02387],[12.63105,44.02422],[12.6326,44.02529],[12.63159,44.02609],[12.6305,44.02711],[12.62887,44.02831],[12.62765,44.02909],[12.62549,44.03099],[12.62354,44.03283],[12.62198,44.03408],[12.6208,44.03491],[12.61948,44.03614],[12.61744,44.03783],[12.61724,44.03814],[12.6163,44.03882],[12.6153,44.03985],[12.61297,44.04172],[12.6097,44.04473],[12.60925,44.04529],[12.60643,44.04774],[12.60552,44.04844],[12.60392,44.04988],[12.60309,44.05077],[12.60171,44.05204],[12.59969,44.05093],[12.59905,44.05058],[12.59926,44.05013],[12.59795,44.04945],[12.5983,44.04909],[12.59823,44.04891],[12.60001,44.04706],[12.60001,44.04704],[12.60787,44.03891],[12.61031,44.03649],[12.61438,44.03328],[12.6224,44.02691],[12.62834,44.02215],[12.62819,44.02202]]]},"properties":{"zona":"D10","linkzona":"RN00000744","fascia":"D","fascia_label":"Periferica","descr":"BELLARIVA MAR E - MAREBELLO - RIVAZZURRA - MIRAMARE","semestre":"2025-S2","loc_min":7.7,"loc_max":11.5,"loc_mid":9.6,"sale_min":2050.0,"sale_max":2850.0,"sup":"L","tipologia":"Abitazioni civili","stato":"NORMALE"}},{"type":"Feature","geometry":{"type":"Polygon","coordinates":[[[12.55068,44.02819],[12.55243,44.02734],[12.55382,44.02639],[12.5554,44.02841],[12.55868,44.02678],[12.56092,44.0284],[12.56233,44.02756],[12.56208,44.02705],[12.5636,44.02622],[12.56414,44.02688],[12.56543,44.02668],[12.56583,44.02769],[12.56564,44.02825],[12.56525,44.02842],[12.56463,44.02814],[12.56444,44.02876],[12.56516,44.02917],[12.56586,44.02898],[12.56713,44.02834],[12.56774,44.02893],[12.5677,44.02899],[12.57254,44.03386],[12.57425,44.03554],[12.5759,44.03692],[12.57623,44.03686],[12.57961,44.03683],[12.57974,44.03839],[12.57964,44.03893],[12.57903,44.03957],[12.57626,44.04147],[12.57597,44.04172],[12.57551,44.04194],[12.57216,44.0421],[12.57077,44.04173],[12.57072,44.04209],[12.56791,44.04234],[12.56595,44.04261],[12.56052,44.04404],[12.55934,44.04418],[12.55495,44.04537],[12.55477,44.04534],[12.55277,44.04625],[12.55106,44.04468],[12.55295,44.04366],[12.55544,44.04159],[12.5562,44.04064],[12.55558,44.04025],[12.55464,44.03892],[12.55406,44.03699],[12.55355,44.03432],[12.55349,44.03347],[12.55268,44.03164],[12.55106,44.02933],[12.55068,44.02819]]]},"properties":{"zona":"D7","linkzona":"RN00000741","fascia":"D","fascia_label":"Periferica","descr":"ZONA GROTTA ROSSA - VILLAGGIO PRIMO MAGGIO","semestre":"2025-S2","loc_min":6.5,"loc_max":9.5,"loc_mid":8.0,"sale_min":2050.0,"sale_max":2750.0,"sup":"L","tipologia":"Abitazioni civili","stato":"NORMALE"}},{"type":"Feature","geometry":{"type":"Polygon","coordinates":[[[12.54732,44.08169],[12.54787,44.08195],[12.54993,44.0807],[12.55024,44.08094],[12.54741,44.08266],[12.54633,44.08342],[12.54556,44.08436],[12.54629,44.08415],[12.54564,44.08457],[12.54482,44.08534],[12.54399,44.08576],[12.54192,44.08704],[12.54127,44.08732],[12.53936,44.08874],[12.53889,44.08891],[12.53652,44.09014],[12.5355,44.09093],[12.5351,44.09181],[12.53421,44.09216],[12.53288,44.09338],[12.53185,44.09387],[12.53036,44.09493],[12.52949,44.09527],[12.52855,44.0959],[12.52823,44.09567],[12.52591,44.09415],[12.52564,44.09412],[12.52564,44.09402],[12.53122,44.09013],[12.53212,44.08982],[12.53599,44.08714],[12.53634,44.08681],[12.54039,44.08405],[12.54549,44.0805],[12.54732,44.08169]]]},"properties":{"zona":"D11","linkzona":"RN00000773","fascia":"D","fascia_label":"Periferica","descr":"VISERBA E VISERBELLA MARE","semestre":"2025-S2","loc_min":7.5,"loc_max":11.0,"loc_mid":9.25,"sale_min":2000.0,"sale_max":2800.0,"sup":"L","tipologia":"Abitazioni civili","stato":"NORMALE"}}]}